<?xml version="1.0" encoding="UTF-8"?>
<gpx creator="IGPSPORT" xmlns:xsi="http://www.w3.org/2001/XMLSchema-instance" schemaLocation="http://www.topografix.com/GPX/1/1 http://www.topografix.com/GPX/1/1/gpx.xsd" version="1.1" xmlns="http://www.topografix.com/GPX/1/1">
  <metadata>
    <time>2026-09-16T14:42:15.000Z</time>
    <link href="https://www.igpsport.cn/">
      <text>Велоспорт на свежем воздухе</text>
    </link>
  </metadata>
  <trk>
    <name>Велоспорт на свежем воздухе</name>
    <trkseg>
      <trkpt lat="44.65450088493526" lon="130.56708181276917">
        <ele>360.8</ele>
        <time>2026-09-16T14:42:15.000Z</time>
      </trkpt>
      <trkpt lat="44.654411282390356" lon="130.56712531484663">
        <ele>361</ele>
        <time>2026-09-16T14:42:17.000Z</time>
      </trkpt>
      <trkpt lat="44.65430458076298" lon="130.5671751871705">
        <ele>361.2</ele>
        <time>2026-09-16T14:42:19.000Z</time>
      </trkpt>
      <trkpt lat="44.654177678748965" lon="130.56722556240857">
        <ele>361.6</ele>
        <time>2026-09-16T14:42:21.000Z</time>
      </trkpt>
      <trkpt lat="44.654038371518254" lon="130.56727811694145">
        <ele>361.8</ele>
        <time>2026-09-16T14:42:23.000Z</time>
      </trkpt>
      <trkpt lat="44.65389051474631" lon="130.5673356167972">
        <ele>362</ele>
        <time>2026-09-16T14:42:25.000Z</time>
      </trkpt>
      <trkpt lat="44.653696306049824" lon="130.56741851381958">
        <ele>362</ele>
        <time>2026-09-16T14:42:27.000Z</time>
      </trkpt>
      <trkpt lat="44.65340880677104" lon="130.56754776276648">
        <ele>362.2</ele>
        <time>2026-09-16T14:42:30.000Z</time>
      </trkpt>
      <trkpt lat="44.65311317704618" lon="130.56769645772874">
        <ele>362.6</ele>
        <time>2026-09-16T14:42:33.000Z</time>
      </trkpt>
      <trkpt lat="44.65287806466222" lon="130.56782897561789">
        <ele>363</ele>
        <time>2026-09-16T14:42:35.000Z</time>
      </trkpt>
      <trkpt lat="44.65252451598644" lon="130.5680470727384">
        <ele>363.2</ele>
        <time>2026-09-16T14:42:38.000Z</time>
      </trkpt>
      <trkpt lat="44.65202562510967" lon="130.56838628835976">
        <ele>363.6</ele>
        <time>2026-09-16T14:42:42.000Z</time>
      </trkpt>
      <trkpt lat="44.65177156962454" lon="130.56857622228563">
        <ele>363.8</ele>
        <time>2026-09-16T14:42:44.000Z</time>
      </trkpt>
      <trkpt lat="44.65139237232506" lon="130.56889557279646">
        <ele>365</ele>
        <time>2026-09-16T14:42:47.000Z</time>
      </trkpt>
      <trkpt lat="44.65113965794444" lon="130.5691282544285">
        <ele>365.4</ele>
        <time>2026-09-16T14:42:49.000Z</time>
      </trkpt>
      <trkpt lat="44.65088618919253" lon="130.56937342509627">
        <ele>365.6</ele>
        <time>2026-09-16T14:42:51.000Z</time>
      </trkpt>
      <trkpt lat="44.65050430968404" lon="130.5697471741587">
        <ele>365.6</ele>
        <time>2026-09-16T14:42:54.000Z</time>
      </trkpt>
      <trkpt lat="44.65024623088539" lon="130.5699993018061">
        <ele>365.6</ele>
        <time>2026-09-16T14:42:56.000Z</time>
      </trkpt>
      <trkpt lat="44.649717919528484" lon="130.57050908915699">
        <ele>366.8</ele>
        <time>2026-09-16T14:43:00.000Z</time>
      </trkpt>
      <trkpt lat="44.64930670335889" lon="130.57088267058134">
        <ele>367</ele>
        <time>2026-09-16T14:43:03.000Z</time>
      </trkpt>
      <trkpt lat="44.64887838810682" lon="130.57122859172523">
        <ele>367</ele>
        <time>2026-09-16T14:43:06.000Z</time>
      </trkpt>
      <trkpt lat="44.64843439869583" lon="130.57153780013323">
        <ele>367</ele>
        <time>2026-09-16T14:43:09.000Z</time>
      </trkpt>
      <trkpt lat="44.647510377690196" lon="130.57205001823604">
        <ele>366.6</ele>
        <time>2026-09-16T14:43:15.000Z</time>
      </trkpt>
      <trkpt lat="44.64703185483813" lon="130.5722526088357">
        <ele>366.4</ele>
        <time>2026-09-16T14:43:18.000Z</time>
      </trkpt>
      <trkpt lat="44.6457262057811" lon="130.57261428795755">
        <ele>366.8</ele>
        <time>2026-09-16T14:43:26.000Z</time>
      </trkpt>
      <trkpt lat="44.64379157871008" lon="130.57308199815452">
        <ele>365.8</ele>
        <time>2026-09-16T14:43:38.000Z</time>
      </trkpt>
      <trkpt lat="44.64300946332514" lon="130.5734685715288">
        <ele>367.8</ele>
        <time>2026-09-16T14:43:43.000Z</time>
      </trkpt>
      <trkpt lat="44.642699332907796" lon="130.57366160675883">
        <ele>368.4</ele>
        <time>2026-09-16T14:43:45.000Z</time>
      </trkpt>
      <trkpt lat="44.64238543063402" lon="130.57387132197618">
        <ele>369.2</ele>
        <time>2026-09-16T14:43:47.000Z</time>
      </trkpt>
      <trkpt lat="44.64207110926509" lon="130.57410081848502">
        <ele>369.2</ele>
        <time>2026-09-16T14:43:49.000Z</time>
      </trkpt>
      <trkpt lat="44.6416094340384" lon="130.57449468411505">
        <ele>369.2</ele>
        <time>2026-09-16T14:43:53.000Z</time>
      </trkpt>
      <trkpt lat="44.64045180939138" lon="130.5757239740342">
        <ele>373</ele>
        <time>2026-09-16T14:44:01.000Z</time>
      </trkpt>
      <trkpt lat="44.63944103568792" lon="130.57673759758472">
        <ele>375.4</ele>
        <time>2026-09-16T14:44:08.000Z</time>
      </trkpt>
      <trkpt lat="44.638508800417185" lon="130.57740295305848">
        <ele>376.4</ele>
        <time>2026-09-16T14:44:14.000Z</time>
      </trkpt>
      <trkpt lat="44.637498781085014" lon="130.57784585282207">
        <ele>377.4</ele>
        <time>2026-09-16T14:44:20.000Z</time>
      </trkpt>
      <trkpt lat="44.635886773467064" lon="130.57809789665043">
        <ele>377.8</ele>
        <time>2026-09-16T14:44:29.000Z</time>
      </trkpt>
      <trkpt lat="44.63552266359329" lon="130.57812522165477">
        <ele>377.8</ele>
        <time>2026-09-16T14:44:31.000Z</time>
      </trkpt>
      <trkpt lat="44.63280089199543" lon="130.57836460880935">
        <ele>374.8</ele>
        <time>2026-09-16T14:44:47.000Z</time>
      </trkpt>
      <trkpt lat="44.63200259953737" lon="130.57847399264574">
        <ele>369.2</ele>
        <time>2026-09-16T14:44:55.000Z</time>
      </trkpt>
      <trkpt lat="44.63190327398479" lon="130.57876870036125">
        <ele>368.2</ele>
        <time>2026-09-16T14:45:00.000Z</time>
      </trkpt>
      <trkpt lat="44.63181400671601" lon="130.57953547686338">
        <ele>369.8</ele>
        <time>2026-09-16T14:45:07.000Z</time>
      </trkpt>
      <trkpt lat="44.63175860233605" lon="130.57979967445135">
        <ele>370.8</ele>
        <time>2026-09-16T14:45:09.000Z</time>
      </trkpt>
      <trkpt lat="44.63130036368966" lon="130.58152282610536">
        <ele>373.8</ele>
        <time>2026-09-16T14:45:20.000Z</time>
      </trkpt>
      <trkpt lat="44.630836425349116" lon="130.58244458399713">
        <ele>375</ele>
        <time>2026-09-16T14:45:26.000Z</time>
      </trkpt>
      <trkpt lat="44.63020677678287" lon="130.5832283757627">
        <ele>378.2</ele>
        <time>2026-09-16T14:45:32.000Z</time>
      </trkpt>
      <trkpt lat="44.629402281716466" lon="130.583826424554">
        <ele>378.4</ele>
        <time>2026-09-16T14:45:38.000Z</time>
      </trkpt>
      <trkpt lat="44.628465017303824" lon="130.58411727659404">
        <ele>378.8</ele>
        <time>2026-09-16T14:45:44.000Z</time>
      </trkpt>
      <trkpt lat="44.62660063058138" lon="130.5839350540191">
        <ele>380.8</ele>
        <time>2026-09-16T14:45:56.000Z</time>
      </trkpt>
      <trkpt lat="44.62551676668227" lon="130.58378091081977">
        <ele>381.2</ele>
        <time>2026-09-16T14:46:02.000Z</time>
      </trkpt>
      <trkpt lat="44.62496523745358" lon="130.58369650505483">
        <ele>382.4</ele>
        <time>2026-09-16T14:46:05.000Z</time>
      </trkpt>
      <trkpt lat="44.62333772331476" lon="130.58356725610793">
        <ele>384.4</ele>
        <time>2026-09-16T14:46:14.000Z</time>
      </trkpt>
      <trkpt lat="44.6222703717649" lon="130.5837936513126">
        <ele>385.4</ele>
        <time>2026-09-16T14:46:20.000Z</time>
      </trkpt>
      <trkpt lat="44.62041252292693" lon="130.58483166620135">
        <ele>387.6</ele>
        <time>2026-09-16T14:46:31.000Z</time>
      </trkpt>
      <trkpt lat="44.61857873015106" lon="130.58593472465873">
        <ele>389.4</ele>
        <time>2026-09-16T14:46:42.000Z</time>
      </trkpt>
      <trkpt lat="44.618235072121024" lon="130.5861386563629">
        <ele>389.8</ele>
        <time>2026-09-16T14:46:44.000Z</time>
      </trkpt>
      <trkpt lat="44.61597212590277" lon="130.5874759890139">
        <ele>389.4</ele>
        <time>2026-09-16T14:46:58.000Z</time>
      </trkpt>
      <trkpt lat="44.61478407494724" lon="130.5879693478346">
        <ele>390.2</ele>
        <time>2026-09-16T14:47:04.000Z</time>
      </trkpt>
      <trkpt lat="44.61428769864142" lon="130.588121060282">
        <ele>390.6</ele>
        <time>2026-09-16T14:47:06.000Z</time>
      </trkpt>
      <trkpt lat="44.6138933300972" lon="130.5882202181965">
        <ele>391</ele>
        <time>2026-09-16T14:47:08.000Z</time>
      </trkpt>
      <trkpt lat="44.61353173479438" lon="130.58830227702856">
        <ele>391.6</ele>
        <time>2026-09-16T14:47:10.000Z</time>
      </trkpt>
      <trkpt lat="44.61316888220608" lon="130.5883832462132">
        <ele>391.8</ele>
        <time>2026-09-16T14:47:12.000Z</time>
      </trkpt>
      <trkpt lat="44.612040175125" lon="130.58865155093372">
        <ele>392.4</ele>
        <time>2026-09-16T14:47:18.000Z</time>
      </trkpt>
      <trkpt lat="44.6112771704793" lon="130.58883327059448">
        <ele>392.6</ele>
        <time>2026-09-16T14:47:22.000Z</time>
      </trkpt>
      <trkpt lat="44.608820267021656" lon="130.58942595496774">
        <ele>396.6</ele>
        <time>2026-09-16T14:47:35.000Z</time>
      </trkpt>
      <trkpt lat="44.60607251152396" lon="130.590087370947">
        <ele>400.8</ele>
        <time>2026-09-16T14:47:50.000Z</time>
      </trkpt>
      <trkpt lat="44.60467935539782" lon="130.59051719494164">
        <ele>404.2</ele>
        <time>2026-09-16T14:47:58.000Z</time>
      </trkpt>
      <trkpt lat="44.603584092110395" lon="130.59124348685145">
        <ele>408.4</ele>
        <time>2026-09-16T14:48:05.000Z</time>
      </trkpt>
      <trkpt lat="44.60255521349609" lon="130.5925378203392">
        <ele>413.4</ele>
        <time>2026-09-16T14:48:14.000Z</time>
      </trkpt>
      <trkpt lat="44.60191802121699" lon="130.5939784180373">
        <ele>417.8</ele>
        <time>2026-09-16T14:48:21.000Z</time>
      </trkpt>
      <trkpt lat="44.601558772847056" lon="130.59559679590166">
        <ele>422.8</ele>
        <time>2026-09-16T14:48:28.000Z</time>
      </trkpt>
      <trkpt lat="44.60134486667812" lon="130.59749932028353">
        <ele>427.2</ele>
        <time>2026-09-16T14:48:36.000Z</time>
      </trkpt>
      <trkpt lat="44.60085586644709" lon="130.6018330156803">
        <ele>427.2</ele>
        <time>2026-09-16T14:48:53.000Z</time>
      </trkpt>
      <trkpt lat="44.600482201203704" lon="130.60610686428845">
        <ele>427.2</ele>
        <time>2026-09-16T14:49:09.000Z</time>
      </trkpt>
      <trkpt lat="44.60025446489453" lon="130.60950580984354">
        <ele>429</ele>
        <time>2026-09-16T14:49:21.000Z</time>
      </trkpt>
      <trkpt lat="44.60007593035698" lon="130.61049160547554">
        <ele>430</ele>
        <time>2026-09-16T14:49:25.000Z</time>
      </trkpt>
      <trkpt lat="44.59957888349891" lon="130.61179138720036">
        <ele>431.6</ele>
        <time>2026-09-16T14:49:31.000Z</time>
      </trkpt>
      <trkpt lat="44.59860750474036" lon="130.6137659959495">
        <ele>435.8</ele>
        <time>2026-09-16T14:49:40.000Z</time>
      </trkpt>
      <trkpt lat="44.59774576127529" lon="130.6155517604202">
        <ele>440.2</ele>
        <time>2026-09-16T14:49:48.000Z</time>
      </trkpt>
      <trkpt lat="44.597241170704365" lon="130.61720098368824">
        <ele>445</ele>
        <time>2026-09-16T14:49:55.000Z</time>
      </trkpt>
      <trkpt lat="44.59709876216948" lon="130.61887862160802">
        <ele>449.2</ele>
        <time>2026-09-16T14:50:02.000Z</time>
      </trkpt>
      <trkpt lat="44.59727075882256" lon="130.62068718485534">
        <ele>453</ele>
        <time>2026-09-16T14:50:10.000Z</time>
      </trkpt>
      <trkpt lat="44.597387770190835" lon="130.62155228108168">
        <ele>456.4</ele>
        <time>2026-09-16T14:50:14.000Z</time>
      </trkpt>
      <trkpt lat="44.597442001104355" lon="130.6219817698002">
        <ele>457.8</ele>
        <time>2026-09-16T14:50:16.000Z</time>
      </trkpt>
      <trkpt lat="44.59755088202655" lon="130.62284435145557">
        <ele>460.6</ele>
        <time>2026-09-16T14:50:20.000Z</time>
      </trkpt>
      <trkpt lat="44.597744001075625" lon="130.6244039721787">
        <ele>465</ele>
        <time>2026-09-16T14:50:27.000Z</time>
      </trkpt>
      <trkpt lat="44.597875429317355" lon="130.62682055868208">
        <ele>469.2</ele>
        <time>2026-09-16T14:50:38.000Z</time>
      </trkpt>
      <trkpt lat="44.59770896472037" lon="130.62778648920357">
        <ele>471</ele>
        <time>2026-09-16T14:50:42.000Z</time>
      </trkpt>
      <trkpt lat="44.59722742438316" lon="130.62905450351536">
        <ele>474.4</ele>
        <time>2026-09-16T14:50:48.000Z</time>
      </trkpt>
      <trkpt lat="44.596413876861334" lon="130.63018715009093">
        <ele>478.8</ele>
        <time>2026-09-16T14:50:55.000Z</time>
      </trkpt>
      <trkpt lat="44.59561390802264" lon="130.63096532598138">
        <ele>483.2</ele>
        <time>2026-09-16T14:51:01.000Z</time>
      </trkpt>
      <trkpt lat="44.594910917803645" lon="130.6319139059633">
        <ele>482.6</ele>
        <time>2026-09-16T14:51:07.000Z</time>
      </trkpt>
      <trkpt lat="44.59445678628981" lon="130.63295611180365">
        <ele>482.6</ele>
        <time>2026-09-16T14:51:12.000Z</time>
      </trkpt>
      <trkpt lat="44.594183368608356" lon="130.63420216552913">
        <ele>479.8</ele>
        <time>2026-09-16T14:51:17.000Z</time>
      </trkpt>
      <trkpt lat="44.594048922881484" lon="130.63608130440116">
        <ele>475.6</ele>
        <time>2026-09-16T14:51:24.000Z</time>
      </trkpt>
      <trkpt lat="44.59386586211622" lon="130.63712988048792">
        <ele>474.4</ele>
        <time>2026-09-16T14:51:28.000Z</time>
      </trkpt>
      <trkpt lat="44.59354701451957" lon="130.6380860041827">
        <ele>473.2</ele>
        <time>2026-09-16T14:51:32.000Z</time>
      </trkpt>
      <trkpt lat="44.59258913062513" lon="130.6398728583008">
        <ele>473.2</ele>
        <time>2026-09-16T14:51:43.000Z</time>
      </trkpt>
      <trkpt lat="44.5909362193197" lon="130.6429630983621">
        <ele>479.4</ele>
        <time>2026-09-16T14:51:58.000Z</time>
      </trkpt>
      <trkpt lat="44.5901748072356" lon="130.64398208633065">
        <ele>482.4</ele>
        <time>2026-09-16T14:52:04.000Z</time>
      </trkpt>
      <trkpt lat="44.58920988254249" lon="130.64476277679205">
        <ele>483.6</ele>
        <time>2026-09-16T14:52:10.000Z</time>
      </trkpt>
      <trkpt lat="44.58810456097126" lon="130.64520022831857">
        <ele>483.6</ele>
        <time>2026-09-16T14:52:16.000Z</time>
      </trkpt>
      <trkpt lat="44.58665583282709" lon="130.64564790576696">
        <ele>485.2</ele>
        <time>2026-09-16T14:52:24.000Z</time>
      </trkpt>
      <trkpt lat="44.58571177907288" lon="130.64634142443538">
        <ele>486.4</ele>
        <time>2026-09-16T14:52:30.000Z</time>
      </trkpt>
      <trkpt lat="44.5841945707798" lon="130.64813657663763">
        <ele>489.2</ele>
        <time>2026-09-16T14:52:41.000Z</time>
      </trkpt>
      <trkpt lat="44.58213899284601" lon="130.65053950063884">
        <ele>491</ele>
        <time>2026-09-16T14:52:58.000Z</time>
      </trkpt>
      <trkpt lat="44.58129812031984" lon="130.6513600051403">
        <ele>492.4</ele>
        <time>2026-09-16T14:53:04.000Z</time>
      </trkpt>
      <trkpt lat="44.58063486032188" lon="130.651731826365">
        <ele>493.8</ele>
        <time>2026-09-16T14:53:08.000Z</time>
      </trkpt>
      <trkpt lat="44.5797307882458" lon="130.65191094763577">
        <ele>496.6</ele>
        <time>2026-09-16T14:53:13.000Z</time>
      </trkpt>
      <trkpt lat="44.57880827598274" lon="130.65177532844245">
        <ele>498.6</ele>
        <time>2026-09-16T14:53:18.000Z</time>
      </trkpt>
      <trkpt lat="44.576624454930425" lon="130.65111885778606">
        <ele>503.4</ele>
        <time>2026-09-16T14:53:30.000Z</time>
      </trkpt>
      <trkpt lat="44.575364319607615" lon="130.65089531242847">
        <ele>505.6</ele>
        <time>2026-09-16T14:53:37.000Z</time>
      </trkpt>
      <trkpt lat="44.57410007715225" lon="130.65098650753498">
        <ele>510.6</ele>
        <time>2026-09-16T14:53:44.000Z</time>
      </trkpt>
      <trkpt lat="44.571878369897604" lon="130.65142781473696">
        <ele>515.2</ele>
        <time>2026-09-16T14:53:56.000Z</time>
      </trkpt>
      <trkpt lat="44.57027591764927" lon="130.6517350114882">
        <ele>519.8</ele>
        <time>2026-09-16T14:54:06.000Z</time>
      </trkpt>
      <trkpt lat="44.56827398389578" lon="130.65212971530855">
        <ele>524.2</ele>
        <time>2026-09-16T14:54:14.000Z</time>
      </trkpt>
      <trkpt lat="44.5671727694571" lon="130.6523478962481">
        <ele>528.2</ele>
        <time>2026-09-16T14:54:20.000Z</time>
      </trkpt>
      <trkpt lat="44.56566729582846" lon="130.65286522731185">
        <ele>533.2</ele>
        <time>2026-09-16T14:54:28.000Z</time>
      </trkpt>
      <trkpt lat="44.56461771391332" lon="130.65347157418728">
        <ele>537.4</ele>
        <time>2026-09-16T14:54:34.000Z</time>
      </trkpt>
      <trkpt lat="44.56348649226129" lon="130.65433482639492">
        <ele>542</ele>
        <time>2026-09-16T14:54:41.000Z</time>
      </trkpt>
      <trkpt lat="44.56255165860057" lon="130.65508098341525">
        <ele>546.4</ele>
        <time>2026-09-16T14:54:47.000Z</time>
      </trkpt>
      <trkpt lat="44.561619674786925" lon="130.65581356175244">
        <ele>551</ele>
        <time>2026-09-16T14:54:53.000Z</time>
      </trkpt>
      <trkpt lat="44.56052449531853" lon="130.65666834823787">
        <ele>556</ele>
        <time>2026-09-16T14:55:00.000Z</time>
      </trkpt>
      <trkpt lat="44.55926670692861" lon="130.6576446723193">
        <ele>560.2</ele>
        <time>2026-09-16T14:55:08.000Z</time>
      </trkpt>
      <trkpt lat="44.55770356580615" lon="130.65885527059436">
        <ele>564.4</ele>
        <time>2026-09-16T14:55:18.000Z</time>
      </trkpt>
      <trkpt lat="44.55656077712774" lon="130.65980401821434">
        <ele>567.6</ele>
        <time>2026-09-16T14:55:27.000Z</time>
      </trkpt>
      <trkpt lat="44.55585560761392" lon="130.66077346913517">
        <ele>570</ele>
        <time>2026-09-16T14:55:33.000Z</time>
      </trkpt>
      <trkpt lat="44.555341713130474" lon="130.66202161833644">
        <ele>573.8</ele>
        <time>2026-09-16T14:55:39.000Z</time>
      </trkpt>
      <trkpt lat="44.55475598573685" lon="130.66382389515638">
        <ele>578.2</ele>
        <time>2026-09-16T14:55:47.000Z</time>
      </trkpt>
      <trkpt lat="44.553973618894815" lon="130.6661202851683">
        <ele>582.6</ele>
        <time>2026-09-16T14:55:57.000Z</time>
      </trkpt>
      <trkpt lat="44.55310617573559" lon="130.66841927357018">
        <ele>586.4</ele>
        <time>2026-09-16T14:56:07.000Z</time>
      </trkpt>
      <trkpt lat="44.55240863375366" lon="130.6696048937738">
        <ele>587.2</ele>
        <time>2026-09-16T14:56:13.000Z</time>
      </trkpt>
      <trkpt lat="44.551547979936004" lon="130.67053419537842">
        <ele>590.4</ele>
        <time>2026-09-16T14:56:19.000Z</time>
      </trkpt>
      <trkpt lat="44.55056897364557" lon="130.67114531993866">
        <ele>593</ele>
        <time>2026-09-16T14:56:25.000Z</time>
      </trkpt>
      <trkpt lat="44.549765568226576" lon="130.67138839513063">
        <ele>596.4</ele>
        <time>2026-09-16T14:56:31.000Z</time>
      </trkpt>
      <trkpt lat="44.54855580814183" lon="130.6714189890772">
        <ele>598.2</ele>
        <time>2026-09-16T14:56:35.000Z</time>
      </trkpt>
      <trkpt lat="44.54707682132721" lon="130.67095630802214">
        <ele>599.8</ele>
        <time>2026-09-16T14:56:43.000Z</time>
      </trkpt>
      <trkpt lat="44.54651682637632" lon="130.670720692724">
        <ele>600.2</ele>
        <time>2026-09-16T14:56:46.000Z</time>
      </trkpt>
      <trkpt lat="44.54487816430628" lon="130.67003337666392">
        <ele>598.4</ele>
        <time>2026-09-16T14:56:55.000Z</time>
      </trkpt>
      <trkpt lat="44.542379854246974" lon="130.66899410448968">
        <ele>588</ele>
        <time>2026-09-16T14:57:09.000Z</time>
      </trkpt>
      <trkpt lat="44.54128216020763" lon="130.66841315478086">
        <ele>582</ele>
        <time>2026-09-16T14:57:15.000Z</time>
      </trkpt>
      <trkpt lat="44.540936071425676" lon="130.6681336183101">
        <ele>580.8</ele>
        <time>2026-09-16T14:57:17.000Z</time>
      </trkpt>
      <trkpt lat="44.54060347750783" lon="130.66780311986804">
        <ele>578.6</ele>
        <time>2026-09-16T14:57:19.000Z</time>
      </trkpt>
      <trkpt lat="44.54028630629182" lon="130.66742752678692">
        <ele>577.2</ele>
        <time>2026-09-16T14:57:21.000Z</time>
      </trkpt>
      <trkpt lat="44.53957149758935" lon="130.66637752577662">
        <ele>571.2</ele>
        <time>2026-09-16T14:57:26.000Z</time>
      </trkpt>
      <trkpt lat="44.53861277550459" lon="130.664983112365">
        <ele>565.4</ele>
        <time>2026-09-16T14:57:33.000Z</time>
      </trkpt>
      <trkpt lat="44.5376674644649" lon="130.66414651460946">
        <ele>561.4</ele>
        <time>2026-09-16T14:57:39.000Z</time>
      </trkpt>
      <trkpt lat="44.53658360056579" lon="130.6636663991958">
        <ele>553.8</ele>
        <time>2026-09-16T14:57:46.000Z</time>
      </trkpt>
      <trkpt lat="44.53561909496784" lon="130.66358308307827">
        <ele>549.2</ele>
        <time>2026-09-16T14:57:51.000Z</time>
      </trkpt>
      <trkpt lat="44.534627767279744" lon="130.66382858902216">
        <ele>545</ele>
        <time>2026-09-16T14:57:56.000Z</time>
      </trkpt>
      <trkpt lat="44.53403826802969" lon="130.66412949934602">
        <ele>542.8</ele>
        <time>2026-09-16T14:57:59.000Z</time>
      </trkpt>
      <trkpt lat="44.533655885607004" lon="130.6643947865814">
        <ele>541</ele>
        <time>2026-09-16T14:58:01.000Z</time>
      </trkpt>
      <trkpt lat="44.53328389674425" lon="130.6646992173046">
        <ele>539.4</ele>
        <time>2026-09-16T14:58:03.000Z</time>
      </trkpt>
      <trkpt lat="44.53292079269886" lon="130.6650287937373">
        <ele>537.8</ele>
        <time>2026-09-16T14:58:05.000Z</time>
      </trkpt>
      <trkpt lat="44.532561376690865" lon="130.66536960192025">
        <ele>536.8</ele>
        <time>2026-09-16T14:58:07.000Z</time>
      </trkpt>
      <trkpt lat="44.532201793044806" lon="130.66571317613125">
        <ele>535.6</ele>
        <time>2026-09-16T14:58:09.000Z</time>
      </trkpt>
      <trkpt lat="44.53184271231294" lon="130.66606211476028">
        <ele>534.6</ele>
        <time>2026-09-16T14:58:11.000Z</time>
      </trkpt>
      <trkpt lat="44.530642507597804" lon="130.6673230882734">
        <ele>529.8</ele>
        <time>2026-09-16T14:58:18.000Z</time>
      </trkpt>
      <trkpt lat="44.52858818694949" lon="130.66987428814173">
        <ele>520.4</ele>
        <time>2026-09-16T14:58:31.000Z</time>
      </trkpt>
      <trkpt lat="44.527676571160555" lon="130.67117507569492">
        <ele>515.8</ele>
        <time>2026-09-16T14:58:37.000Z</time>
      </trkpt>
      <trkpt lat="44.52737733721733" lon="130.6716343201697">
        <ele>514.8</ele>
        <time>2026-09-16T14:58:39.000Z</time>
      </trkpt>
      <trkpt lat="44.52553239651024" lon="130.67485900595784">
        <ele>499.8</ele>
        <time>2026-09-16T14:58:53.000Z</time>
      </trkpt>
      <trkpt lat="44.523553512990475" lon="130.67858945578337">
        <ele>489</ele>
        <time>2026-09-16T14:59:09.000Z</time>
      </trkpt>
      <trkpt lat="44.522810289636254" lon="130.68023616448045">
        <ele>482.2</ele>
        <time>2026-09-16T14:59:16.000Z</time>
      </trkpt>
      <trkpt lat="44.52225456945598" lon="130.68214505910873">
        <ele>474.8</ele>
        <time>2026-09-16T14:59:23.000Z</time>
      </trkpt>
      <trkpt lat="44.52206748537719" lon="130.68304552696645">
        <ele>470.4</ele>
        <time>2026-09-16T14:59:26.000Z</time>
      </trkpt>
      <trkpt lat="44.52194770798087" lon="130.68366385996342">
        <ele>468.2</ele>
        <time>2026-09-16T14:59:28.000Z</time>
      </trkpt>
      <trkpt lat="44.52182147651911" lon="130.68429342471063">
        <ele>466.6</ele>
        <time>2026-09-16T14:59:30.000Z</time>
      </trkpt>
      <trkpt lat="44.5214903075248" lon="130.68584986031055">
        <ele>462.6</ele>
        <time>2026-09-16T14:59:35.000Z</time>
      </trkpt>
      <trkpt lat="44.52106609940529" lon="130.6871861871332">
        <ele>457.8</ele>
        <time>2026-09-16T14:59:40.000Z</time>
      </trkpt>
      <trkpt lat="44.52043921686709" lon="130.68830215372145">
        <ele>454.8</ele>
        <time>2026-09-16T14:59:45.000Z</time>
      </trkpt>
      <trkpt lat="44.51923289336264" lon="130.68976731039584">
        <ele>450.6</ele>
        <time>2026-09-16T14:59:53.000Z</time>
      </trkpt>
      <trkpt lat="44.518300322815776" lon="130.69119391031563">
        <ele>445.8</ele>
        <time>2026-09-16T15:00:00.000Z</time>
      </trkpt>
      <trkpt lat="44.51616905629635" lon="130.69493508897722">
        <ele>436.6</ele>
        <time>2026-09-16T15:00:17.000Z</time>
      </trkpt>
      <trkpt lat="44.51439728960395" lon="130.6980086490512">
        <ele>431.2</ele>
        <time>2026-09-16T15:00:31.000Z</time>
      </trkpt>
      <trkpt lat="44.51346362940967" lon="130.69929669611156">
        <ele>428.4</ele>
        <time>2026-09-16T15:00:38.000Z</time>
      </trkpt>
      <trkpt lat="44.512119088321924" lon="130.7009509485215">
        <ele>426.8</ele>
        <time>2026-09-16T15:00:48.000Z</time>
      </trkpt>
      <trkpt lat="44.51166336424649" lon="130.7019800785929">
        <ele>426.8</ele>
        <time>2026-09-16T15:00:53.000Z</time>
      </trkpt>
      <trkpt lat="44.511375864967704" lon="130.70333652198315">
        <ele>426</ele>
        <time>2026-09-16T15:00:59.000Z</time>
      </trkpt>
      <trkpt lat="44.51132398098707" lon="130.70582896471024">
        <ele>422.6</ele>
        <time>2026-09-16T15:01:10.000Z</time>
      </trkpt>
      <trkpt lat="44.5112585183233" lon="130.70725967176259">
        <ele>421.2</ele>
        <time>2026-09-16T15:01:18.000Z</time>
      </trkpt>
      <trkpt lat="44.51094469986856" lon="130.7086524926126">
        <ele>420</ele>
        <time>2026-09-16T15:01:22.000Z</time>
      </trkpt>
      <trkpt lat="44.51052543707192" lon="130.70953686721623">
        <ele>419</ele>
        <time>2026-09-16T15:01:27.000Z</time>
      </trkpt>
      <trkpt lat="44.50984708964825" lon="130.71041621267796">
        <ele>419</ele>
        <time>2026-09-16T15:01:33.000Z</time>
      </trkpt>
      <trkpt lat="44.50894880108535" lon="130.71108357980847">
        <ele>418.8</ele>
        <time>2026-09-16T15:01:39.000Z</time>
      </trkpt>
      <trkpt lat="44.50726722367108" lon="130.71191120892763">
        <ele>417.6</ele>
        <time>2026-09-16T15:01:49.000Z</time>
      </trkpt>
      <trkpt lat="44.50634320266545" lon="130.71271897293627">
        <ele>416.4</ele>
        <time>2026-09-16T15:01:55.000Z</time>
      </trkpt>
      <trkpt lat="44.504922134801745" lon="130.71447975933552">
        <ele>414.6</ele>
        <time>2026-09-16T15:02:05.000Z</time>
      </trkpt>
      <trkpt lat="44.50349352322519" lon="130.7158954627812">
        <ele>412</ele>
        <time>2026-09-16T15:02:14.000Z</time>
      </trkpt>
      <trkpt lat="44.50153023004532" lon="130.71764786727726">
        <ele>404.2</ele>
        <time>2026-09-16T15:02:29.000Z</time>
      </trkpt>
      <trkpt lat="44.5008734241128" lon="130.71851380169392">
        <ele>404.6</ele>
        <time>2026-09-16T15:02:35.000Z</time>
      </trkpt>
      <trkpt lat="44.4991050940007" lon="130.721495160833">
        <ele>408.4</ele>
        <time>2026-09-16T15:02:50.000Z</time>
      </trkpt>
      <trkpt lat="44.497321927919984" lon="130.724211987108">
        <ele>406.2</ele>
        <time>2026-09-16T15:03:04.000Z</time>
      </trkpt>
      <trkpt lat="44.49634836986661" lon="130.72575635276735">
        <ele>404.6</ele>
        <time>2026-09-16T15:03:12.000Z</time>
      </trkpt>
      <trkpt lat="44.494979521259665" lon="130.72873486205935">
        <ele>402.6</ele>
        <time>2026-09-16T15:03:25.000Z</time>
      </trkpt>
      <trkpt lat="44.493674375116825" lon="130.73171990923584">
        <ele>400</ele>
        <time>2026-09-16T15:03:40.000Z</time>
      </trkpt>
      <trkpt lat="44.49318839237094" lon="130.73333920910954">
        <ele>400.2</ele>
        <time>2026-09-16T15:03:45.000Z</time>
      </trkpt>
      <trkpt lat="44.49292000383139" lon="130.7348373066634">
        <ele>400</ele>
        <time>2026-09-16T15:03:50.000Z</time>
      </trkpt>
      <trkpt lat="44.492469392716885" lon="130.73912708088756">
        <ele>400.2</ele>
        <time>2026-09-16T15:04:06.000Z</time>
      </trkpt>
      <trkpt lat="44.49202347546816" lon="130.74328768998384">
        <ele>396.8</ele>
        <time>2026-09-16T15:04:22.000Z</time>
      </trkpt>
      <trkpt lat="44.491668501868844" lon="130.74525617994368">
        <ele>395.4</ele>
        <time>2026-09-16T15:04:30.000Z</time>
      </trkpt>
      <trkpt lat="44.49109165929258" lon="130.7476099859923">
        <ele>396.2</ele>
        <time>2026-09-16T15:04:40.000Z</time>
      </trkpt>
      <trkpt lat="44.49059042148292" lon="130.7512652501464">
        <ele>399.2</ele>
        <time>2026-09-16T15:04:55.000Z</time>
      </trkpt>
      <trkpt lat="44.49024927802384" lon="130.75308085419238">
        <ele>395.8</ele>
        <time>2026-09-16T15:05:02.000Z</time>
      </trkpt>
      <trkpt lat="44.48969506658614" lon="130.7545490283519">
        <ele>393.6</ele>
        <time>2026-09-16T15:05:08.000Z</time>
      </trkpt>
      <trkpt lat="44.488187078386545" lon="130.75728999450803">
        <ele>394</ele>
        <time>2026-09-16T15:05:20.000Z</time>
      </trkpt>
      <trkpt lat="44.48725601658225" lon="130.75916217640042">
        <ele>392.8</ele>
        <time>2026-09-16T15:05:28.000Z</time>
      </trkpt>
      <trkpt lat="44.486741200089455" lon="130.760738812387">
        <ele>393.6</ele>
        <time>2026-09-16T15:05:34.000Z</time>
      </trkpt>
      <trkpt lat="44.48611406609416" lon="130.76391178183258">
        <ele>393.2</ele>
        <time>2026-09-16T15:05:45.000Z</time>
      </trkpt>
      <trkpt lat="44.48523790575564" lon="130.76836517080665">
        <ele>389.2</ele>
        <time>2026-09-16T15:06:01.000Z</time>
      </trkpt>
      <trkpt lat="44.48424079455435" lon="130.77261990867555">
        <ele>385.8</ele>
        <time>2026-09-16T15:06:15.000Z</time>
      </trkpt>
      <trkpt lat="44.48311678133905" lon="130.77707597985864">
        <ele>382</ele>
        <time>2026-09-16T15:06:31.000Z</time>
      </trkpt>
      <trkpt lat="44.48253155685961" lon="130.77915351837873">
        <ele>378.4</ele>
        <time>2026-09-16T15:06:39.000Z</time>
      </trkpt>
      <trkpt lat="44.48209259659052" lon="130.78002984635532">
        <ele>377.2</ele>
        <time>2026-09-16T15:06:43.000Z</time>
      </trkpt>
      <trkpt lat="44.481523633003235" lon="130.78074976801872">
        <ele>376.2</ele>
        <time>2026-09-16T15:06:47.000Z</time>
      </trkpt>
      <trkpt lat="44.480851320549846" lon="130.7812951784581">
        <ele>375.8</ele>
        <time>2026-09-16T15:06:51.000Z</time>
      </trkpt>
      <trkpt lat="44.479227075353265" lon="130.78222515061498">
        <ele>377</ele>
        <time>2026-09-16T15:07:00.000Z</time>
      </trkpt>
      <trkpt lat="44.47843238711357" lon="130.78302981331944">
        <ele>377.8</ele>
        <time>2026-09-16T15:07:05.000Z</time>
      </trkpt>
      <trkpt lat="44.47789468802512" lon="130.78384637832642">
        <ele>377.6</ele>
        <time>2026-09-16T15:07:09.000Z</time>
      </trkpt>
      <trkpt lat="44.47730166837573" lon="130.78530206345022">
        <ele>378.2</ele>
        <time>2026-09-16T15:07:16.000Z</time>
      </trkpt>
      <trkpt lat="44.47702816687524" lon="130.78664995729923">
        <ele>377.6</ele>
        <time>2026-09-16T15:07:21.000Z</time>
      </trkpt>
      <trkpt lat="44.47698877193034" lon="130.7883476279676">
        <ele>376</ele>
        <time>2026-09-16T15:07:27.000Z</time>
      </trkpt>
      <trkpt lat="44.47714727371931" lon="130.78946887515485">
        <ele>375.2</ele>
        <time>2026-09-16T15:07:31.000Z</time>
      </trkpt>
      <trkpt lat="44.47763526812196" lon="130.79102505929768">
        <ele>375.4</ele>
        <time>2026-09-16T15:07:37.000Z</time>
      </trkpt>
      <trkpt lat="44.47841386310756" lon="130.7930202037096">
        <ele>373.6</ele>
        <time>2026-09-16T15:07:45.000Z</time>
      </trkpt>
      <trkpt lat="44.47863020002842" lon="130.7940847054124">
        <ele>372.4</ele>
        <time>2026-09-16T15:07:49.000Z</time>
      </trkpt>
      <trkpt lat="44.47869465686381" lon="130.79576410353184">
        <ele>371</ele>
        <time>2026-09-16T15:07:55.000Z</time>
      </trkpt>
      <trkpt lat="44.4783032219857" lon="130.7988017052412">
        <ele>369.6</ele>
        <time>2026-09-16T15:08:06.000Z</time>
      </trkpt>
      <trkpt lat="44.477793015539646" lon="130.80267431214452">
        <ele>367</ele>
        <time>2026-09-16T15:08:22.000Z</time>
      </trkpt>
      <trkpt lat="44.477168479934335" lon="130.8073946647346">
        <ele>365</ele>
        <time>2026-09-16T15:08:38.000Z</time>
      </trkpt>
      <trkpt lat="44.47676841169596" lon="130.8100697491318">
        <ele>363.2</ele>
        <time>2026-09-16T15:08:49.000Z</time>
      </trkpt>
      <trkpt lat="44.47635266929865" lon="130.81148168072104">
        <ele>363.4</ele>
        <time>2026-09-16T15:08:55.000Z</time>
      </trkpt>
      <trkpt lat="44.475766187533736" lon="130.8127709850669">
        <ele>362.6</ele>
        <time>2026-09-16T15:09:01.000Z</time>
      </trkpt>
      <trkpt lat="44.475008714944124" lon="130.8139280229807">
        <ele>362.2</ele>
        <time>2026-09-16T15:09:07.000Z</time>
      </trkpt>
      <trkpt lat="44.47396776638925" lon="130.81499671563506">
        <ele>361.8</ele>
        <time>2026-09-16T15:09:14.000Z</time>
      </trkpt>
      <trkpt lat="44.472961854189634" lon="130.81566316075623">
        <ele>360.2</ele>
        <time>2026-09-16T15:09:20.000Z</time>
      </trkpt>
      <trkpt lat="44.47186307050288" lon="130.81608217209578">
        <ele>360.4</ele>
        <time>2026-09-16T15:09:26.000Z</time>
      </trkpt>
      <trkpt lat="44.47070569731295" lon="130.81621829420328">
        <ele>360</ele>
        <time>2026-09-16T15:09:32.000Z</time>
      </trkpt>
      <trkpt lat="44.46758813224733" lon="130.81611092202365">
        <ele>357.8</ele>
        <time>2026-09-16T15:09:49.000Z</time>
      </trkpt>
      <trkpt lat="44.46444776840508" lon="130.81600916571915">
        <ele>360.4</ele>
        <time>2026-09-16T15:10:05.000Z</time>
      </trkpt>
      <trkpt lat="44.4630946777761" lon="130.8160970080644">
        <ele>360.6</ele>
        <time>2026-09-16T15:10:12.000Z</time>
      </trkpt>
      <trkpt lat="44.46197485551238" lon="130.81644452176988">
        <ele>362</ele>
        <time>2026-09-16T15:10:18.000Z</time>
      </trkpt>
      <trkpt lat="44.459666311740875" lon="130.8176417928189">
        <ele>363</ele>
        <time>2026-09-16T15:10:32.000Z</time>
      </trkpt>
      <trkpt lat="44.45859300903976" lon="130.8181006181985">
        <ele>363.2</ele>
        <time>2026-09-16T15:10:40.000Z</time>
      </trkpt>
      <trkpt lat="44.45692542940378" lon="130.81824361346662">
        <ele>366.8</ele>
        <time>2026-09-16T15:10:52.000Z</time>
      </trkpt>
      <trkpt lat="44.454998932778835" lon="130.8184034563601">
        <ele>369</ele>
        <time>2026-09-16T15:11:03.000Z</time>
      </trkpt>
      <trkpt lat="44.45413031615317" lon="130.81881324760616">
        <ele>368.2</ele>
        <time>2026-09-16T15:11:09.000Z</time>
      </trkpt>
      <trkpt lat="44.45331492461264" lon="130.81956267356873">
        <ele>366.4</ele>
        <time>2026-09-16T15:11:15.000Z</time>
      </trkpt>
      <trkpt lat="44.45221940986812" lon="130.82131918519735">
        <ele>361.4</ele>
        <time>2026-09-16T15:11:26.000Z</time>
      </trkpt>
      <trkpt lat="44.45105139166117" lon="130.82331986166537">
        <ele>359.8</ele>
        <time>2026-09-16T15:11:38.000Z</time>
      </trkpt>
      <trkpt lat="44.449059097096324" lon="130.82647506147623">
        <ele>362.2</ele>
        <time>2026-09-16T15:11:54.000Z</time>
      </trkpt>
      <trkpt lat="44.44733837619424" lon="130.82928718999028">
        <ele>360.6</ele>
        <time>2026-09-16T15:12:11.000Z</time>
      </trkpt>
      <trkpt lat="44.446556931361556" lon="130.83073675632477">
        <ele>359</ele>
        <time>2026-09-16T15:12:20.000Z</time>
      </trkpt>
      <trkpt lat="44.44623397663236" lon="130.83188440650702">
        <ele>356.8</ele>
        <time>2026-09-16T15:12:26.000Z</time>
      </trkpt>
      <trkpt lat="44.446113193407655" lon="130.83358878269792">
        <ele>356.8</ele>
        <time>2026-09-16T15:12:36.000Z</time>
      </trkpt>
      <trkpt lat="44.44630203768611" lon="130.83475671708584">
        <ele>357.8</ele>
        <time>2026-09-16T15:12:42.000Z</time>
      </trkpt>
      <trkpt lat="44.44708373397589" lon="130.83694204688072">
        <ele>362</ele>
        <time>2026-09-16T15:12:53.000Z</time>
      </trkpt>
      <trkpt lat="44.447619169950485" lon="130.83865731954575">
        <ele>365.4</ele>
        <time>2026-09-16T15:13:01.000Z</time>
      </trkpt>
      <trkpt lat="44.447717322036624" lon="130.83997797220945">
        <ele>369.2</ele>
        <time>2026-09-16T15:13:07.000Z</time>
      </trkpt>
      <trkpt lat="44.44765881635249" lon="130.84074919112027">
        <ele>372.6</ele>
        <time>2026-09-16T15:13:12.000Z</time>
      </trkpt>
      <trkpt lat="44.447054816409945" lon="130.8440395910293">
        <ele>381.6</ele>
        <time>2026-09-16T15:13:26.000Z</time>
      </trkpt>
      <trkpt lat="44.44658786058426" lon="130.84646539762616">
        <ele>389</ele>
        <time>2026-09-16T15:13:38.000Z</time>
      </trkpt>
      <trkpt lat="44.44603423587978" lon="130.84810120984912">
        <ele>393.8</ele>
        <time>2026-09-16T15:13:46.000Z</time>
      </trkpt>
      <trkpt lat="44.44536963477731" lon="130.8493649493903">
        <ele>399</ele>
        <time>2026-09-16T15:13:53.000Z</time>
      </trkpt>
      <trkpt lat="44.44371622055769" lon="130.8520284667611">
        <ele>409.6</ele>
        <time>2026-09-16T15:14:09.000Z</time>
      </trkpt>
      <trkpt lat="44.44185652770102" lon="130.85505282506347">
        <ele>404.6</ele>
        <time>2026-09-16T15:14:26.000Z</time>
      </trkpt>
      <trkpt lat="44.44056445732713" lon="130.8572017773986">
        <ele>393.2</ele>
        <time>2026-09-16T15:14:37.000Z</time>
      </trkpt>
      <trkpt lat="44.44006372243166" lon="130.8584479149431">
        <ele>386</ele>
        <time>2026-09-16T15:14:43.000Z</time>
      </trkpt>
      <trkpt lat="44.439781084656715" lon="130.85977309383452">
        <ele>378.2</ele>
        <time>2026-09-16T15:14:50.000Z</time>
      </trkpt>
      <trkpt lat="44.439548486843705" lon="130.8624840527773">
        <ele>365.6</ele>
        <time>2026-09-16T15:15:06.000Z</time>
      </trkpt>
      <trkpt lat="44.43934933282435" lon="130.8649294730276">
        <ele>355.2</ele>
        <time>2026-09-16T15:15:22.000Z</time>
      </trkpt>
      <trkpt lat="44.43916945718229" lon="130.8672631625086">
        <ele>346.8</ele>
        <time>2026-09-16T15:15:38.000Z</time>
      </trkpt>
      <trkpt lat="44.4389945268631" lon="130.8686265628785">
        <ele>343.8</ele>
        <time>2026-09-16T15:15:49.000Z</time>
      </trkpt>
      <trkpt lat="44.43874449469149" lon="130.8688890002668">
        <ele>343.6</ele>
        <time>2026-09-16T15:15:54.000Z</time>
      </trkpt>
      <trkpt lat="44.43731806240976" lon="130.86957531049848">
        <ele>345</ele>
        <time>2026-09-16T15:16:09.000Z</time>
      </trkpt>
      <trkpt lat="44.43634366616607" lon="130.86977630853653">
        <ele>344.2</ele>
        <time>2026-09-16T15:16:17.000Z</time>
      </trkpt>
      <trkpt lat="44.434472071006894" lon="130.86988870985806">
        <ele>340</ele>
        <time>2026-09-16T15:16:33.000Z</time>
      </trkpt>
      <trkpt lat="44.43376346491277" lon="130.86995157413185">
        <ele>337.6</ele>
        <time>2026-09-16T15:16:45.000Z</time>
      </trkpt>
      <trkpt lat="44.433600436896086" lon="130.8701298572123">
        <ele>337</ele>
        <time>2026-09-16T15:16:49.000Z</time>
      </trkpt>
      <trkpt lat="44.43353706970811" lon="130.87071122601628">
        <ele>337.6</ele>
        <time>2026-09-16T15:16:55.000Z</time>
      </trkpt>
      <trkpt lat="44.433639915660024" lon="130.8727962244302">
        <ele>344.4</ele>
        <time>2026-09-16T15:17:10.000Z</time>
      </trkpt>
      <trkpt lat="44.4337619561702" lon="130.87446405552328">
        <ele>350.4</ele>
        <time>2026-09-16T15:17:20.000Z</time>
      </trkpt>
      <trkpt lat="44.434062615036964" lon="130.87529721669853">
        <ele>354.6</ele>
        <time>2026-09-16T15:17:25.000Z</time>
      </trkpt>
      <trkpt lat="44.43523893132806" lon="130.87689958512783">
        <ele>360.2</ele>
        <time>2026-09-16T15:17:36.000Z</time>
      </trkpt>
      <trkpt lat="44.43611316382885" lon="130.87818562053144">
        <ele>364.6</ele>
        <time>2026-09-16T15:17:44.000Z</time>
      </trkpt>
      <trkpt lat="44.437006087973714" lon="130.88047756813467">
        <ele>370.8</ele>
        <time>2026-09-16T15:17:55.000Z</time>
      </trkpt>
      <trkpt lat="44.438327327370644" lon="130.88400039821863">
        <ele>382.4</ele>
        <time>2026-09-16T15:18:11.000Z</time>
      </trkpt>
      <trkpt lat="44.438990922644734" lon="130.88593427091837">
        <ele>390.6</ele>
        <time>2026-09-16T15:18:21.000Z</time>
      </trkpt>
      <trkpt lat="44.43908991292119" lon="130.88717906735837">
        <ele>395.4</ele>
        <time>2026-09-16T15:18:27.000Z</time>
      </trkpt>
      <trkpt lat="44.438885478302836" lon="130.888393772766">
        <ele>399.8</ele>
        <time>2026-09-16T15:18:33.000Z</time>
      </trkpt>
      <trkpt lat="44.4380013551563" lon="130.8906206768006">
        <ele>401.4</ele>
        <time>2026-09-16T15:18:44.000Z</time>
      </trkpt>
      <trkpt lat="44.436705596745014" lon="130.8938523195684">
        <ele>395.2</ele>
        <time>2026-09-16T15:19:00.000Z</time>
      </trkpt>
      <trkpt lat="44.43586690351367" lon="130.89579750783741">
        <ele>388.8</ele>
        <time>2026-09-16T15:19:11.000Z</time>
      </trkpt>
      <trkpt lat="44.43438590504229" lon="130.89798585511744">
        <ele>381.8</ele>
        <time>2026-09-16T15:19:23.000Z</time>
      </trkpt>
      <trkpt lat="44.432355305179954" lon="130.9010247979313">
        <ele>373</ele>
        <time>2026-09-16T15:19:39.000Z</time>
      </trkpt>
      <trkpt lat="44.43113925866783" lon="130.90322261676192">
        <ele>360.8</ele>
        <time>2026-09-16T15:19:55.000Z</time>
      </trkpt>
      <trkpt lat="44.430388659238815" lon="130.9047104883939">
        <ele>352.6</ele>
        <time>2026-09-16T15:20:11.000Z</time>
      </trkpt>
      <trkpt lat="44.42944929935038" lon="130.90650480240583">
        <ele>345.6</ele>
        <time>2026-09-16T15:20:25.000Z</time>
      </trkpt>
      <trkpt lat="44.42783486098051" lon="130.90940410271287">
        <ele>344.8</ele>
        <time>2026-09-16T15:20:41.000Z</time>
      </trkpt>
      <trkpt lat="44.42619049921632" lon="130.91239761561155">
        <ele>346</ele>
        <time>2026-09-16T15:20:57.000Z</time>
      </trkpt>
      <trkpt lat="44.42487311549485" lon="130.91490229591727">
        <ele>348.2</ele>
        <time>2026-09-16T15:21:11.000Z</time>
      </trkpt>
      <trkpt lat="44.4239292293787" lon="130.91616125777364">
        <ele>353.2</ele>
        <time>2026-09-16T15:21:19.000Z</time>
      </trkpt>
      <trkpt lat="44.422346809878945" lon="130.91753345914185">
        <ele>356</ele>
        <time>2026-09-16T15:21:31.000Z</time>
      </trkpt>
      <trkpt lat="44.41984422504902" lon="130.91957529075444">
        <ele>356.8</ele>
        <time>2026-09-16T15:21:47.000Z</time>
      </trkpt>
      <trkpt lat="44.41761011257768" lon="130.92140899971128">
        <ele>353.2</ele>
        <time>2026-09-16T15:22:03.000Z</time>
      </trkpt>
      <trkpt lat="44.41715179011226" lon="130.92193856835365">
        <ele>350.8</ele>
        <time>2026-09-16T15:22:07.000Z</time>
      </trkpt>
      <trkpt lat="44.41686571575701" lon="130.92264767736197">
        <ele>349.6</ele>
        <time>2026-09-16T15:22:11.000Z</time>
      </trkpt>
      <trkpt lat="44.416787177324295" lon="130.9234683495015">
        <ele>348.2</ele>
        <time>2026-09-16T15:22:15.000Z</time>
      </trkpt>
      <trkpt lat="44.41710501909256" lon="130.92598208226264">
        <ele>350.6</ele>
        <time>2026-09-16T15:22:26.000Z</time>
      </trkpt>
      <trkpt lat="44.41760592162609" lon="130.92982836999">
        <ele>355.2</ele>
        <time>2026-09-16T15:22:42.000Z</time>
      </trkpt>
      <trkpt lat="44.41783173009753" lon="130.93218150548637">
        <ele>356.4</ele>
        <time>2026-09-16T15:22:49.000Z</time>
      </trkpt>
      <trkpt lat="44.41776970401406" lon="130.93318892642856">
        <ele>357.8</ele>
        <time>2026-09-16T15:22:53.000Z</time>
      </trkpt>
      <trkpt lat="44.4174706377089" lon="130.93437446281314">
        <ele>360</ele>
        <time>2026-09-16T15:22:58.000Z</time>
      </trkpt>
      <trkpt lat="44.416355676949024" lon="130.93750736676157">
        <ele>368.2</ele>
        <time>2026-09-16T15:23:12.000Z</time>
      </trkpt>
      <trkpt lat="44.41608142107725" lon="130.93879147432745">
        <ele>372.8</ele>
        <time>2026-09-16T15:23:18.000Z</time>
      </trkpt>
      <trkpt lat="44.415835831314325" lon="130.94204029999673">
        <ele>383.2</ele>
        <time>2026-09-16T15:23:33.000Z</time>
      </trkpt>
      <trkpt lat="44.41542838700116" lon="130.94518049620092">
        <ele>395</ele>
        <time>2026-09-16T15:23:49.000Z</time>
      </trkpt>
      <trkpt lat="44.41514843143523" lon="130.9475148562342">
        <ele>404.6</ele>
        <time>2026-09-16T15:24:04.000Z</time>
      </trkpt>
      <trkpt lat="44.41514256410301" lon="130.94843686558306">
        <ele>409</ele>
        <time>2026-09-16T15:24:10.000Z</time>
      </trkpt>
      <trkpt lat="44.41532386466861" lon="130.9500207938254">
        <ele>413</ele>
        <time>2026-09-16T15:24:21.000Z</time>
      </trkpt>
      <trkpt lat="44.41579442471266" lon="130.95164654776454">
        <ele>420.2</ele>
        <time>2026-09-16T15:24:32.000Z</time>
      </trkpt>
      <trkpt lat="44.416370932012796" lon="130.95283761620522">
        <ele>425.8</ele>
        <time>2026-09-16T15:24:40.000Z</time>
      </trkpt>
      <trkpt lat="44.41727366298437" lon="130.95405207015574">
        <ele>433.4</ele>
        <time>2026-09-16T15:24:49.000Z</time>
      </trkpt>
      <trkpt lat="44.418222829699516" lon="130.95486737787724">
        <ele>440.2</ele>
        <time>2026-09-16T15:24:57.000Z</time>
      </trkpt>
      <trkpt lat="44.419850427657366" lon="130.9556802548468">
        <ele>450.2</ele>
        <time>2026-09-16T15:25:09.000Z</time>
      </trkpt>
      <trkpt lat="44.42162395454943" lon="130.95654987730086">
        <ele>459.8</ele>
        <time>2026-09-16T15:25:22.000Z</time>
      </trkpt>
      <trkpt lat="44.42247471772134" lon="130.95725898630917">
        <ele>463.6</ele>
        <time>2026-09-16T15:25:29.000Z</time>
      </trkpt>
      <trkpt lat="44.42372110672295" lon="130.9586970694363">
        <ele>471</ele>
        <time>2026-09-16T15:25:41.000Z</time>
      </trkpt>
      <trkpt lat="44.42433541640639" lon="130.95925848931074">
        <ele>476.6</ele>
        <time>2026-09-16T15:25:47.000Z</time>
      </trkpt>
      <trkpt lat="44.42495718598366" lon="130.9596421290189">
        <ele>481.2</ele>
        <time>2026-09-16T15:25:53.000Z</time>
      </trkpt>
      <trkpt lat="44.42601615563035" lon="130.95995645038784">
        <ele>486.6</ele>
        <time>2026-09-16T15:26:04.000Z</time>
      </trkpt>
      <trkpt lat="44.42715701647103" lon="130.9598940052092">
        <ele>493</ele>
        <time>2026-09-16T15:26:16.000Z</time>
      </trkpt>
      <trkpt lat="44.42907487973571" lon="130.95946535468102">
        <ele>504</ele>
        <time>2026-09-16T15:26:32.000Z</time>
      </trkpt>
      <trkpt lat="44.43055638112128" lon="130.9591759275645">
        <ele>513</ele>
        <time>2026-09-16T15:26:44.000Z</time>
      </trkpt>
      <trkpt lat="44.43128166720271" lon="130.95932344906032">
        <ele>517.4</ele>
        <time>2026-09-16T15:26:50.000Z</time>
      </trkpt>
      <trkpt lat="44.43194216117263" lon="130.95975855365396">
        <ele>521.4</ele>
        <time>2026-09-16T15:26:56.000Z</time>
      </trkpt>
      <trkpt lat="44.432466281577945" lon="130.96045316196978">
        <ele>526</ele>
        <time>2026-09-16T15:27:02.000Z</time>
      </trkpt>
      <trkpt lat="44.43282578140497" lon="130.96132337115705">
        <ele>531.8</ele>
        <time>2026-09-16T15:27:08.000Z</time>
      </trkpt>
      <trkpt lat="44.43348183296621" lon="130.9642370045185">
        <ele>542.2</ele>
        <time>2026-09-16T15:27:24.000Z</time>
      </trkpt>
      <trkpt lat="44.434248358011246" lon="130.96767811104655">
        <ele>550.8</ele>
        <time>2026-09-16T15:27:40.000Z</time>
      </trkpt>
      <trkpt lat="44.43467793054879" lon="130.969780376181">
        <ele>558.8</ele>
        <time>2026-09-16T15:27:51.000Z</time>
      </trkpt>
      <trkpt lat="44.43469310179353" lon="130.9708773996681">
        <ele>563.2</ele>
        <time>2026-09-16T15:27:57.000Z</time>
      </trkpt>
      <trkpt lat="44.434511214494705" lon="130.9718542266637">
        <ele>567</ele>
        <time>2026-09-16T15:28:03.000Z</time>
      </trkpt>
      <trkpt lat="44.43407845683396" lon="130.9728531818837">
        <ele>570.8</ele>
        <time>2026-09-16T15:28:11.000Z</time>
      </trkpt>
      <trkpt lat="44.43346230313182" lon="130.97364032641053">
        <ele>575.8</ele>
        <time>2026-09-16T15:28:19.000Z</time>
      </trkpt>
      <trkpt lat="44.43266451358795" lon="130.97413829527795">
        <ele>581.6</ele>
        <time>2026-09-16T15:28:27.000Z</time>
      </trkpt>
      <trkpt lat="44.43144368939102" lon="130.97434155642986">
        <ele>587.6</ele>
        <time>2026-09-16T15:28:37.000Z</time>
      </trkpt>
      <trkpt lat="44.42906473763287" lon="130.9745123796165">
        <ele>597.8</ele>
        <time>2026-09-16T15:28:54.000Z</time>
      </trkpt>
      <trkpt lat="44.42699742503464" lon="130.97471019253135">
        <ele>602</ele>
        <time>2026-09-16T15:29:07.000Z</time>
      </trkpt>
      <trkpt lat="44.42479901947081" lon="130.97531938925385">
        <ele>596.6</ele>
        <time>2026-09-16T15:29:21.000Z</time>
      </trkpt>
      <trkpt lat="44.42194095812738" lon="130.97617912106216">
        <ele>583.4</ele>
        <time>2026-09-16T15:29:37.000Z</time>
      </trkpt>
      <trkpt lat="44.42088861018419" lon="130.97672226838768">
        <ele>578</ele>
        <time>2026-09-16T15:29:43.000Z</time>
      </trkpt>
      <trkpt lat="44.41830446943641" lon="130.978520270437">
        <ele>561</ele>
        <time>2026-09-16T15:29:59.000Z</time>
      </trkpt>
      <trkpt lat="44.41621536388993" lon="130.97996145486832">
        <ele>552.6</ele>
        <time>2026-09-16T15:30:15.000Z</time>
      </trkpt>
      <trkpt lat="44.41432021558285" lon="130.9812693670392">
        <ele>540</ele>
        <time>2026-09-16T15:30:29.000Z</time>
      </trkpt>
      <trkpt lat="44.41364957951009" lon="130.98192650824785">
        <ele>534.2</ele>
        <time>2026-09-16T15:30:35.000Z</time>
      </trkpt>
      <trkpt lat="44.41302529536188" lon="130.98292496055365">
        <ele>528.6</ele>
        <time>2026-09-16T15:30:42.000Z</time>
      </trkpt>
      <trkpt lat="44.41259982995689" lon="130.98404268734157">
        <ele>522.8</ele>
        <time>2026-09-16T15:30:49.000Z</time>
      </trkpt>
      <trkpt lat="44.41240193322301" lon="130.98513149656355">
        <ele>517.8</ele>
        <time>2026-09-16T15:30:56.000Z</time>
      </trkpt>
      <trkpt lat="44.41222608089447" lon="130.98661308176816">
        <ele>517.4</ele>
        <time>2026-09-16T15:31:05.000Z</time>
      </trkpt>
      <trkpt lat="44.41183942370117" lon="130.9878132864833">
        <ele>515</ele>
        <time>2026-09-16T15:31:11.000Z</time>
      </trkpt>
      <trkpt lat="44.41122771240771" lon="130.98891022615135">
        <ele>509.2</ele>
        <time>2026-09-16T15:31:17.000Z</time>
      </trkpt>
      <trkpt lat="44.41045179963112" lon="130.9897236060351">
        <ele>503.6</ele>
        <time>2026-09-16T15:31:23.000Z</time>
      </trkpt>
      <trkpt lat="44.40874323248863" lon="130.99081140942872">
        <ele>493.4</ele>
        <time>2026-09-16T15:31:34.000Z</time>
      </trkpt>
      <trkpt lat="44.407150000333786" lon="130.9919118694961">
        <ele>483.8</ele>
        <time>2026-09-16T15:31:46.000Z</time>
      </trkpt>
      <trkpt lat="44.405406480655074" lon="130.99262919276953">
        <ele>474.6</ele>
        <time>2026-09-16T15:31:57.000Z</time>
      </trkpt>
      <trkpt lat="44.402688229456544" lon="130.99371330812573">
        <ele>459</ele>
        <time>2026-09-16T15:32:13.000Z</time>
      </trkpt>
      <trkpt lat="44.40164778381586" lon="130.9939894080162">
        <ele>453.8</ele>
        <time>2026-09-16T15:32:20.000Z</time>
      </trkpt>
      <trkpt lat="44.400781095027924" lon="130.99400516599417">
        <ele>451.2</ele>
        <time>2026-09-16T15:32:24.000Z</time>
      </trkpt>
      <trkpt lat="44.39977006986737" lon="130.99369805306196">
        <ele>445.8</ele>
        <time>2026-09-16T15:32:31.000Z</time>
      </trkpt>
      <trkpt lat="44.398767510429025" lon="130.99306790158153">
        <ele>440.2</ele>
        <time>2026-09-16T15:32:38.000Z</time>
      </trkpt>
      <trkpt lat="44.39737192355096" lon="130.9919282142073">
        <ele>434.2</ele>
        <time>2026-09-16T15:32:49.000Z</time>
      </trkpt>
      <trkpt lat="44.396254029124975" lon="130.99150920286775">
        <ele>430.4</ele>
        <time>2026-09-16T15:32:58.000Z</time>
      </trkpt>
      <trkpt lat="44.394926922395825" lon="130.9914869070053">
        <ele>425.6</ele>
        <time>2026-09-16T15:33:07.000Z</time>
      </trkpt>
      <trkpt lat="44.392544366419315" lon="130.99163878709078">
        <ele>409.8</ele>
        <time>2026-09-16T15:33:24.000Z</time>
      </trkpt>
      <trkpt lat="44.39150425605476" lon="130.99188186228275">
        <ele>405.2</ele>
        <time>2026-09-16T15:33:31.000Z</time>
      </trkpt>
      <trkpt lat="44.39065349288285" lon="130.9924488980323">
        <ele>401.8</ele>
        <time>2026-09-16T15:33:37.000Z</time>
      </trkpt>
      <trkpt lat="44.38993248157203" lon="130.99332086741924">
        <ele>400.4</ele>
        <time>2026-09-16T15:33:43.000Z</time>
      </trkpt>
      <trkpt lat="44.38808485865593" lon="130.99609728902578">
        <ele>407.2</ele>
        <time>2026-09-16T15:33:59.000Z</time>
      </trkpt>
      <trkpt lat="44.38644686713815" lon="130.9985245205462">
        <ele>404.2</ele>
        <time>2026-09-16T15:34:15.000Z</time>
      </trkpt>
      <trkpt lat="44.385000402107835" lon="131.00069870240986">
        <ele>394.4</ele>
        <time>2026-09-16T15:34:30.000Z</time>
      </trkpt>
      <trkpt lat="44.38457761891186" lon="131.00162230432034">
        <ele>391</ele>
        <time>2026-09-16T15:34:36.000Z</time>
      </trkpt>
      <trkpt lat="44.384144274517894" lon="131.0034121759236">
        <ele>387</ele>
        <time>2026-09-16T15:34:44.000Z</time>
      </trkpt>
      <trkpt lat="44.38342963345349" lon="131.0054601263255">
        <ele>385.2</ele>
        <time>2026-09-16T15:34:56.000Z</time>
      </trkpt>
      <trkpt lat="44.38326878473163" lon="131.00626881234348">
        <ele>385.6</ele>
        <time>2026-09-16T15:35:00.000Z</time>
      </trkpt>
      <trkpt lat="44.3832753226161" lon="131.00714589469135">
        <ele>386.2</ele>
        <time>2026-09-16T15:35:04.000Z</time>
      </trkpt>
      <trkpt lat="44.38345427624881" lon="131.00799825042486">
        <ele>385.8</ele>
        <time>2026-09-16T15:35:08.000Z</time>
      </trkpt>
      <trkpt lat="44.383990466594696" lon="131.00935578346252">
        <ele>385.4</ele>
        <time>2026-09-16T15:35:15.000Z</time>
      </trkpt>
      <trkpt lat="44.3842613697052" lon="131.01061650551856">
        <ele>383.8</ele>
        <time>2026-09-16T15:35:21.000Z</time>
      </trkpt>
      <trkpt lat="44.38427947461605" lon="131.01321816444397">
        <ele>385.6</ele>
        <time>2026-09-16T15:35:32.000Z</time>
      </trkpt>
      <trkpt lat="44.384257681667805" lon="131.01695766672492">
        <ele>390.6</ele>
        <time>2026-09-16T15:35:49.000Z</time>
      </trkpt>
      <trkpt lat="44.38422122038901" lon="131.0192196071148">
        <ele>392.6</ele>
        <time>2026-09-16T15:36:01.000Z</time>
      </trkpt>
      <trkpt lat="44.38401401974261" lon="131.02014421485364">
        <ele>391.6</ele>
        <time>2026-09-16T15:36:07.000Z</time>
      </trkpt>
      <trkpt lat="44.383634654805064" lon="131.0208497196436">
        <ele>390.4</ele>
        <time>2026-09-16T15:36:12.000Z</time>
      </trkpt>
      <trkpt lat="44.38307549804449" lon="131.02139596827328">
        <ele>386.4</ele>
        <time>2026-09-16T15:36:18.000Z</time>
      </trkpt>
      <trkpt lat="44.38214820809662" lon="131.02172168903053">
        <ele>382.4</ele>
        <time>2026-09-16T15:36:28.000Z</time>
      </trkpt>
      <trkpt lat="44.381364583969116" lon="131.02204699069262">
        <ele>382</ele>
        <time>2026-09-16T15:36:38.000Z</time>
      </trkpt>
      <trkpt lat="44.38083820044994" lon="131.02255526930094">
        <ele>383.6</ele>
        <time>2026-09-16T15:36:44.000Z</time>
      </trkpt>
      <trkpt lat="44.380368227139115" lon="131.0233871731907">
        <ele>384.4</ele>
        <time>2026-09-16T15:36:50.000Z</time>
      </trkpt>
      <trkpt lat="44.38012959435582" lon="131.0244199912995">
        <ele>385.4</ele>
        <time>2026-09-16T15:36:56.000Z</time>
      </trkpt>
      <trkpt lat="44.37997369095683" lon="131.02723999880254">
        <ele>387.2</ele>
        <time>2026-09-16T15:37:09.000Z</time>
      </trkpt>
      <trkpt lat="44.37982063740492" lon="131.03069996461272">
        <ele>389.6</ele>
        <time>2026-09-16T15:37:25.000Z</time>
      </trkpt>
      <trkpt lat="44.379881573840976" lon="131.0344609245658">
        <ele>393.6</ele>
        <time>2026-09-16T15:37:39.000Z</time>
      </trkpt>
      <trkpt lat="44.38000378198922" lon="131.0382983274758">
        <ele>394.2</ele>
        <time>2026-09-16T15:37:55.000Z</time>
      </trkpt>
      <trkpt lat="44.379954412579536" lon="131.03930708952248">
        <ele>393.4</ele>
        <time>2026-09-16T15:38:00.000Z</time>
      </trkpt>
      <trkpt lat="44.3796731159091" lon="131.04022004641593">
        <ele>392.8</ele>
        <time>2026-09-16T15:38:06.000Z</time>
      </trkpt>
      <trkpt lat="44.3791826069355" lon="131.04097232222557">
        <ele>393.6</ele>
        <time>2026-09-16T15:38:13.000Z</time>
      </trkpt>
      <trkpt lat="44.378120535984635" lon="131.04195702821016">
        <ele>393.2</ele>
        <time>2026-09-16T15:38:24.000Z</time>
      </trkpt>
      <trkpt lat="44.377854578197" lon="131.0423059668392">
        <ele>391.8</ele>
        <time>2026-09-16T15:38:32.000Z</time>
      </trkpt>
      <trkpt lat="44.37804467976093" lon="131.0435021482408">
        <ele>395.6</ele>
        <time>2026-09-16T15:38:44.000Z</time>
      </trkpt>
      <trkpt lat="44.378536865115166" lon="131.04569342918694">
        <ele>401.6</ele>
        <time>2026-09-16T15:39:00.000Z</time>
      </trkpt>
      <trkpt lat="44.379149079322815" lon="131.04846138507128">
        <ele>406.2</ele>
        <time>2026-09-16T15:39:16.000Z</time>
      </trkpt>
      <trkpt lat="44.37989925965667" lon="131.05188958346844">
        <ele>412.4</ele>
        <time>2026-09-16T15:39:32.000Z</time>
      </trkpt>
      <trkpt lat="44.38041131012142" lon="131.05393300764263">
        <ele>413.4</ele>
        <time>2026-09-16T15:39:40.000Z</time>
      </trkpt>
      <trkpt lat="44.38136466778815" lon="131.05623476207256">
        <ele>412.4</ele>
        <time>2026-09-16T15:39:52.000Z</time>
      </trkpt>
      <trkpt lat="44.38274407759309" lon="131.05945391580462">
        <ele>414.6</ele>
        <time>2026-09-16T15:40:08.000Z</time>
      </trkpt>
      <trkpt lat="44.38424536027014" lon="131.06301555410028">
        <ele>413.4</ele>
        <time>2026-09-16T15:40:24.000Z</time>
      </trkpt>
      <trkpt lat="44.38558361493051" lon="131.0661997552961">
        <ele>409.4</ele>
        <time>2026-09-16T15:40:41.000Z</time>
      </trkpt>
      <trkpt lat="44.38594403676689" lon="131.06739895418286">
        <ele>409</ele>
        <time>2026-09-16T15:40:47.000Z</time>
      </trkpt>
      <trkpt lat="44.38613380305469" lon="131.06919377110898">
        <ele>410.4</ele>
        <time>2026-09-16T15:40:55.000Z</time>
      </trkpt>
      <trkpt lat="44.38642549328506" lon="131.07307685539126">
        <ele>416.2</ele>
        <time>2026-09-16T15:41:11.000Z</time>
      </trkpt>
      <trkpt lat="44.38686126843095" lon="131.07635451480746">
        <ele>418.6</ele>
        <time>2026-09-16T15:41:24.000Z</time>
      </trkpt>
      <trkpt lat="44.387593092396855" lon="131.07953519560397">
        <ele>420</ele>
        <time>2026-09-16T15:41:37.000Z</time>
      </trkpt>
      <trkpt lat="44.388593807816505" lon="131.08338098041713">
        <ele>422</ele>
        <time>2026-09-16T15:41:53.000Z</time>
      </trkpt>
      <trkpt lat="44.38964473083615" lon="131.08724805526435">
        <ele>424.6</ele>
        <time>2026-09-16T15:42:08.000Z</time>
      </trkpt>
      <trkpt lat="44.39073630608618" lon="131.0905076097697">
        <ele>426.4</ele>
        <time>2026-09-16T15:42:22.000Z</time>
      </trkpt>
      <trkpt lat="44.39189828932285" lon="131.0939695034176">
        <ele>434.6</ele>
        <time>2026-09-16T15:42:38.000Z</time>
      </trkpt>
      <trkpt lat="44.39307980239391" lon="131.09747012145817">
        <ele>440</ele>
        <time>2026-09-16T15:42:55.000Z</time>
      </trkpt>
      <trkpt lat="44.39413852058351" lon="131.10065105371177">
        <ele>437.6</ele>
        <time>2026-09-16T15:43:11.000Z</time>
      </trkpt>
      <trkpt lat="44.395010406151414" lon="131.10326235182583">
        <ele>436.4</ele>
        <time>2026-09-16T15:43:27.000Z</time>
      </trkpt>
      <trkpt lat="44.395667714998126" lon="131.10496622510254">
        <ele>434</ele>
        <time>2026-09-16T15:43:39.000Z</time>
      </trkpt>
      <trkpt lat="44.39649601466954" lon="131.10612066462636">
        <ele>431.6</ele>
        <time>2026-09-16T15:43:49.000Z</time>
      </trkpt>
      <trkpt lat="44.39693212509155" lon="131.10678425990045">
        <ele>429.6</ele>
        <time>2026-09-16T15:43:56.000Z</time>
      </trkpt>
      <trkpt lat="44.3972525652498" lon="131.10774918459356">
        <ele>427.6</ele>
        <time>2026-09-16T15:44:08.000Z</time>
      </trkpt>
      <trkpt lat="44.39755531959236" lon="131.10791799612343">
        <ele>427.6</ele>
        <time>2026-09-16T15:44:15.000Z</time>
      </trkpt>
      <trkpt lat="44.39804616384208" lon="131.10796225257218">
        <ele>427.8</ele>
        <time>2026-09-16T15:44:21.000Z</time>
      </trkpt>
      <trkpt lat="44.39874345436692" lon="131.10879491083324">
        <ele>429.4</ele>
        <time>2026-09-16T15:44:31.000Z</time>
      </trkpt>
      <trkpt lat="44.399866461753845" lon="131.11011841334403">
        <ele>429.2</ele>
        <time>2026-09-16T15:44:45.000Z</time>
      </trkpt>
      <trkpt lat="44.400636507198215" lon="131.11099482513964">
        <ele>428</ele>
        <time>2026-09-16T15:44:56.000Z</time>
      </trkpt>
      <trkpt lat="44.40081839449704" lon="131.1109757144004">
        <ele>427.6</ele>
        <time>2026-09-16T15:45:02.000Z</time>
      </trkpt>
      <trkpt lat="44.40095837228" lon="131.11064010299742">
        <ele>427.4</ele>
        <time>2026-09-16T15:45:14.000Z</time>
      </trkpt>
    </trkseg>
  </trk>
</gpx>