<?xml version="1.0" encoding="UTF-8"?>
<gpx creator="IGPSPORT" xmlns:xsi="http://www.w3.org/2001/XMLSchema-instance" schemaLocation="http://www.topografix.com/GPX/1/1 http://www.topografix.com/GPX/1/1/gpx.xsd" version="1.1" xmlns="http://www.topografix.com/GPX/1/1">
  <metadata>
    <time>2026-06-11T18:06:42.000Z</time>
    <link href="https://www.igpsport.cn/">
      <text>Велоспорт на свежем воздухе</text>
    </link>
  </metadata>
  <trk>
    <name>Велоспорт на свежем воздухе</name>
    <trkseg>
      <trkpt lat="56.20265708304942" lon="48.23578292503953">
        <ele>153.4</ele>
        <time>2026-06-11T18:06:42.000Z</time>
      </trkpt>
      <trkpt lat="56.20265708304942" lon="48.23578292503953">
        <ele>153.6</ele>
        <time>2026-06-11T18:06:53.000Z</time>
      </trkpt>
      <trkpt lat="56.20265708304942" lon="48.23578292503953">
        <ele>153.6</ele>
        <time>2026-06-11T18:06:55.000Z</time>
      </trkpt>
      <trkpt lat="56.20265708304942" lon="48.23578292503953">
        <ele>153.6</ele>
        <time>2026-06-11T18:06:58.000Z</time>
      </trkpt>
      <trkpt lat="56.20265708304942" lon="48.23578292503953">
        <ele>153.6</ele>
        <time>2026-06-11T18:07:00.000Z</time>
      </trkpt>
      <trkpt lat="56.20265708304942" lon="48.23578292503953">
        <ele>153.6</ele>
        <time>2026-06-11T18:07:02.000Z</time>
      </trkpt>
      <trkpt lat="56.20265708304942" lon="48.23578292503953">
        <ele>153.6</ele>
        <time>2026-06-11T18:07:04.000Z</time>
      </trkpt>
      <trkpt lat="56.20265708304942" lon="48.23578292503953">
        <ele>153.2</ele>
        <time>2026-06-11T18:07:16.000Z</time>
      </trkpt>
      <trkpt lat="56.20265708304942" lon="48.23578292503953">
        <ele>153.2</ele>
        <time>2026-06-11T18:07:18.000Z</time>
      </trkpt>
      <trkpt lat="56.20265708304942" lon="48.23578292503953">
        <ele>150.6</ele>
        <time>2026-06-11T18:07:47.000Z</time>
      </trkpt>
      <trkpt lat="56.20265708304942" lon="48.23578292503953">
        <ele>151</ele>
        <time>2026-06-11T18:07:51.000Z</time>
      </trkpt>
      <trkpt lat="56.20265708304942" lon="48.23578292503953">
        <ele>151.2</ele>
        <time>2026-06-11T18:08:14.000Z</time>
      </trkpt>
      <trkpt lat="56.20265708304942" lon="48.23578292503953">
        <ele>151.2</ele>
        <time>2026-06-11T18:08:30.000Z</time>
      </trkpt>
      <trkpt lat="56.20265708304942" lon="48.23578292503953">
        <ele>151.6</ele>
        <time>2026-06-11T18:08:44.000Z</time>
      </trkpt>
      <trkpt lat="56.19112559594214" lon="48.238854724913836">
        <ele>150.8</ele>
        <time>2026-06-11T18:09:05.000Z</time>
      </trkpt>
      <trkpt lat="56.19167192839086" lon="48.23877786286175">
        <ele>150.8</ele>
        <time>2026-06-11T18:09:07.000Z</time>
      </trkpt>
      <trkpt lat="56.192179368808866" lon="48.238812731578946">
        <ele>150.6</ele>
        <time>2026-06-11T18:09:12.000Z</time>
      </trkpt>
      <trkpt lat="56.19180302135646" lon="48.239125879481435">
        <ele>150.4</ele>
        <time>2026-06-11T18:09:19.000Z</time>
      </trkpt>
      <trkpt lat="56.19133422151208" lon="48.239730801433325">
        <ele>150.8</ele>
        <time>2026-06-11T18:09:31.000Z</time>
      </trkpt>
      <trkpt lat="56.190898194909096" lon="48.2403658144176">
        <ele>150.2</ele>
        <time>2026-06-11T18:09:41.000Z</time>
      </trkpt>
      <trkpt lat="56.190410954877734" lon="48.24101465754211">
        <ele>149.8</ele>
        <time>2026-06-11T18:09:50.000Z</time>
      </trkpt>
      <trkpt lat="56.18978440761566" lon="48.24186407960951">
        <ele>149.4</ele>
        <time>2026-06-11T18:10:04.000Z</time>
      </trkpt>
      <trkpt lat="56.18944083340466" lon="48.24227177537978">
        <ele>149.2</ele>
        <time>2026-06-11T18:10:11.000Z</time>
      </trkpt>
      <trkpt lat="56.18922231718898" lon="48.24293059296906">
        <ele>149</ele>
        <time>2026-06-11T18:10:20.000Z</time>
      </trkpt>
      <trkpt lat="56.189188873395324" lon="48.24351942166686">
        <ele>149</ele>
        <time>2026-06-11T18:10:29.000Z</time>
      </trkpt>
      <trkpt lat="56.18876458145678" lon="48.244351325556636">
        <ele>148.8</ele>
        <time>2026-06-11T18:10:38.000Z</time>
      </trkpt>
      <trkpt lat="56.188269378617406" lon="48.24539051391184">
        <ele>148.8</ele>
        <time>2026-06-11T18:10:48.000Z</time>
      </trkpt>
      <trkpt lat="56.18786939419806" lon="48.24595243670046">
        <ele>148.6</ele>
        <time>2026-06-11T18:10:56.000Z</time>
      </trkpt>
      <trkpt lat="56.18779672309756" lon="48.24630263261497">
        <ele>147.8</ele>
        <time>2026-06-11T18:11:02.000Z</time>
      </trkpt>
      <trkpt lat="56.18781432509422" lon="48.246567668393254">
        <ele>146.8</ele>
        <time>2026-06-11T18:11:08.000Z</time>
      </trkpt>
      <trkpt lat="56.18752137757838" lon="48.24731198139489">
        <ele>146</ele>
        <time>2026-06-11T18:11:15.000Z</time>
      </trkpt>
      <trkpt lat="56.18742926046252" lon="48.247543992474675">
        <ele>145.8</ele>
        <time>2026-06-11T18:11:17.000Z</time>
      </trkpt>
      <trkpt lat="56.18704763241112" lon="48.24852978810668">
        <ele>144.8</ele>
        <time>2026-06-11T18:11:26.000Z</time>
      </trkpt>
      <trkpt lat="56.18654572404921" lon="48.249878101050854">
        <ele>145.2</ele>
        <time>2026-06-11T18:11:42.000Z</time>
      </trkpt>
      <trkpt lat="56.186124784871936" lon="48.25101787224412">
        <ele>144.8</ele>
        <time>2026-06-11T18:11:59.000Z</time>
      </trkpt>
      <trkpt lat="56.185633186250925" lon="48.25237339362502">
        <ele>143.8</ele>
        <time>2026-06-11T18:12:15.000Z</time>
      </trkpt>
      <trkpt lat="56.185244265943766" lon="48.25342842377722">
        <ele>143.8</ele>
        <time>2026-06-11T18:12:28.000Z</time>
      </trkpt>
      <trkpt lat="56.18491720408201" lon="48.25432637706399">
        <ele>143.6</ele>
        <time>2026-06-11T18:12:39.000Z</time>
      </trkpt>
      <trkpt lat="56.184429628774524" lon="48.2556245662272">
        <ele>141.8</ele>
        <time>2026-06-11T18:12:55.000Z</time>
      </trkpt>
      <trkpt lat="56.18394507095218" lon="48.25693557970226">
        <ele>141.6</ele>
        <time>2026-06-11T18:13:11.000Z</time>
      </trkpt>
      <trkpt lat="56.18343620561063" lon="48.25831716880202">
        <ele>139.2</ele>
        <time>2026-06-11T18:13:27.000Z</time>
      </trkpt>
      <trkpt lat="56.182776717469096" lon="48.260090025141835">
        <ele>137</ele>
        <time>2026-06-11T18:13:44.000Z</time>
      </trkpt>
      <trkpt lat="56.18264679796994" lon="48.260414404794574">
        <ele>136.4</ele>
        <time>2026-06-11T18:13:47.000Z</time>
      </trkpt>
      <trkpt lat="56.18224438279867" lon="48.261524671688676">
        <ele>134</ele>
        <time>2026-06-11T18:13:57.000Z</time>
      </trkpt>
      <trkpt lat="56.18161791935563" lon="48.26320490799844">
        <ele>132.4</ele>
        <time>2026-06-11T18:14:14.000Z</time>
      </trkpt>
      <trkpt lat="56.18104551918805" lon="48.264679200947285">
        <ele>131.8</ele>
        <time>2026-06-11T18:14:30.000Z</time>
      </trkpt>
      <trkpt lat="56.1805350612849" lon="48.2657456304878">
        <ele>132.4</ele>
        <time>2026-06-11T18:14:45.000Z</time>
      </trkpt>
      <trkpt lat="56.18022576905787" lon="48.26654249802232">
        <ele>132.4</ele>
        <time>2026-06-11T18:14:55.000Z</time>
      </trkpt>
      <trkpt lat="56.17969745770097" lon="48.26740843243897">
        <ele>132.6</ele>
        <time>2026-06-11T18:15:09.000Z</time>
      </trkpt>
      <trkpt lat="56.17901877500117" lon="48.26851082034409">
        <ele>131.2</ele>
        <time>2026-06-11T18:15:25.000Z</time>
      </trkpt>
      <trkpt lat="56.17839373648167" lon="48.26949552632868">
        <ele>129.8</ele>
        <time>2026-06-11T18:15:37.000Z</time>
      </trkpt>
      <trkpt lat="56.17827747948468" lon="48.26968101784587">
        <ele>129.2</ele>
        <time>2026-06-11T18:15:39.000Z</time>
      </trkpt>
      <trkpt lat="56.178157618269324" lon="48.26987162232399">
        <ele>128.8</ele>
        <time>2026-06-11T18:15:41.000Z</time>
      </trkpt>
      <trkpt lat="56.17797472514212" lon="48.27016532421112">
        <ele>128.4</ele>
        <time>2026-06-11T18:15:44.000Z</time>
      </trkpt>
      <trkpt lat="56.17784949950874" lon="48.27036280184984">
        <ele>128</ele>
        <time>2026-06-11T18:15:46.000Z</time>
      </trkpt>
      <trkpt lat="56.177660236135125" lon="48.27066287398338">
        <ele>127.4</ele>
        <time>2026-06-11T18:15:49.000Z</time>
      </trkpt>
      <trkpt lat="56.176598919555545" lon="48.272337997332215">
        <ele>126</ele>
        <time>2026-06-11T18:16:06.000Z</time>
      </trkpt>
      <trkpt lat="56.17572208866477" lon="48.273726711049676">
        <ele>126</ele>
        <time>2026-06-11T18:16:22.000Z</time>
      </trkpt>
      <trkpt lat="56.17490007542074" lon="48.27504375949502">
        <ele>124.2</ele>
        <time>2026-06-11T18:16:39.000Z</time>
      </trkpt>
      <trkpt lat="56.174029782414436" lon="48.276254357770085">
        <ele>123.4</ele>
        <time>2026-06-11T18:16:55.000Z</time>
      </trkpt>
      <trkpt lat="56.17296041920781" lon="48.27757568098605">
        <ele>120.2</ele>
        <time>2026-06-11T18:17:11.000Z</time>
      </trkpt>
      <trkpt lat="56.17263335734606" lon="48.27796611003578">
        <ele>118</ele>
        <time>2026-06-11T18:17:16.000Z</time>
      </trkpt>
      <trkpt lat="56.17205827496946" lon="48.27864102087915">
        <ele>114</ele>
        <time>2026-06-11T18:17:24.000Z</time>
      </trkpt>
      <trkpt lat="56.1716846935451" lon="48.27908090315759">
        <ele>111</ele>
        <time>2026-06-11T18:17:29.000Z</time>
      </trkpt>
      <trkpt lat="56.17138361558318" lon="48.279436295852065">
        <ele>108.2</ele>
        <time>2026-06-11T18:17:33.000Z</time>
      </trkpt>
      <trkpt lat="56.171060828492045" lon="48.27981557697058">
        <ele>105.6</ele>
        <time>2026-06-11T18:17:37.000Z</time>
      </trkpt>
      <trkpt lat="56.17080660536885" lon="48.28011556528509">
        <ele>102.8</ele>
        <time>2026-06-11T18:17:40.000Z</time>
      </trkpt>
      <trkpt lat="56.17037267424166" lon="48.28062208369374">
        <ele>100</ele>
        <time>2026-06-11T18:17:45.000Z</time>
      </trkpt>
      <trkpt lat="56.16978032514453" lon="48.28132079914212">
        <ele>96.2</ele>
        <time>2026-06-11T18:17:52.000Z</time>
      </trkpt>
      <trkpt lat="56.16959793493152" lon="48.28153361566365">
        <ele>95.2</ele>
        <time>2026-06-11T18:17:54.000Z</time>
      </trkpt>
      <trkpt lat="56.16837409324944" lon="48.282963233068585">
        <ele>91.6</ele>
        <time>2026-06-11T18:18:08.000Z</time>
      </trkpt>
      <trkpt lat="56.167262233793736" lon="48.28418405726552">
        <ele>89.6</ele>
        <time>2026-06-11T18:18:24.000Z</time>
      </trkpt>
      <trkpt lat="56.16625833325088" lon="48.285370264202356">
        <ele>88.8</ele>
        <time>2026-06-11T18:18:40.000Z</time>
      </trkpt>
      <trkpt lat="56.165410755202174" lon="48.28640827909112">
        <ele>89.6</ele>
        <time>2026-06-11T18:18:57.000Z</time>
      </trkpt>
      <trkpt lat="56.164569882676005" lon="48.287341855466366">
        <ele>89.6</ele>
        <time>2026-06-11T18:19:13.000Z</time>
      </trkpt>
      <trkpt lat="56.163686932995915" lon="48.28819370828569">
        <ele>89</ele>
        <time>2026-06-11T18:19:29.000Z</time>
      </trkpt>
      <trkpt lat="56.162839606404305" lon="48.28899443149567">
        <ele>88</ele>
        <time>2026-06-11T18:19:45.000Z</time>
      </trkpt>
      <trkpt lat="56.16183780133724" lon="48.289927672594786">
        <ele>86.2</ele>
        <time>2026-06-11T18:20:01.000Z</time>
      </trkpt>
      <trkpt lat="56.1607779096812" lon="48.29094406217337">
        <ele>84</ele>
        <time>2026-06-11T18:20:17.000Z</time>
      </trkpt>
      <trkpt lat="56.15975582040846" lon="48.29186540096998">
        <ele>83.8</ele>
        <time>2026-06-11T18:20:33.000Z</time>
      </trkpt>
      <trkpt lat="56.1587643250823" lon="48.29276436008513">
        <ele>83.8</ele>
        <time>2026-06-11T18:20:49.000Z</time>
      </trkpt>
      <trkpt lat="56.15780317224562" lon="48.29363666474819">
        <ele>83.8</ele>
        <time>2026-06-11T18:21:05.000Z</time>
      </trkpt>
      <trkpt lat="56.15690312348306" lon="48.29449933022261">
        <ele>83.6</ele>
        <time>2026-06-11T18:21:22.000Z</time>
      </trkpt>
      <trkpt lat="56.15602285601199" lon="48.29542016610503">
        <ele>83.8</ele>
        <time>2026-06-11T18:21:38.000Z</time>
      </trkpt>
      <trkpt lat="56.15520318970084" lon="48.29636220820248">
        <ele>84</ele>
        <time>2026-06-11T18:21:54.000Z</time>
      </trkpt>
      <trkpt lat="56.15463732741773" lon="48.29706436023116">
        <ele>83.8</ele>
        <time>2026-06-11T18:22:07.000Z</time>
      </trkpt>
      <trkpt lat="56.15392377600074" lon="48.29800246283412">
        <ele>83.6</ele>
        <time>2026-06-11T18:22:23.000Z</time>
      </trkpt>
      <trkpt lat="56.15321827121079" lon="48.299001920968294">
        <ele>83.8</ele>
        <time>2026-06-11T18:22:39.000Z</time>
      </trkpt>
      <trkpt lat="56.15252751857042" lon="48.30005066469312">
        <ele>83.4</ele>
        <time>2026-06-11T18:22:55.000Z</time>
      </trkpt>
      <trkpt lat="56.15185839124024" lon="48.3011394739151">
        <ele>83.4</ele>
        <time>2026-06-11T18:23:11.000Z</time>
      </trkpt>
      <trkpt lat="56.151218097656965" lon="48.30225300975144">
        <ele>82.8</ele>
        <time>2026-06-11T18:23:27.000Z</time>
      </trkpt>
      <trkpt lat="56.15058559924364" lon="48.30342086032033">
        <ele>83</ele>
        <time>2026-06-11T18:23:44.000Z</time>
      </trkpt>
      <trkpt lat="56.14995033480227" lon="48.30465316772461">
        <ele>82.6</ele>
        <time>2026-06-11T18:24:00.000Z</time>
      </trkpt>
      <trkpt lat="56.149349100887775" lon="48.305890671908855">
        <ele>82.8</ele>
        <time>2026-06-11T18:24:16.000Z</time>
      </trkpt>
      <trkpt lat="56.148821879178286" lon="48.30704812891781">
        <ele>83</ele>
        <time>2026-06-11T18:24:32.000Z</time>
      </trkpt>
      <trkpt lat="56.14832022227347" lon="48.30814045853913">
        <ele>82.6</ele>
        <time>2026-06-11T18:24:48.000Z</time>
      </trkpt>
      <trkpt lat="56.14776902832091" lon="48.30930202268064">
        <ele>82.4</ele>
        <time>2026-06-11T18:25:04.000Z</time>
      </trkpt>
      <trkpt lat="56.14730039611459" lon="48.31033207476139">
        <ele>82.4</ele>
        <time>2026-06-11T18:25:20.000Z</time>
      </trkpt>
      <trkpt lat="56.146875685080886" lon="48.31126523204148">
        <ele>82.6</ele>
        <time>2026-06-11T18:25:36.000Z</time>
      </trkpt>
      <trkpt lat="56.14670720882714" lon="48.3117716666311">
        <ele>82.6</ele>
        <time>2026-06-11T18:25:45.000Z</time>
      </trkpt>
      <trkpt lat="56.146650379523635" lon="48.31217659637332">
        <ele>82.6</ele>
        <time>2026-06-11T18:25:51.000Z</time>
      </trkpt>
      <trkpt lat="56.14676412194967" lon="48.31213720142841">
        <ele>82.8</ele>
        <time>2026-06-11T18:25:56.000Z</time>
      </trkpt>
      <trkpt lat="56.14702396094799" lon="48.31168491393328">
        <ele>82.8</ele>
        <time>2026-06-11T18:26:09.000Z</time>
      </trkpt>
      <trkpt lat="56.146962186321616" lon="48.31182220950723">
        <ele>83</ele>
        <time>2026-06-11T18:29:16.000Z</time>
      </trkpt>
      <trkpt lat="56.14660947583616" lon="48.31237306818366">
        <ele>83.2</ele>
        <time>2026-06-11T18:29:32.000Z</time>
      </trkpt>
      <trkpt lat="56.14619800820947" lon="48.3130169659853">
        <ele>83.4</ele>
        <time>2026-06-11T18:29:48.000Z</time>
      </trkpt>
      <trkpt lat="56.14586750976741" lon="48.31358349882066">
        <ele>83.4</ele>
        <time>2026-06-11T18:30:04.000Z</time>
      </trkpt>
      <trkpt lat="56.14567858166993" lon="48.31366061232984">
        <ele>83.2</ele>
        <time>2026-06-11T18:30:10.000Z</time>
      </trkpt>
      <trkpt lat="56.14530047401786" lon="48.31428271718323">
        <ele>83</ele>
        <time>2026-06-11T18:30:21.000Z</time>
      </trkpt>
      <trkpt lat="56.144762355834246" lon="48.3152411878109">
        <ele>83</ele>
        <time>2026-06-11T18:30:37.000Z</time>
      </trkpt>
      <trkpt lat="56.14422608166933" lon="48.31613972783089">
        <ele>83.2</ele>
        <time>2026-06-11T18:30:54.000Z</time>
      </trkpt>
      <trkpt lat="56.14369181916118" lon="48.3170422911644">
        <ele>83.2</ele>
        <time>2026-06-11T18:31:10.000Z</time>
      </trkpt>
      <trkpt lat="56.14302839152515" lon="48.31800847314298">
        <ele>82.8</ele>
        <time>2026-06-11T18:31:26.000Z</time>
      </trkpt>
      <trkpt lat="56.14237703382969" lon="48.31888899207115">
        <ele>82.6</ele>
        <time>2026-06-11T18:31:42.000Z</time>
      </trkpt>
      <trkpt lat="56.141689298674464" lon="48.31978895701468">
        <ele>82.8</ele>
        <time>2026-06-11T18:31:58.000Z</time>
      </trkpt>
      <trkpt lat="56.14103693515062" lon="48.32060535438359">
        <ele>82.8</ele>
        <time>2026-06-11T18:32:14.000Z</time>
      </trkpt>
      <trkpt lat="56.1404113098979" lon="48.32138420082629">
        <ele>83</ele>
        <time>2026-06-11T18:32:30.000Z</time>
      </trkpt>
      <trkpt lat="56.13973698578775" lon="48.32216958515346">
        <ele>83</ele>
        <time>2026-06-11T18:32:46.000Z</time>
      </trkpt>
      <trkpt lat="56.13915888592601" lon="48.322791857644916">
        <ele>83.4</ele>
        <time>2026-06-11T18:33:02.000Z</time>
      </trkpt>
      <trkpt lat="56.13876795396209" lon="48.323199301958084">
        <ele>83.6</ele>
        <time>2026-06-11T18:33:19.000Z</time>
      </trkpt>
      <trkpt lat="56.13850551657379" lon="48.32351521588862">
        <ele>83.6</ele>
        <time>2026-06-11T18:33:48.000Z</time>
      </trkpt>
      <trkpt lat="56.13802783191204" lon="48.32405777648091">
        <ele>84.4</ele>
        <time>2026-06-11T18:34:04.000Z</time>
      </trkpt>
      <trkpt lat="56.1375586129725" lon="48.32460620440543">
        <ele>84.8</ele>
        <time>2026-06-11T18:34:20.000Z</time>
      </trkpt>
      <trkpt lat="56.13710682839155" lon="48.32516058348119">
        <ele>85.4</ele>
        <time>2026-06-11T18:34:36.000Z</time>
      </trkpt>
      <trkpt lat="56.13672997802496" lon="48.32563969306648">
        <ele>85.8</ele>
        <time>2026-06-11T18:34:52.000Z</time>
      </trkpt>
      <trkpt lat="56.13627509213984" lon="48.32619373686612">
        <ele>86.2</ele>
        <time>2026-06-11T18:35:08.000Z</time>
      </trkpt>
      <trkpt lat="56.135834120213985" lon="48.326752223074436">
        <ele>86.6</ele>
        <time>2026-06-11T18:35:24.000Z</time>
      </trkpt>
      <trkpt lat="56.135400189086795" lon="48.32729830406606">
        <ele>87</ele>
        <time>2026-06-11T18:35:41.000Z</time>
      </trkpt>
      <trkpt lat="56.13494019024074" lon="48.327876990661025">
        <ele>87</ele>
        <time>2026-06-11T18:35:57.000Z</time>
      </trkpt>
      <trkpt lat="56.134497206658125" lon="48.32843421958387">
        <ele>87</ele>
        <time>2026-06-11T18:36:13.000Z</time>
      </trkpt>
      <trkpt lat="56.13412949256599" lon="48.328887009993196">
        <ele>87</ele>
        <time>2026-06-11T18:36:29.000Z</time>
      </trkpt>
      <trkpt lat="56.13377267494798" lon="48.32933661527932">
        <ele>87.2</ele>
        <time>2026-06-11T18:36:45.000Z</time>
      </trkpt>
      <trkpt lat="56.133494982495904" lon="48.32968429662287">
        <ele>87</ele>
        <time>2026-06-11T18:37:01.000Z</time>
      </trkpt>
      <trkpt lat="56.13319482654333" lon="48.33005050197244">
        <ele>87.2</ele>
        <time>2026-06-11T18:37:17.000Z</time>
      </trkpt>
      <trkpt lat="56.13296650350094" lon="48.330315705388784">
        <ele>87.2</ele>
        <time>2026-06-11T18:37:32.000Z</time>
      </trkpt>
      <trkpt lat="56.132899867370725" lon="48.330489713698626">
        <ele>87.4</ele>
        <time>2026-06-11T18:39:47.000Z</time>
      </trkpt>
      <trkpt lat="56.133125172927976" lon="48.330297768116">
        <ele>87</ele>
        <time>2026-06-11T18:39:55.000Z</time>
      </trkpt>
      <trkpt lat="56.13353236578405" lon="48.329782700166106">
        <ele>86.6</ele>
        <time>2026-06-11T18:40:11.000Z</time>
      </trkpt>
      <trkpt lat="56.13396621309221" lon="48.32924726419151">
        <ele>86.8</ele>
        <time>2026-06-11T18:40:28.000Z</time>
      </trkpt>
      <trkpt lat="56.134386816993356" lon="48.32872406579554">
        <ele>86.8</ele>
        <time>2026-06-11T18:40:44.000Z</time>
      </trkpt>
      <trkpt lat="56.134920828044415" lon="48.328055776655674">
        <ele>86.8</ele>
        <time>2026-06-11T18:41:00.000Z</time>
      </trkpt>
      <trkpt lat="56.13552801311016" lon="48.327295454218984">
        <ele>87</ele>
        <time>2026-06-11T18:41:16.000Z</time>
      </trkpt>
      <trkpt lat="56.13607090897858" lon="48.32661543041468">
        <ele>86.4</ele>
        <time>2026-06-11T18:41:32.000Z</time>
      </trkpt>
      <trkpt lat="56.136689661070704" lon="48.32583926618099">
        <ele>85.6</ele>
        <time>2026-06-11T18:41:48.000Z</time>
      </trkpt>
      <trkpt lat="56.13732031546533" lon="48.325060000643134">
        <ele>84.8</ele>
        <time>2026-06-11T18:42:04.000Z</time>
      </trkpt>
      <trkpt lat="56.13801416940987" lon="48.324241172522306">
        <ele>84</ele>
        <time>2026-06-11T18:42:20.000Z</time>
      </trkpt>
      <trkpt lat="56.13863040693104" lon="48.3235405292362">
        <ele>82.8</ele>
        <time>2026-06-11T18:42:36.000Z</time>
      </trkpt>
      <trkpt lat="56.13881095312536" lon="48.32341739907861">
        <ele>82.2</ele>
        <time>2026-06-11T18:42:43.000Z</time>
      </trkpt>
      <trkpt lat="56.13869469612837" lon="48.32366709597409">
        <ele>81.8</ele>
        <time>2026-06-11T18:42:51.000Z</time>
      </trkpt>
      <trkpt lat="56.13828825764358" lon="48.324120473116636">
        <ele>81.8</ele>
        <time>2026-06-11T18:43:05.000Z</time>
      </trkpt>
      <trkpt lat="56.13779632374644" lon="48.324731681495905">
        <ele>81.8</ele>
        <time>2026-06-11T18:43:22.000Z</time>
      </trkpt>
      <trkpt lat="56.137302462011576" lon="48.32536141388118">
        <ele>82.4</ele>
        <time>2026-06-11T18:43:38.000Z</time>
      </trkpt>
      <trkpt lat="56.13694941624999" lon="48.3258390147239">
        <ele>82.2</ele>
        <time>2026-06-11T18:43:51.000Z</time>
      </trkpt>
      <trkpt lat="56.1365466658026" lon="48.32632089033723">
        <ele>82.6</ele>
        <time>2026-06-11T18:44:07.000Z</time>
      </trkpt>
      <trkpt lat="56.13617140799761" lon="48.326823469251394">
        <ele>82.4</ele>
        <time>2026-06-11T18:44:23.000Z</time>
      </trkpt>
      <trkpt lat="56.13585046492517" lon="48.327259914949536">
        <ele>81.4</ele>
        <time>2026-06-11T18:44:36.000Z</time>
      </trkpt>
      <trkpt lat="56.135924560949206" lon="48.32772318273783">
        <ele>80.2</ele>
        <time>2026-06-11T18:44:47.000Z</time>
      </trkpt>
      <trkpt lat="56.13603268750012" lon="48.32818846218288">
        <ele>78.6</ele>
        <time>2026-06-11T18:44:59.000Z</time>
      </trkpt>
      <trkpt lat="56.13591299392283" lon="48.32840538583696">
        <ele>78.8</ele>
        <time>2026-06-11T18:45:12.000Z</time>
      </trkpt>
      <trkpt lat="56.135765220969915" lon="48.32893378101289">
        <ele>78.6</ele>
        <time>2026-06-11T18:45:28.000Z</time>
      </trkpt>
      <trkpt lat="56.135482834652066" lon="48.32947759889066">
        <ele>78</ele>
        <time>2026-06-11T18:45:43.000Z</time>
      </trkpt>
      <trkpt lat="56.13519659265876" lon="48.32996550947428">
        <ele>77.6</ele>
        <time>2026-06-11T18:45:59.000Z</time>
      </trkpt>
      <trkpt lat="56.135108917951584" lon="48.330262480303645">
        <ele>78.2</ele>
        <time>2026-06-11T18:46:09.000Z</time>
      </trkpt>
      <trkpt lat="56.13508821465075" lon="48.3303461316973">
        <ele>78.4</ele>
        <time>2026-06-11T18:46:12.000Z</time>
      </trkpt>
      <trkpt lat="56.13500230014324" lon="48.33065810613334">
        <ele>78.4</ele>
        <time>2026-06-11T18:46:36.000Z</time>
      </trkpt>
      <trkpt lat="56.134919822216034" lon="48.3308570086956">
        <ele>78.8</ele>
        <time>2026-06-11T18:46:52.000Z</time>
      </trkpt>
      <trkpt lat="56.13493465818465" lon="48.33100117743015">
        <ele>78.6</ele>
        <time>2026-06-11T18:47:07.000Z</time>
      </trkpt>
      <trkpt lat="56.13505988381803" lon="48.331216257065535">
        <ele>78.4</ele>
        <time>2026-06-11T18:47:23.000Z</time>
      </trkpt>
      <trkpt lat="56.135133896023035" lon="48.33141633309424">
        <ele>78.8</ele>
        <time>2026-06-11T18:47:42.000Z</time>
      </trkpt>
      <trkpt lat="56.13531293347478" lon="48.331702910363674">
        <ele>79.8</ele>
        <time>2026-06-11T18:48:20.000Z</time>
      </trkpt>
      <trkpt lat="56.13543941639364" lon="48.33186803385615">
        <ele>79.4</ele>
        <time>2026-06-11T18:49:03.000Z</time>
      </trkpt>
      <trkpt lat="56.13574678078294" lon="48.33215611986816">
        <ele>79.6</ele>
        <time>2026-06-11T18:50:17.000Z</time>
      </trkpt>
      <trkpt lat="56.135934703052044" lon="48.331876834854484">
        <ele>78.8</ele>
        <time>2026-06-11T18:50:52.000Z</time>
      </trkpt>
      <trkpt lat="56.13594467751682" lon="48.33166686818004">
        <ele>78.8</ele>
        <time>2026-06-11T18:51:07.000Z</time>
      </trkpt>
      <trkpt lat="56.136127822101116" lon="48.33143200725317">
        <ele>78.8</ele>
        <time>2026-06-11T18:51:29.000Z</time>
      </trkpt>
      <trkpt lat="56.13623687066138" lon="48.33136009052396">
        <ele>79</ele>
        <time>2026-06-11T18:51:44.000Z</time>
      </trkpt>
      <trkpt lat="56.13631113432348" lon="48.33137333393097">
        <ele>78.6</ele>
        <time>2026-06-11T18:57:51.000Z</time>
      </trkpt>
      <trkpt lat="56.136356899514794" lon="48.331165881827474">
        <ele>77.8</ele>
        <time>2026-06-11T18:58:04.000Z</time>
      </trkpt>
      <trkpt lat="56.13637517206371" lon="48.33093252964318">
        <ele>78.2</ele>
        <time>2026-06-11T18:58:19.000Z</time>
      </trkpt>
      <trkpt lat="56.136393528431654" lon="48.3307689987123">
        <ele>78.6</ele>
        <time>2026-06-11T18:58:30.000Z</time>
      </trkpt>
      <trkpt lat="56.136445412412286" lon="48.33049977198243">
        <ele>78.4</ele>
        <time>2026-06-11T18:58:46.000Z</time>
      </trkpt>
      <trkpt lat="56.13649453036487" lon="48.33022610284388">
        <ele>78.8</ele>
        <time>2026-06-11T18:59:02.000Z</time>
      </trkpt>
      <trkpt lat="56.136511797085404" lon="48.329991828650236">
        <ele>79</ele>
        <time>2026-06-11T18:59:15.000Z</time>
      </trkpt>
      <trkpt lat="56.136600729078054" lon="48.329762164503336">
        <ele>79.2</ele>
        <time>2026-06-11T18:59:33.000Z</time>
      </trkpt>
    </trkseg>
  </trk>
</gpx>