<?xml version="1.0" encoding="UTF-8"?>
<gpx creator="IGPSPORT" xmlns:xsi="http://www.w3.org/2001/XMLSchema-instance" schemaLocation="http://www.topografix.com/GPX/1/1 http://www.topografix.com/GPX/1/1/gpx.xsd" version="1.1" xmlns="http://www.topografix.com/GPX/1/1">
  <metadata>
    <time>2026-08-28T09:31:37.000Z</time>
    <link href="https://www.igpsport.cn/">
      <text>Велоспорт на свежем воздухе</text>
    </link>
  </metadata>
  <trk>
    <name>Велоспорт на свежем воздухе</name>
    <trkseg>
      <trkpt lat="43.71005150489509" lon="111.9164552539587">
        <ele>963.8</ele>
        <time>2026-08-28T09:31:37.000Z</time>
      </trkpt>
      <trkpt lat="43.709973469376564" lon="111.91657058894634">
        <ele>963.8</ele>
        <time>2026-08-28T09:31:39.000Z</time>
      </trkpt>
      <trkpt lat="43.70987506583333" lon="111.91671836189926">
        <ele>964</ele>
        <time>2026-08-28T09:31:41.000Z</time>
      </trkpt>
      <trkpt lat="43.70975688099861" lon="111.91689245402813">
        <ele>964.2</ele>
        <time>2026-08-28T09:31:43.000Z</time>
      </trkpt>
      <trkpt lat="43.709623105823994" lon="111.917077107355">
        <ele>965.6</ele>
        <time>2026-08-28T09:31:45.000Z</time>
      </trkpt>
      <trkpt lat="43.70914642699063" lon="111.91774841398001">
        <ele>962.8</ele>
        <time>2026-08-28T09:31:54.000Z</time>
      </trkpt>
      <trkpt lat="43.70881081558764" lon="111.91822827793658">
        <ele>963.6</ele>
        <time>2026-08-28T09:32:04.000Z</time>
      </trkpt>
      <trkpt lat="43.70865390636027" lon="111.9184529967606">
        <ele>964</ele>
        <time>2026-08-28T09:32:06.000Z</time>
      </trkpt>
      <trkpt lat="43.70831142179668" lon="111.91893923096359">
        <ele>965</ele>
        <time>2026-08-28T09:32:10.000Z</time>
      </trkpt>
      <trkpt lat="43.70798997581005" lon="111.91939688287675">
        <ele>964.8</ele>
        <time>2026-08-28T09:32:12.000Z</time>
      </trkpt>
      <trkpt lat="43.70773399248719" lon="111.9197604060173">
        <ele>964.6</ele>
        <time>2026-08-28T09:32:14.000Z</time>
      </trkpt>
      <trkpt lat="43.707504495978355" lon="111.92008696496487">
        <ele>964.8</ele>
        <time>2026-08-28T09:32:16.000Z</time>
      </trkpt>
      <trkpt lat="43.70727550238371" lon="111.92041469737887">
        <ele>964.6</ele>
        <time>2026-08-28T09:32:18.000Z</time>
      </trkpt>
      <trkpt lat="43.70619432069361" lon="111.92197197116911">
        <ele>964.6</ele>
        <time>2026-08-28T09:32:27.000Z</time>
      </trkpt>
      <trkpt lat="43.70498062111437" lon="111.92372001707554">
        <ele>965.4</ele>
        <time>2026-08-28T09:32:37.000Z</time>
      </trkpt>
      <trkpt lat="43.704490615054965" lon="111.92442116327584">
        <ele>965.6</ele>
        <time>2026-08-28T09:32:41.000Z</time>
      </trkpt>
      <trkpt lat="43.70349149219692" lon="111.92583787254989">
        <ele>964</ele>
        <time>2026-08-28T09:32:50.000Z</time>
      </trkpt>
      <trkpt lat="43.702623629942536" lon="111.92707596346736">
        <ele>962.2</ele>
        <time>2026-08-28T09:33:06.000Z</time>
      </trkpt>
      <trkpt lat="43.70100969448686" lon="111.92941426299512">
        <ele>964.6</ele>
        <time>2026-08-28T09:33:22.000Z</time>
      </trkpt>
      <trkpt lat="43.69938326999545" lon="111.93173060193658">
        <ele>964</ele>
        <time>2026-08-28T09:33:38.000Z</time>
      </trkpt>
      <trkpt lat="43.698736522346735" lon="111.93256015889347">
        <ele>962.6</ele>
        <time>2026-08-28T09:33:46.000Z</time>
      </trkpt>
      <trkpt lat="43.69780110195279" lon="111.93288990296423">
        <ele>961.8</ele>
        <time>2026-08-28T09:33:57.000Z</time>
      </trkpt>
      <trkpt lat="43.6972479801625" lon="111.93314647302032">
        <ele>960.4</ele>
        <time>2026-08-28T09:34:09.000Z</time>
      </trkpt>
      <trkpt lat="43.69719500653446" lon="111.9333044718951">
        <ele>960.6</ele>
        <time>2026-08-28T09:40:59.000Z</time>
      </trkpt>
      <trkpt lat="43.697100626304746" lon="111.93344679661095">
        <ele>960.6</ele>
        <time>2026-08-28T09:41:44.000Z</time>
      </trkpt>
      <trkpt lat="43.69701932184398" lon="111.93353832699358">
        <ele>961.2</ele>
        <time>2026-08-28T09:42:25.000Z</time>
      </trkpt>
      <trkpt lat="43.69686048477888" lon="111.93381425924599">
        <ele>961.8</ele>
        <time>2026-08-28T09:43:20.000Z</time>
      </trkpt>
      <trkpt lat="43.69678655639291" lon="111.93394619040191">
        <ele>961.4</ele>
        <time>2026-08-28T09:43:34.000Z</time>
      </trkpt>
      <trkpt lat="43.69600469246507" lon="111.935133067891">
        <ele>963.8</ele>
        <time>2026-08-28T09:44:01.000Z</time>
      </trkpt>
      <trkpt lat="43.695790618658066" lon="111.93530296906829">
        <ele>962.2</ele>
        <time>2026-08-28T09:44:09.000Z</time>
      </trkpt>
      <trkpt lat="43.69576589204371" lon="111.9354943279177">
        <ele>962.2</ele>
        <time>2026-08-28T09:46:12.000Z</time>
      </trkpt>
      <trkpt lat="43.69571032002568" lon="111.9356389157474">
        <ele>962.8</ele>
        <time>2026-08-28T09:46:25.000Z</time>
      </trkpt>
      <trkpt lat="43.69565173052251" lon="111.93565869703889">
        <ele>963</ele>
        <time>2026-08-28T09:46:40.000Z</time>
      </trkpt>
      <trkpt lat="43.69474086910486" lon="111.93712200969458">
        <ele>962</ele>
        <time>2026-08-28T09:59:02.000Z</time>
      </trkpt>
      <trkpt lat="43.69455470703542" lon="111.9371947646141">
        <ele>961.4</ele>
        <time>2026-08-28T09:59:17.000Z</time>
      </trkpt>
      <trkpt lat="43.69426930323243" lon="111.93794536404312">
        <ele>960.8</ele>
        <time>2026-08-28T10:00:03.000Z</time>
      </trkpt>
      <trkpt lat="43.69416679255664" lon="111.93803060799837">
        <ele>960.4</ele>
        <time>2026-08-28T10:00:08.000Z</time>
      </trkpt>
      <trkpt lat="43.68521600961685" lon="111.94399676285684">
        <ele>959.2</ele>
        <time>2026-08-28T10:04:55.000Z</time>
      </trkpt>
      <trkpt lat="43.685203520581126" lon="111.94416280835867">
        <ele>960</ele>
        <time>2026-08-28T10:06:51.000Z</time>
      </trkpt>
      <trkpt lat="43.68515146896243" lon="111.944187451154">
        <ele>959.6</ele>
        <time>2026-08-28T10:07:32.000Z</time>
      </trkpt>
      <trkpt lat="43.68437295779586" lon="111.94406549446285">
        <ele>961.8</ele>
        <time>2026-08-28T10:41:42.000Z</time>
      </trkpt>
      <trkpt lat="43.68407481350005" lon="111.94426339119673">
        <ele>960.2</ele>
        <time>2026-08-28T10:42:35.000Z</time>
      </trkpt>
      <trkpt lat="43.68395822122693" lon="111.94437202066183">
        <ele>960.2</ele>
        <time>2026-08-28T10:42:46.000Z</time>
      </trkpt>
      <trkpt lat="43.68359285406768" lon="111.94448576308787">
        <ele>962</ele>
        <time>2026-08-28T10:48:02.000Z</time>
      </trkpt>
      <trkpt lat="43.68299329653382" lon="111.94506771862507">
        <ele>962.2</ele>
        <time>2026-08-28T10:48:13.000Z</time>
      </trkpt>
      <trkpt lat="43.683024225756526" lon="111.94538455456495">
        <ele>961.6</ele>
        <time>2026-08-28T10:48:18.000Z</time>
      </trkpt>
      <trkpt lat="43.683160934597254" lon="111.94580649957061">
        <ele>961.2</ele>
        <time>2026-08-28T10:48:29.000Z</time>
      </trkpt>
      <trkpt lat="43.682625414803624" lon="111.94629834964871">
        <ele>962.4</ele>
        <time>2026-08-28T10:48:40.000Z</time>
      </trkpt>
      <trkpt lat="43.68223783560097" lon="111.9466183707118">
        <ele>960.6</ele>
        <time>2026-08-28T10:48:52.000Z</time>
      </trkpt>
      <trkpt lat="43.68208025582135" lon="111.94678525440395">
        <ele>962.2</ele>
        <time>2026-08-28T10:56:14.000Z</time>
      </trkpt>
      <trkpt lat="43.68197816424072" lon="111.94687116891146">
        <ele>962.4</ele>
        <time>2026-08-28T10:56:26.000Z</time>
      </trkpt>
      <trkpt lat="43.68145136162639" lon="111.94734214805067">
        <ele>962.8</ele>
        <time>2026-08-28T10:57:36.000Z</time>
      </trkpt>
      <trkpt lat="43.68003339506686" lon="111.94854981265962">
        <ele>963.2</ele>
        <time>2026-08-28T10:57:52.000Z</time>
      </trkpt>
      <trkpt lat="43.678208235651255" lon="111.95009727962315">
        <ele>961.8</ele>
        <time>2026-08-28T10:58:08.000Z</time>
      </trkpt>
      <trkpt lat="43.6759471334517" lon="111.95202277041972">
        <ele>959.6</ele>
        <time>2026-08-28T10:58:24.000Z</time>
      </trkpt>
      <trkpt lat="43.67413236759603" lon="111.95357820019126">
        <ele>962.8</ele>
        <time>2026-08-28T10:58:37.000Z</time>
      </trkpt>
      <trkpt lat="43.673827685415745" lon="111.95383602753282">
        <ele>962.6</ele>
        <time>2026-08-28T10:58:39.000Z</time>
      </trkpt>
      <trkpt lat="43.67352149449289" lon="111.95409536361694">
        <ele>963.2</ele>
        <time>2026-08-28T10:58:41.000Z</time>
      </trkpt>
      <trkpt lat="43.673213962465525" lon="111.95435830391943">
        <ele>963.6</ele>
        <time>2026-08-28T10:58:43.000Z</time>
      </trkpt>
      <trkpt lat="43.67290433496237" lon="111.95462266914546">
        <ele>964.4</ele>
        <time>2026-08-28T10:58:45.000Z</time>
      </trkpt>
      <trkpt lat="43.670716071501374" lon="111.95649200119078">
        <ele>964.8</ele>
        <time>2026-08-28T10:59:01.000Z</time>
      </trkpt>
      <trkpt lat="43.668738696724176" lon="111.95818447507918">
        <ele>967</ele>
        <time>2026-08-28T10:59:17.000Z</time>
      </trkpt>
      <trkpt lat="43.66743916645646" lon="111.95928736589849">
        <ele>966.6</ele>
        <time>2026-08-28T10:59:33.000Z</time>
      </trkpt>
      <trkpt lat="43.66676643490791" lon="111.9598564133048">
        <ele>966.8</ele>
        <time>2026-08-28T10:59:49.000Z</time>
      </trkpt>
      <trkpt lat="43.665601601824164" lon="111.96085209958255">
        <ele>968.6</ele>
        <time>2026-08-28T11:00:05.000Z</time>
      </trkpt>
      <trkpt lat="43.66399487480521" lon="111.9622312579304">
        <ele>968.8</ele>
        <time>2026-08-28T11:00:21.000Z</time>
      </trkpt>
      <trkpt lat="43.66209142841399" lon="111.9638489652425">
        <ele>969.2</ele>
        <time>2026-08-28T11:00:37.000Z</time>
      </trkpt>
      <trkpt lat="43.66060581989586" lon="111.96511706337333">
        <ele>968.4</ele>
        <time>2026-08-28T11:00:54.000Z</time>
      </trkpt>
      <trkpt lat="43.65966930985451" lon="111.965909069404">
        <ele>968</ele>
        <time>2026-08-28T11:01:10.000Z</time>
      </trkpt>
      <trkpt lat="43.65812251344323" lon="111.96723056025803">
        <ele>969.8</ele>
        <time>2026-08-28T11:01:26.000Z</time>
      </trkpt>
      <trkpt lat="43.656874699518085" lon="111.96830151602626">
        <ele>969.4</ele>
        <time>2026-08-28T11:01:42.000Z</time>
      </trkpt>
      <trkpt lat="43.6563229188323" lon="111.96881557814777">
        <ele>968.4</ele>
        <time>2026-08-28T11:01:58.000Z</time>
      </trkpt>
      <trkpt lat="43.65630120970309" lon="111.96913979016244">
        <ele>968.8</ele>
        <time>2026-08-28T11:02:02.000Z</time>
      </trkpt>
      <trkpt lat="43.65671896375716" lon="111.97004939429462">
        <ele>969.4</ele>
        <time>2026-08-28T11:02:11.000Z</time>
      </trkpt>
      <trkpt lat="43.65748481824994" lon="111.97176969610155">
        <ele>968.8</ele>
        <time>2026-08-28T11:02:27.000Z</time>
      </trkpt>
      <trkpt lat="43.657814897596836" lon="111.97247402742505">
        <ele>968</ele>
        <time>2026-08-28T11:02:39.000Z</time>
      </trkpt>
      <trkpt lat="43.65792218595743" lon="111.97243538685143">
        <ele>967.8</ele>
        <time>2026-08-28T11:02:44.000Z</time>
      </trkpt>
      <trkpt lat="43.65789821371436" lon="111.97215970605612">
        <ele>968</ele>
        <time>2026-08-28T11:02:56.000Z</time>
      </trkpt>
      <trkpt lat="43.657900393009186" lon="111.97228526696563">
        <ele>967.4</ele>
        <time>2026-08-28T11:05:52.000Z</time>
      </trkpt>
    </trkseg>
  </trk>
</gpx>