<?xml version="1.0" encoding="UTF-8"?>
<gpx creator="IGPSPORT" xmlns:xsi="http://www.w3.org/2001/XMLSchema-instance" schemaLocation="http://www.topografix.com/GPX/1/1 http://www.topografix.com/GPX/1/1/gpx.xsd" version="1.1" xmlns="http://www.topografix.com/GPX/1/1">
  <metadata>
    <time>2026-07-10T12:20:30.000Z</time>
    <link href="https://www.igpsport.cn/">
      <text>Велоспорт на свежем воздухе</text>
    </link>
  </metadata>
  <trk>
    <name>Велоспорт на свежем воздухе</name>
    <trkseg>
      <trkpt lat="52.43272547610104" lon="72.10579971782863">
        <ele>261</ele>
        <time>2026-07-10T12:20:30.000Z</time>
      </trkpt>
      <trkpt lat="52.43271751329303" lon="72.10608009248972">
        <ele>261.6</ele>
        <time>2026-07-10T12:20:32.000Z</time>
      </trkpt>
      <trkpt lat="52.43270879611373" lon="72.10639139637351">
        <ele>262.4</ele>
        <time>2026-07-10T12:20:34.000Z</time>
      </trkpt>
      <trkpt lat="52.432697312906384" lon="72.10673958063126">
        <ele>263.2</ele>
        <time>2026-07-10T12:20:36.000Z</time>
      </trkpt>
      <trkpt lat="52.432675771415234" lon="72.10747987031937">
        <ele>264.2</ele>
        <time>2026-07-10T12:20:40.000Z</time>
      </trkpt>
      <trkpt lat="52.43266428820789" lon="72.10786300711334">
        <ele>264.8</ele>
        <time>2026-07-10T12:20:42.000Z</time>
      </trkpt>
      <trkpt lat="52.4326550681144" lon="72.10826307535172">
        <ele>265.4</ele>
        <time>2026-07-10T12:20:44.000Z</time>
      </trkpt>
      <trkpt lat="52.43264568038285" lon="72.10868845693767">
        <ele>265.6</ele>
        <time>2026-07-10T12:20:46.000Z</time>
      </trkpt>
      <trkpt lat="52.43263520300388" lon="72.1091460250318">
        <ele>266</ele>
        <time>2026-07-10T12:20:48.000Z</time>
      </trkpt>
      <trkpt lat="52.43262086994946" lon="72.10963292978704">
        <ele>266.2</ele>
        <time>2026-07-10T12:20:50.000Z</time>
      </trkpt>
      <trkpt lat="52.432602094486356" lon="72.110137604177">
        <ele>266</ele>
        <time>2026-07-10T12:20:52.000Z</time>
      </trkpt>
      <trkpt lat="52.43258222937584" lon="72.11065225303173">
        <ele>265.6</ele>
        <time>2026-07-10T12:20:54.000Z</time>
      </trkpt>
      <trkpt lat="52.432567896321416" lon="72.11117419414222">
        <ele>265.2</ele>
        <time>2026-07-10T12:20:56.000Z</time>
      </trkpt>
      <trkpt lat="52.432555574923754" lon="72.11169906891882">
        <ele>264.8</ele>
        <time>2026-07-10T12:20:58.000Z</time>
      </trkpt>
      <trkpt lat="52.43250302039087" lon="72.11380041204393">
        <ele>267</ele>
        <time>2026-07-10T12:21:06.000Z</time>
      </trkpt>
      <trkpt lat="52.432487178593874" lon="72.11433593183756">
        <ele>266.8</ele>
        <time>2026-07-10T12:21:08.000Z</time>
      </trkpt>
      <trkpt lat="52.43247133679688" lon="72.11488561704755">
        <ele>266.8</ele>
        <time>2026-07-10T12:21:10.000Z</time>
      </trkpt>
      <trkpt lat="52.43246538564563" lon="72.11709240451455">
        <ele>265.2</ele>
        <time>2026-07-10T12:21:18.000Z</time>
      </trkpt>
      <trkpt lat="52.4326635338366" lon="72.11815145798028">
        <ele>264.2</ele>
        <time>2026-07-10T12:21:22.000Z</time>
      </trkpt>
      <trkpt lat="52.433223528787494" lon="72.1198715083301">
        <ele>263</ele>
        <time>2026-07-10T12:21:29.000Z</time>
      </trkpt>
      <trkpt lat="52.43338270112872" lon="72.12083609774709">
        <ele>260.2</ele>
        <time>2026-07-10T12:21:33.000Z</time>
      </trkpt>
      <trkpt lat="52.433319417759776" lon="72.12156959809363">
        <ele>258.6</ele>
        <time>2026-07-10T12:21:36.000Z</time>
      </trkpt>
      <trkpt lat="52.43287777528167" lon="72.1237416844815">
        <ele>260</ele>
        <time>2026-07-10T12:21:45.000Z</time>
      </trkpt>
      <trkpt lat="52.43282689712942" lon="72.12471063248813">
        <ele>261.8</ele>
        <time>2026-07-10T12:21:49.000Z</time>
      </trkpt>
      <trkpt lat="52.43290292099118" lon="72.12650410830975">
        <ele>264</ele>
        <time>2026-07-10T12:21:56.000Z</time>
      </trkpt>
      <trkpt lat="52.43286369368434" lon="72.12763440795243">
        <ele>265</ele>
        <time>2026-07-10T12:22:00.000Z</time>
      </trkpt>
      <trkpt lat="52.432842403650284" lon="72.12822122499347">
        <ele>265.4</ele>
        <time>2026-07-10T12:22:02.000Z</time>
      </trkpt>
      <trkpt lat="52.43282203562558" lon="72.12881818413734">
        <ele>265.6</ele>
        <time>2026-07-10T12:22:04.000Z</time>
      </trkpt>
      <trkpt lat="52.43280460126698" lon="72.12942536920309">
        <ele>266</ele>
        <time>2026-07-10T12:22:06.000Z</time>
      </trkpt>
      <trkpt lat="52.432785825803876" lon="72.13004227727652">
        <ele>266.6</ele>
        <time>2026-07-10T12:22:08.000Z</time>
      </trkpt>
      <trkpt lat="52.43276562541723" lon="72.13066882453859">
        <ele>267.4</ele>
        <time>2026-07-10T12:22:10.000Z</time>
      </trkpt>
      <trkpt lat="52.43270728737116" lon="72.1325661521405">
        <ele>269</ele>
        <time>2026-07-10T12:22:16.000Z</time>
      </trkpt>
      <trkpt lat="52.43268717080355" lon="72.13320611044765">
        <ele>270.2</ele>
        <time>2026-07-10T12:22:18.000Z</time>
      </trkpt>
      <trkpt lat="52.4326706584543" lon="72.13385378010571">
        <ele>271.8</ele>
        <time>2026-07-10T12:22:20.000Z</time>
      </trkpt>
      <trkpt lat="52.432653810828924" lon="72.13450555689633">
        <ele>272.8</ele>
        <time>2026-07-10T12:22:22.000Z</time>
      </trkpt>
      <trkpt lat="52.43247427046299" lon="72.13983552530408">
        <ele>275</ele>
        <time>2026-07-10T12:22:38.000Z</time>
      </trkpt>
      <trkpt lat="52.43235901929438" lon="72.14351618662477">
        <ele>277.8</ele>
        <time>2026-07-10T12:22:51.000Z</time>
      </trkpt>
      <trkpt lat="52.432327419519424" lon="72.14450483210385">
        <ele>278</ele>
        <time>2026-07-10T12:22:54.000Z</time>
      </trkpt>
      <trkpt lat="52.4322422593832" lon="72.1474292781204">
        <ele>277.2</ele>
        <time>2026-07-10T12:23:03.000Z</time>
      </trkpt>
      <trkpt lat="52.432091468945146" lon="72.15242749080062">
        <ele>279.8</ele>
        <time>2026-07-10T12:23:19.000Z</time>
      </trkpt>
      <trkpt lat="52.43192609399557" lon="72.15741505846381">
        <ele>280.4</ele>
        <time>2026-07-10T12:23:35.000Z</time>
      </trkpt>
      <trkpt lat="52.431767508387566" lon="72.16241385787725">
        <ele>278.8</ele>
        <time>2026-07-10T12:23:51.000Z</time>
      </trkpt>
      <trkpt lat="52.43170573376119" lon="72.16439676471055">
        <ele>280.8</ele>
        <time>2026-07-10T12:23:57.000Z</time>
      </trkpt>
      <trkpt lat="52.43168327026069" lon="72.1650694962591">
        <ele>281</ele>
        <time>2026-07-10T12:23:59.000Z</time>
      </trkpt>
      <trkpt lat="52.43166223168373" lon="72.16574541293085">
        <ele>282</ele>
        <time>2026-07-10T12:24:01.000Z</time>
      </trkpt>
      <trkpt lat="52.431631134822965" lon="72.1667646523565">
        <ele>282.2</ele>
        <time>2026-07-10T12:24:04.000Z</time>
      </trkpt>
      <trkpt lat="52.4315292108804" lon="72.16982932761312">
        <ele>281.4</ele>
        <time>2026-07-10T12:24:13.000Z</time>
      </trkpt>
      <trkpt lat="52.43135469965637" lon="72.17516927048564">
        <ele>280.8</ele>
        <time>2026-07-10T12:24:29.000Z</time>
      </trkpt>
      <trkpt lat="52.431171806529164" lon="72.18049052171409">
        <ele>282</ele>
        <time>2026-07-10T12:24:45.000Z</time>
      </trkpt>
      <trkpt lat="52.43098413571715" lon="72.18592241406441">
        <ele>281.8</ele>
        <time>2026-07-10T12:25:01.000Z</time>
      </trkpt>
      <trkpt lat="52.43080208078027" lon="72.19128088094294">
        <ele>279.8</ele>
        <time>2026-07-10T12:25:18.000Z</time>
      </trkpt>
      <trkpt lat="52.430626563727856" lon="72.19656868837774">
        <ele>277.8</ele>
        <time>2026-07-10T12:25:34.000Z</time>
      </trkpt>
      <trkpt lat="52.43045087903738" lon="72.20180578529835">
        <ele>277.8</ele>
        <time>2026-07-10T12:25:50.000Z</time>
      </trkpt>
      <trkpt lat="52.43030427955091" lon="72.20679586753249">
        <ele>277</ele>
        <time>2026-07-10T12:26:05.000Z</time>
      </trkpt>
      <trkpt lat="52.430217610672116" lon="72.20988057553768">
        <ele>276.4</ele>
        <time>2026-07-10T12:26:14.000Z</time>
      </trkpt>
      <trkpt lat="52.42999842390418" lon="72.21530115231872">
        <ele>278.4</ele>
        <time>2026-07-10T12:26:30.000Z</time>
      </trkpt>
      <trkpt lat="52.429817290976644" lon="72.22055149264634">
        <ele>277.4</ele>
        <time>2026-07-10T12:26:46.000Z</time>
      </trkpt>
      <trkpt lat="52.42965828627348" lon="72.22523747943342">
        <ele>277.4</ele>
        <time>2026-07-10T12:27:00.000Z</time>
      </trkpt>
      <trkpt lat="52.429635655134916" lon="72.22593007609248">
        <ele>276.8</ele>
        <time>2026-07-10T12:27:02.000Z</time>
      </trkpt>
      <trkpt lat="52.4295415263623" lon="72.2287162207067">
        <ele>275.2</ele>
        <time>2026-07-10T12:27:10.000Z</time>
      </trkpt>
      <trkpt lat="52.42951872758567" lon="72.22941828891635">
        <ele>275.4</ele>
        <time>2026-07-10T12:27:12.000Z</time>
      </trkpt>
      <trkpt lat="52.429312616586685" lon="72.23535938188434">
        <ele>274.2</ele>
        <time>2026-07-10T12:27:28.000Z</time>
      </trkpt>
      <trkpt lat="52.42911170236766" lon="72.24078666418791">
        <ele>272.4</ele>
        <time>2026-07-10T12:27:45.000Z</time>
      </trkpt>
      <trkpt lat="52.42893811315298" lon="72.24611386656761">
        <ele>269.8</ele>
        <time>2026-07-10T12:28:01.000Z</time>
      </trkpt>
      <trkpt lat="52.42874616757035" lon="72.25154416635633">
        <ele>270</ele>
        <time>2026-07-10T12:28:17.000Z</time>
      </trkpt>
      <trkpt lat="52.428551791235805" lon="72.25695300847292">
        <ele>270.6</ele>
        <time>2026-07-10T12:28:33.000Z</time>
      </trkpt>
      <trkpt lat="52.428342662751675" lon="72.26237869821489">
        <ele>270.8</ele>
        <time>2026-07-10T12:28:49.000Z</time>
      </trkpt>
      <trkpt lat="52.42814602330327" lon="72.26783288642764">
        <ele>265</ele>
        <time>2026-07-10T12:29:05.000Z</time>
      </trkpt>
      <trkpt lat="52.42795508354902" lon="72.27329302579165">
        <ele>261.6</ele>
        <time>2026-07-10T12:29:21.000Z</time>
      </trkpt>
      <trkpt lat="52.42775961756706" lon="72.27880538441241">
        <ele>262</ele>
        <time>2026-07-10T12:29:37.000Z</time>
      </trkpt>
      <trkpt lat="52.42756322957575" lon="72.2845255304128">
        <ele>255.6</ele>
        <time>2026-07-10T12:29:54.000Z</time>
      </trkpt>
      <trkpt lat="52.42736969143152" lon="72.28977595455945">
        <ele>253.6</ele>
        <time>2026-07-10T12:30:10.000Z</time>
      </trkpt>
      <trkpt lat="52.42724203504622" lon="72.29348201304674">
        <ele>254</ele>
        <time>2026-07-10T12:30:21.000Z</time>
      </trkpt>
      <trkpt lat="52.427223175764084" lon="72.29419648647308">
        <ele>255.2</ele>
        <time>2026-07-10T12:30:23.000Z</time>
      </trkpt>
      <trkpt lat="52.4271997064352" lon="72.29493166320026">
        <ele>255.6</ele>
        <time>2026-07-10T12:30:25.000Z</time>
      </trkpt>
      <trkpt lat="52.42717799730599" lon="72.29568318463862">
        <ele>255.6</ele>
        <time>2026-07-10T12:30:27.000Z</time>
      </trkpt>
      <trkpt lat="52.427159724757075" lon="72.29644660837948">
        <ele>255.6</ele>
        <time>2026-07-10T12:30:29.000Z</time>
      </trkpt>
      <trkpt lat="52.42713499814272" lon="72.29721698909998">
        <ele>256.2</ele>
        <time>2026-07-10T12:30:31.000Z</time>
      </trkpt>
      <trkpt lat="52.42710666731" lon="72.29799357242882">
        <ele>257.6</ele>
        <time>2026-07-10T12:30:33.000Z</time>
      </trkpt>
      <trkpt lat="52.426959816366434" lon="72.30145446024835">
        <ele>258.8</ele>
        <time>2026-07-10T12:30:42.000Z</time>
      </trkpt>
      <trkpt lat="52.426739959046245" lon="72.307307459414">
        <ele>259</ele>
        <time>2026-07-10T12:30:58.000Z</time>
      </trkpt>
      <trkpt lat="52.426543487235904" lon="72.3128648288548">
        <ele>256.4</ele>
        <time>2026-07-10T12:31:14.000Z</time>
      </trkpt>
      <trkpt lat="52.42634693160653" lon="72.31829521246254">
        <ele>255.6</ele>
        <time>2026-07-10T12:31:30.000Z</time>
      </trkpt>
      <trkpt lat="52.4261742644012" lon="72.32277642935514">
        <ele>253.2</ele>
        <time>2026-07-10T12:31:43.000Z</time>
      </trkpt>
      <trkpt lat="52.426264118403196" lon="72.3240425158292">
        <ele>253.2</ele>
        <time>2026-07-10T12:31:47.000Z</time>
      </trkpt>
      <trkpt lat="52.427045311778784" lon="72.32749016024172">
        <ele>253.8</ele>
        <time>2026-07-10T12:31:58.000Z</time>
      </trkpt>
      <trkpt lat="52.428157506510615" lon="72.3325648996979">
        <ele>253.2</ele>
        <time>2026-07-10T12:32:14.000Z</time>
      </trkpt>
      <trkpt lat="52.42951772175729" lon="72.3386783245951">
        <ele>251</ele>
        <time>2026-07-10T12:32:31.000Z</time>
      </trkpt>
      <trkpt lat="52.42982332594693" lon="72.34040658921003">
        <ele>250.6</ele>
        <time>2026-07-10T12:32:36.000Z</time>
      </trkpt>
      <trkpt lat="52.429832965135574" lon="72.34179605729878">
        <ele>250.2</ele>
        <time>2026-07-10T12:32:40.000Z</time>
      </trkpt>
      <trkpt lat="52.429403979331255" lon="72.34561996534467">
        <ele>249.4</ele>
        <time>2026-07-10T12:32:51.000Z</time>
      </trkpt>
      <trkpt lat="52.428997373208404" lon="72.34798659570515">
        <ele>248.8</ele>
        <time>2026-07-10T12:32:58.000Z</time>
      </trkpt>
      <trkpt lat="52.42780697531998" lon="72.35339820384979">
        <ele>250.4</ele>
        <time>2026-07-10T12:33:14.000Z</time>
      </trkpt>
      <trkpt lat="52.42668597958982" lon="72.35866069793701">
        <ele>254.2</ele>
        <time>2026-07-10T12:33:30.000Z</time>
      </trkpt>
      <trkpt lat="52.426186418160796" lon="72.36127685755491">
        <ele>254.6</ele>
        <time>2026-07-10T12:33:38.000Z</time>
      </trkpt>
      <trkpt lat="52.426029508933425" lon="72.36508307978511">
        <ele>255.4</ele>
        <time>2026-07-10T12:33:49.000Z</time>
      </trkpt>
      <trkpt lat="52.42581166327" lon="72.37079442478716">
        <ele>253</ele>
        <time>2026-07-10T12:34:05.000Z</time>
      </trkpt>
      <trkpt lat="52.425599517300725" lon="72.37670115195215">
        <ele>251.6</ele>
        <time>2026-07-10T12:34:21.000Z</time>
      </trkpt>
      <trkpt lat="52.425371278077364" lon="72.38238567486405">
        <ele>253.6</ele>
        <time>2026-07-10T12:34:37.000Z</time>
      </trkpt>
      <trkpt lat="52.42510582320392" lon="72.38901282660663">
        <ele>255</ele>
        <time>2026-07-10T12:34:54.000Z</time>
      </trkpt>
      <trkpt lat="52.42488638497889" lon="72.39477932453156">
        <ele>256.2</ele>
        <time>2026-07-10T12:35:10.000Z</time>
      </trkpt>
      <trkpt lat="52.42465537972748" lon="72.40035278722644">
        <ele>255.2</ele>
        <time>2026-07-10T12:35:26.000Z</time>
      </trkpt>
      <trkpt lat="52.42444465868175" lon="72.40611786022782">
        <ele>253.8</ele>
        <time>2026-07-10T12:35:42.000Z</time>
      </trkpt>
      <trkpt lat="52.424217257648706" lon="72.41206892766058">
        <ele>249.8</ele>
        <time>2026-07-10T12:35:58.000Z</time>
      </trkpt>
      <trkpt lat="52.42398046888411" lon="72.4181261099875">
        <ele>251.8</ele>
        <time>2026-07-10T12:36:14.000Z</time>
      </trkpt>
      <trkpt lat="52.423762707039714" lon="72.42345607839525">
        <ele>248.8</ele>
        <time>2026-07-10T12:36:28.000Z</time>
      </trkpt>
      <trkpt lat="52.42373286746442" lon="72.42424380965531">
        <ele>248.8</ele>
        <time>2026-07-10T12:36:30.000Z</time>
      </trkpt>
      <trkpt lat="52.42348593659699" lon="72.43049419485033">
        <ele>251.2</ele>
        <time>2026-07-10T12:36:46.000Z</time>
      </trkpt>
      <trkpt lat="52.42320941761136" lon="72.43697701022029">
        <ele>251</ele>
        <time>2026-07-10T12:37:03.000Z</time>
      </trkpt>
      <trkpt lat="52.42298109456897" lon="72.44277820922434">
        <ele>253.6</ele>
        <time>2026-07-10T12:37:19.000Z</time>
      </trkpt>
      <trkpt lat="52.42276878096163" lon="72.4487189669162">
        <ele>251.6</ele>
        <time>2026-07-10T12:37:35.000Z</time>
      </trkpt>
      <trkpt lat="52.42252176627517" lon="72.45491956360638">
        <ele>246.4</ele>
        <time>2026-07-10T12:37:52.000Z</time>
      </trkpt>
      <trkpt lat="52.422297885641456" lon="72.46045840904117">
        <ele>244.4</ele>
        <time>2026-07-10T12:38:07.000Z</time>
      </trkpt>
      <trkpt lat="52.422058414667845" lon="72.46631735935807">
        <ele>245.2</ele>
        <time>2026-07-10T12:38:23.000Z</time>
      </trkpt>
      <trkpt lat="52.421810729429126" lon="72.47229658998549">
        <ele>241.6</ele>
        <time>2026-07-10T12:38:39.000Z</time>
      </trkpt>
      <trkpt lat="52.421576622873545" lon="72.4782121181488">
        <ele>240.6</ele>
        <time>2026-07-10T12:38:55.000Z</time>
      </trkpt>
      <trkpt lat="52.42134880274534" lon="72.48409369960427">
        <ele>239.4</ele>
        <time>2026-07-10T12:39:11.000Z</time>
      </trkpt>
      <trkpt lat="52.42110346443951" lon="72.49057567678392">
        <ele>242.2</ele>
        <time>2026-07-10T12:39:28.000Z</time>
      </trkpt>
      <trkpt lat="52.42088218219578" lon="72.49648760072887">
        <ele>244.8</ele>
        <time>2026-07-10T12:39:44.000Z</time>
      </trkpt>
      <trkpt lat="52.42064078338444" lon="72.50250421464443">
        <ele>245</ele>
        <time>2026-07-10T12:40:00.000Z</time>
      </trkpt>
      <trkpt lat="52.42042469792068" lon="72.50822268426418">
        <ele>246.2</ele>
        <time>2026-07-10T12:40:16.000Z</time>
      </trkpt>
      <trkpt lat="52.42025747895241" lon="72.51332240179181">
        <ele>249.8</ele>
        <time>2026-07-10T12:40:31.000Z</time>
      </trkpt>
      <trkpt lat="52.42000048980117" lon="72.51871188171208">
        <ele>249.8</ele>
        <time>2026-07-10T12:40:47.000Z</time>
      </trkpt>
      <trkpt lat="52.41998439654708" lon="72.52115210518241">
        <ele>250.2</ele>
        <time>2026-07-10T12:40:54.000Z</time>
      </trkpt>
      <trkpt lat="52.420253874734044" lon="72.52701139077544">
        <ele>250.4</ele>
        <time>2026-07-10T12:41:10.000Z</time>
      </trkpt>
      <trkpt lat="52.42051647976041" lon="72.53294217400253">
        <ele>244.6</ele>
        <time>2026-07-10T12:41:26.000Z</time>
      </trkpt>
      <trkpt lat="52.42075787857175" lon="72.53844548016787">
        <ele>242.2</ele>
        <time>2026-07-10T12:41:42.000Z</time>
      </trkpt>
      <trkpt lat="52.42105568759143" lon="72.54512686282396">
        <ele>242.2</ele>
        <time>2026-07-10T12:41:59.000Z</time>
      </trkpt>
      <trkpt lat="52.421319633722305" lon="72.55103300325572">
        <ele>243.4</ele>
        <time>2026-07-10T12:42:15.000Z</time>
      </trkpt>
      <trkpt lat="52.421564972028136" lon="72.55688206292689">
        <ele>247.6</ele>
        <time>2026-07-10T12:42:31.000Z</time>
      </trkpt>
      <trkpt lat="52.42181927897036" lon="72.56256507709622">
        <ele>243.2</ele>
        <time>2026-07-10T12:42:47.000Z</time>
      </trkpt>
      <trkpt lat="52.422074591740966" lon="72.56822126917541">
        <ele>239.4</ele>
        <time>2026-07-10T12:43:03.000Z</time>
      </trkpt>
      <trkpt lat="52.422297382727265" lon="72.57383789867163">
        <ele>242</ele>
        <time>2026-07-10T12:43:19.000Z</time>
      </trkpt>
      <trkpt lat="52.42254783399403" lon="72.57953365333378">
        <ele>245</ele>
        <time>2026-07-10T12:43:35.000Z</time>
      </trkpt>
      <trkpt lat="52.42279996164143" lon="72.58549142628908">
        <ele>246</ele>
        <time>2026-07-10T12:43:51.000Z</time>
      </trkpt>
      <trkpt lat="52.423055190593004" lon="72.59106757119298">
        <ele>251</ele>
        <time>2026-07-10T12:44:07.000Z</time>
      </trkpt>
      <trkpt lat="52.42335023358464" lon="72.59764426387846">
        <ele>255.4</ele>
        <time>2026-07-10T12:44:24.000Z</time>
      </trkpt>
      <trkpt lat="52.42358509451151" lon="72.60331118479371">
        <ele>250.4</ele>
        <time>2026-07-10T12:44:40.000Z</time>
      </trkpt>
      <trkpt lat="52.423856584355235" lon="72.60931195691228">
        <ele>255</ele>
        <time>2026-07-10T12:44:56.000Z</time>
      </trkpt>
      <trkpt lat="52.42412212304771" lon="72.61524341069162">
        <ele>252.8</ele>
        <time>2026-07-10T12:45:12.000Z</time>
      </trkpt>
      <trkpt lat="52.4243832193315" lon="72.62115399353206">
        <ele>253.8</ele>
        <time>2026-07-10T12:45:28.000Z</time>
      </trkpt>
      <trkpt lat="52.424627216532826" lon="72.6267987024039">
        <ele>252.8</ele>
        <time>2026-07-10T12:45:44.000Z</time>
      </trkpt>
      <trkpt lat="52.42489451542497" lon="72.6327459141612">
        <ele>251.8</ele>
        <time>2026-07-10T12:46:00.000Z</time>
      </trkpt>
      <trkpt lat="52.42515401914716" lon="72.63872740790248">
        <ele>256.8</ele>
        <time>2026-07-10T12:46:16.000Z</time>
      </trkpt>
      <trkpt lat="52.425413355231285" lon="72.64461720362306">
        <ele>254.4</ele>
        <time>2026-07-10T12:46:33.000Z</time>
      </trkpt>
      <trkpt lat="52.425693310797215" lon="72.65092332847416">
        <ele>253.4</ele>
        <time>2026-07-10T12:46:49.000Z</time>
      </trkpt>
      <trkpt lat="52.42597418837249" lon="72.65712727792561">
        <ele>255</ele>
        <time>2026-07-10T12:47:05.000Z</time>
      </trkpt>
      <trkpt lat="52.42624660022557" lon="72.66316778026521">
        <ele>251.4</ele>
        <time>2026-07-10T12:47:21.000Z</time>
      </trkpt>
      <trkpt lat="52.42653418332338" lon="72.6690710708499">
        <ele>250</ele>
        <time>2026-07-10T12:47:37.000Z</time>
      </trkpt>
      <trkpt lat="52.426812797784805" lon="72.67508131451905">
        <ele>251.2</ele>
        <time>2026-07-10T12:47:53.000Z</time>
      </trkpt>
      <trkpt lat="52.42709007114172" lon="72.68119448795915">
        <ele>250</ele>
        <time>2026-07-10T12:48:09.000Z</time>
      </trkpt>
      <trkpt lat="52.42736860178411" lon="72.68722342327237">
        <ele>247</ele>
        <time>2026-07-10T12:48:25.000Z</time>
      </trkpt>
      <trkpt lat="52.42750581353903" lon="72.69081942737103">
        <ele>234.6</ele>
        <time>2026-07-10T12:48:37.000Z</time>
      </trkpt>
      <trkpt lat="52.42765450850129" lon="72.69354170188308">
        <ele>234.6</ele>
        <time>2026-07-10T12:48:50.000Z</time>
      </trkpt>
      <trkpt lat="52.427907306700945" lon="72.69889161922038">
        <ele>239.8</ele>
        <time>2026-07-10T12:49:07.000Z</time>
      </trkpt>
      <trkpt lat="52.42817661724985" lon="72.70448511466384">
        <ele>246.2</ele>
        <time>2026-07-10T12:49:23.000Z</time>
      </trkpt>
      <trkpt lat="52.42844458669424" lon="72.71022730506957">
        <ele>240.6</ele>
        <time>2026-07-10T12:49:39.000Z</time>
      </trkpt>
      <trkpt lat="52.42872177623212" lon="72.71620460785925">
        <ele>241.2</ele>
        <time>2026-07-10T12:49:55.000Z</time>
      </trkpt>
      <trkpt lat="52.42900852113962" lon="72.7222306933254">
        <ele>236.6</ele>
        <time>2026-07-10T12:50:11.000Z</time>
      </trkpt>
      <trkpt lat="52.42928101681173" lon="72.72807916626334">
        <ele>235.8</ele>
        <time>2026-07-10T12:50:27.000Z</time>
      </trkpt>
      <trkpt lat="52.42949835956097" lon="72.732576392591">
        <ele>231.6</ele>
        <time>2026-07-10T12:50:40.000Z</time>
      </trkpt>
      <trkpt lat="52.429743614047766" lon="72.73773562163115">
        <ele>227.4</ele>
        <time>2026-07-10T12:50:55.000Z</time>
      </trkpt>
      <trkpt lat="52.42979449220002" lon="72.73881479166448">
        <ele>223</ele>
        <time>2026-07-10T12:50:59.000Z</time>
      </trkpt>
      <trkpt lat="52.429817877709866" lon="72.73949900642037">
        <ele>219</ele>
        <time>2026-07-10T12:51:03.000Z</time>
      </trkpt>
      <trkpt lat="52.42989708669484" lon="72.74086550809443">
        <ele>219.2</ele>
        <time>2026-07-10T12:51:14.000Z</time>
      </trkpt>
      <trkpt lat="52.43007662706077" lon="72.74453829042614">
        <ele>223.6</ele>
        <time>2026-07-10T12:51:31.000Z</time>
      </trkpt>
      <trkpt lat="52.43029883131385" lon="72.7490870654583">
        <ele>225.6</ele>
        <time>2026-07-10T12:51:47.000Z</time>
      </trkpt>
      <trkpt lat="52.43055992759764" lon="72.75445265695453">
        <ele>227.8</ele>
        <time>2026-07-10T12:52:03.000Z</time>
      </trkpt>
      <trkpt lat="52.43083720095456" lon="72.7601645886898">
        <ele>231.8</ele>
        <time>2026-07-10T12:52:19.000Z</time>
      </trkpt>
      <trkpt lat="52.43110667914152" lon="72.76583192870021">
        <ele>234.6</ele>
        <time>2026-07-10T12:52:35.000Z</time>
      </trkpt>
      <trkpt lat="52.43138202466071" lon="72.77146347798407">
        <ele>239.6</ele>
        <time>2026-07-10T12:52:51.000Z</time>
      </trkpt>
      <trkpt lat="52.431639516726136" lon="72.7768460009247">
        <ele>238.6</ele>
        <time>2026-07-10T12:53:07.000Z</time>
      </trkpt>
      <trkpt lat="52.431910587474704" lon="72.78222978115082">
        <ele>237.8</ele>
        <time>2026-07-10T12:53:23.000Z</time>
      </trkpt>
      <trkpt lat="52.43214536458254" lon="72.78661837801337">
        <ele>234.2</ele>
        <time>2026-07-10T12:53:38.000Z</time>
      </trkpt>
      <trkpt lat="52.43241383694112" lon="72.79278201051056">
        <ele>238.6</ele>
        <time>2026-07-10T12:53:55.000Z</time>
      </trkpt>
      <trkpt lat="52.43262086994946" lon="72.7971420250833">
        <ele>236.6</ele>
        <time>2026-07-10T12:54:08.000Z</time>
      </trkpt>
      <trkpt lat="52.43291599676013" lon="72.79954452998936">
        <ele>234.8</ele>
        <time>2026-07-10T12:54:16.000Z</time>
      </trkpt>
      <trkpt lat="52.43346618488431" lon="72.80140263028443">
        <ele>232</ele>
        <time>2026-07-10T12:54:23.000Z</time>
      </trkpt>
      <trkpt lat="52.434861017391086" lon="72.80536349862814">
        <ele>229</ele>
        <time>2026-07-10T12:54:39.000Z</time>
      </trkpt>
      <trkpt lat="52.435399889945984" lon="72.80709461309016">
        <ele>227.2</ele>
        <time>2026-07-10T12:54:46.000Z</time>
      </trkpt>
      <trkpt lat="52.435805574059486" lon="72.80920827761292">
        <ele>225.8</ele>
        <time>2026-07-10T12:54:54.000Z</time>
      </trkpt>
      <trkpt lat="52.43601696565747" lon="72.81234947964549">
        <ele>225.6</ele>
        <time>2026-07-10T12:55:05.000Z</time>
      </trkpt>
      <trkpt lat="52.43623833172023" lon="72.8156213555485">
        <ele>220.2</ele>
        <time>2026-07-10T12:55:17.000Z</time>
      </trkpt>
      <trkpt lat="52.43643312714994" lon="72.8191305231303">
        <ele>220</ele>
        <time>2026-07-10T12:55:30.000Z</time>
      </trkpt>
      <trkpt lat="52.436587354168296" lon="72.82120202668011">
        <ele>213</ele>
        <time>2026-07-10T12:55:39.000Z</time>
      </trkpt>
      <trkpt lat="52.43670905940235" lon="72.82322742976248">
        <ele>211.2</ele>
        <time>2026-07-10T12:55:48.000Z</time>
      </trkpt>
      <trkpt lat="52.43695691227913" lon="72.82751033082604">
        <ele>212</ele>
        <time>2026-07-10T12:56:04.000Z</time>
      </trkpt>
      <trkpt lat="52.43722370825708" lon="72.83180630765855">
        <ele>209</ele>
        <time>2026-07-10T12:56:19.000Z</time>
      </trkpt>
      <trkpt lat="52.43752000853419" lon="72.83661475405097">
        <ele>212</ele>
        <time>2026-07-10T12:56:35.000Z</time>
      </trkpt>
      <trkpt lat="52.4378165602684" lon="72.8411959670484">
        <ele>213.6</ele>
        <time>2026-07-10T12:56:50.000Z</time>
      </trkpt>
      <trkpt lat="52.43801546283066" lon="72.84437631256878">
        <ele>215.4</ele>
        <time>2026-07-10T12:57:01.000Z</time>
      </trkpt>
      <trkpt lat="52.43819450028241" lon="72.84656960517168">
        <ele>217.4</ele>
        <time>2026-07-10T12:57:09.000Z</time>
      </trkpt>
      <trkpt lat="52.43894258514047" lon="72.85078159533441">
        <ele>218</ele>
        <time>2026-07-10T12:57:23.000Z</time>
      </trkpt>
      <trkpt lat="52.4398422986269" lon="72.85584585741162">
        <ele>218.4</ele>
        <time>2026-07-10T12:57:39.000Z</time>
      </trkpt>
      <trkpt lat="52.440697168931365" lon="72.8606372885406">
        <ele>214.4</ele>
        <time>2026-07-10T12:57:55.000Z</time>
      </trkpt>
      <trkpt lat="52.441579615697265" lon="72.86559442989528">
        <ele>213</ele>
        <time>2026-07-10T12:58:11.000Z</time>
      </trkpt>
      <trkpt lat="52.44250087067485" lon="72.87066145800054">
        <ele>211.2</ele>
        <time>2026-07-10T12:58:28.000Z</time>
      </trkpt>
      <trkpt lat="52.44318558834493" lon="72.87461310625076">
        <ele>211.4</ele>
        <time>2026-07-10T12:58:43.000Z</time>
      </trkpt>
      <trkpt lat="52.443666625767946" lon="72.8772772103548">
        <ele>212.6</ele>
        <time>2026-07-10T12:58:52.000Z</time>
      </trkpt>
      <trkpt lat="52.44458352215588" lon="72.88240869529545">
        <ele>213.2</ele>
        <time>2026-07-10T12:59:08.000Z</time>
      </trkpt>
      <trkpt lat="52.44552346877754" lon="72.88767429068685">
        <ele>214.6</ele>
        <time>2026-07-10T12:59:24.000Z</time>
      </trkpt>
      <trkpt lat="52.44650297798216" lon="72.89312680251896">
        <ele>217.6</ele>
        <time>2026-07-10T12:59:40.000Z</time>
      </trkpt>
      <trkpt lat="52.4472417589277" lon="72.8970745112747">
        <ele>214.2</ele>
        <time>2026-07-10T12:59:52.000Z</time>
      </trkpt>
      <trkpt lat="52.44810752570629" lon="72.90207599289715">
        <ele>214.4</ele>
        <time>2026-07-10T13:00:08.000Z</time>
      </trkpt>
      <trkpt lat="52.44910170324147" lon="72.90758147835732">
        <ele>215.4</ele>
        <time>2026-07-10T13:00:24.000Z</time>
      </trkpt>
      <trkpt lat="52.44991650804877" lon="72.91226260364056">
        <ele>217.8</ele>
        <time>2026-07-10T13:00:37.000Z</time>
      </trkpt>
      <trkpt lat="52.450920324772596" lon="72.91794628836215">
        <ele>222.8</ele>
        <time>2026-07-10T13:00:54.000Z</time>
      </trkpt>
      <trkpt lat="52.45197393000126" lon="72.92394865304232">
        <ele>223.4</ele>
        <time>2026-07-10T13:01:10.000Z</time>
      </trkpt>
      <trkpt lat="52.45262889191508" lon="72.92768890969455">
        <ele>228.2</ele>
        <time>2026-07-10T13:01:20.000Z</time>
      </trkpt>
      <trkpt lat="52.45276115834713" lon="72.92845937423408">
        <ele>228.8</ele>
        <time>2026-07-10T13:01:22.000Z</time>
      </trkpt>
      <trkpt lat="52.45364896953106" lon="72.93342405930161">
        <ele>229.6</ele>
        <time>2026-07-10T13:01:35.000Z</time>
      </trkpt>
      <trkpt lat="52.454636273905635" lon="72.93725953437388">
        <ele>228</ele>
        <time>2026-07-10T13:01:46.000Z</time>
      </trkpt>
      <trkpt lat="52.45607536286116" lon="72.94265530072153">
        <ele>227.2</ele>
        <time>2026-07-10T13:02:02.000Z</time>
      </trkpt>
      <trkpt lat="52.457516798749566" lon="72.94809389859438">
        <ele>225.8</ele>
        <time>2026-07-10T13:02:18.000Z</time>
      </trkpt>
      <trkpt lat="52.458989499136806" lon="72.95364229939878">
        <ele>224.6</ele>
        <time>2026-07-10T13:02:34.000Z</time>
      </trkpt>
      <trkpt lat="52.460473934188485" lon="72.95922808349133">
        <ele>222.4</ele>
        <time>2026-07-10T13:02:50.000Z</time>
      </trkpt>
      <trkpt lat="52.46186541393399" lon="72.9645034018904">
        <ele>221.8</ele>
        <time>2026-07-10T13:03:06.000Z</time>
      </trkpt>
      <trkpt lat="52.46348110958934" lon="72.97051331028342">
        <ele>222.2</ele>
        <time>2026-07-10T13:03:23.000Z</time>
      </trkpt>
      <trkpt lat="52.464826656505466" lon="72.97574512660503">
        <ele>223.4</ele>
        <time>2026-07-10T13:03:38.000Z</time>
      </trkpt>
      <trkpt lat="52.46627806685865" lon="72.98123602755368">
        <ele>222.4</ele>
        <time>2026-07-10T13:03:54.000Z</time>
      </trkpt>
      <trkpt lat="52.467733500525355" lon="72.98678509891033">
        <ele>221.2</ele>
        <time>2026-07-10T13:04:10.000Z</time>
      </trkpt>
      <trkpt lat="52.468982487916946" lon="72.99162372015417">
        <ele>219.6</ele>
        <time>2026-07-10T13:04:24.000Z</time>
      </trkpt>
      <trkpt lat="52.47039877809584" lon="72.99715150147676">
        <ele>218</ele>
        <time>2026-07-10T13:04:40.000Z</time>
      </trkpt>
      <trkpt lat="52.47184541076422" lon="73.00273636355996">
        <ele>220</ele>
        <time>2026-07-10T13:04:56.000Z</time>
      </trkpt>
      <trkpt lat="52.47324602678418" lon="73.00818652845919">
        <ele>216.2</ele>
        <time>2026-07-10T13:05:12.000Z</time>
      </trkpt>
      <trkpt lat="52.47463465668261" lon="73.01357299089432">
        <ele>217.2</ele>
        <time>2026-07-10T13:05:28.000Z</time>
      </trkpt>
      <trkpt lat="52.476198971271515" lon="73.01962355151772">
        <ele>217.2</ele>
        <time>2026-07-10T13:05:45.000Z</time>
      </trkpt>
      <trkpt lat="52.477621380239725" lon="73.02512912079692">
        <ele>215.2</ele>
        <time>2026-07-10T13:06:01.000Z</time>
      </trkpt>
      <trkpt lat="52.47903171926737" lon="73.03062723018229">
        <ele>214.8</ele>
        <time>2026-07-10T13:06:17.000Z</time>
      </trkpt>
      <trkpt lat="52.48029839247465" lon="73.03558931685984">
        <ele>213.6</ele>
        <time>2026-07-10T13:06:32.000Z</time>
      </trkpt>
      <trkpt lat="52.4805046711117" lon="73.03691181354225">
        <ele>214.8</ele>
        <time>2026-07-10T13:06:36.000Z</time>
      </trkpt>
      <trkpt lat="52.480691419914365" lon="73.04078106768429">
        <ele>216.4</ele>
        <time>2026-07-10T13:06:47.000Z</time>
      </trkpt>
      <trkpt lat="52.48097866773605" lon="73.04646701551974">
        <ele>219</ele>
        <time>2026-07-10T13:07:03.000Z</time>
      </trkpt>
      <trkpt lat="52.481260215863585" lon="73.05214198306203">
        <ele>215.4</ele>
        <time>2026-07-10T13:07:19.000Z</time>
      </trkpt>
      <trkpt lat="52.48154377564788" lon="73.05788777768612">
        <ele>215.2</ele>
        <time>2026-07-10T13:07:35.000Z</time>
      </trkpt>
      <trkpt lat="52.48181258328259" lon="73.06327893398702">
        <ele>210</ele>
        <time>2026-07-10T13:07:51.000Z</time>
      </trkpt>
      <trkpt lat="52.48207309283316" lon="73.06859222240746">
        <ele>205.8</ele>
        <time>2026-07-10T13:08:08.000Z</time>
      </trkpt>
      <trkpt lat="52.482270654290915" lon="73.07264361530542">
        <ele>203.8</ele>
        <time>2026-07-10T13:08:22.000Z</time>
      </trkpt>
      <trkpt lat="52.48251532204449" lon="73.07761601172388">
        <ele>205.6</ele>
        <time>2026-07-10T13:08:38.000Z</time>
      </trkpt>
      <trkpt lat="52.48259570449591" lon="73.08162700384855">
        <ele>206.4</ele>
        <time>2026-07-10T13:08:51.000Z</time>
      </trkpt>
      <trkpt lat="52.482450027018785" lon="73.08699418790638">
        <ele>207.2</ele>
        <time>2026-07-10T13:09:07.000Z</time>
      </trkpt>
      <trkpt lat="52.48229496181011" lon="73.09231367893517">
        <ele>204.6</ele>
        <time>2026-07-10T13:09:23.000Z</time>
      </trkpt>
      <trkpt lat="52.48213897459209" lon="73.0975397117436">
        <ele>205.2</ele>
        <time>2026-07-10T13:09:39.000Z</time>
      </trkpt>
      <trkpt lat="52.48198742978275" lon="73.10285995714366">
        <ele>205.4</ele>
        <time>2026-07-10T13:09:55.000Z</time>
      </trkpt>
      <trkpt lat="52.48183001764119" lon="73.10832135379314">
        <ele>203.6</ele>
        <time>2026-07-10T13:10:11.000Z</time>
      </trkpt>
      <trkpt lat="52.481649136170745" lon="73.11435339041054">
        <ele>206</ele>
        <time>2026-07-10T13:10:28.000Z</time>
      </trkpt>
      <trkpt lat="52.48149583116174" lon="73.1198744662106">
        <ele>205.2</ele>
        <time>2026-07-10T13:10:44.000Z</time>
      </trkpt>
      <trkpt lat="52.481337916105986" lon="73.12536025419831">
        <ele>207</ele>
        <time>2026-07-10T13:11:00.000Z</time>
      </trkpt>
      <trkpt lat="52.481170278042555" lon="73.13114460557699">
        <ele>207.6</ele>
        <time>2026-07-10T13:11:16.000Z</time>
      </trkpt>
      <trkpt lat="52.48100632801652" lon="73.1367112789303">
        <ele>208.4</ele>
        <time>2026-07-10T13:11:32.000Z</time>
      </trkpt>
      <trkpt lat="52.48074891977012" lon="73.14230477437377">
        <ele>208.4</ele>
        <time>2026-07-10T13:11:48.000Z</time>
      </trkpt>
      <trkpt lat="52.480557477101684" lon="73.14788108691573">
        <ele>205</ele>
        <time>2026-07-10T13:12:04.000Z</time>
      </trkpt>
      <trkpt lat="52.48039361089468" lon="73.15335648134351">
        <ele>202.4</ele>
        <time>2026-07-10T13:12:20.000Z</time>
      </trkpt>
      <trkpt lat="52.48020728118718" lon="73.15880471840501">
        <ele>203.8</ele>
        <time>2026-07-10T13:12:36.000Z</time>
      </trkpt>
      <trkpt lat="52.48004048131406" lon="73.16418615169823">
        <ele>201.6</ele>
        <time>2026-07-10T13:12:53.000Z</time>
      </trkpt>
      <trkpt lat="52.479898408055305" lon="73.16910565830767">
        <ele>200.6</ele>
        <time>2026-07-10T13:13:09.000Z</time>
      </trkpt>
      <trkpt lat="52.479773769155145" lon="73.17368477582932">
        <ele>200</ele>
        <time>2026-07-10T13:13:24.000Z</time>
      </trkpt>
      <trkpt lat="52.47993537224829" lon="73.17739611491561">
        <ele>201.2</ele>
        <time>2026-07-10T13:13:36.000Z</time>
      </trkpt>
      <trkpt lat="52.48023527674377" lon="73.18248158320785">
        <ele>198.6</ele>
        <time>2026-07-10T13:13:52.000Z</time>
      </trkpt>
      <trkpt lat="52.48053543269634" lon="73.18750821053982">
        <ele>201</ele>
        <time>2026-07-10T13:14:08.000Z</time>
      </trkpt>
      <trkpt lat="52.48078705742955" lon="73.1911566015333">
        <ele>199.2</ele>
        <time>2026-07-10T13:14:20.000Z</time>
      </trkpt>
      <trkpt lat="52.48115820810199" lon="73.19348987191916">
        <ele>195</ele>
        <time>2026-07-10T13:14:29.000Z</time>
      </trkpt>
      <trkpt lat="52.48194585554302" lon="73.19692720659077">
        <ele>190.8</ele>
        <time>2026-07-10T13:14:44.000Z</time>
      </trkpt>
      <trkpt lat="52.48228406533599" lon="73.19721638225019">
        <ele>186.8</ele>
        <time>2026-07-10T13:14:51.000Z</time>
      </trkpt>
      <trkpt lat="52.48276753351092" lon="73.19717866368592">
        <ele>184.6</ele>
        <time>2026-07-10T13:14:58.000Z</time>
      </trkpt>
      <trkpt lat="52.48324949294329" lon="73.19683131761849">
        <ele>184</ele>
        <time>2026-07-10T13:15:06.000Z</time>
      </trkpt>
      <trkpt lat="52.48468372039497" lon="73.19608566351235">
        <ele>183.6</ele>
        <time>2026-07-10T13:15:21.000Z</time>
      </trkpt>
      <trkpt lat="52.48576113022864" lon="73.19526222534478">
        <ele>182.8</ele>
        <time>2026-07-10T13:15:33.000Z</time>
      </trkpt>
      <trkpt lat="52.486470909789205" lon="73.19472293369472">
        <ele>182.6</ele>
        <time>2026-07-10T13:15:42.000Z</time>
      </trkpt>
      <trkpt lat="52.48713282868266" lon="73.19453098811209">
        <ele>183.6</ele>
        <time>2026-07-10T13:15:50.000Z</time>
      </trkpt>
      <trkpt lat="52.48769525438547" lon="73.19433527067304">
        <ele>182.2</ele>
        <time>2026-07-10T13:15:57.000Z</time>
      </trkpt>
      <trkpt lat="52.48821032233536" lon="73.19426570087671">
        <ele>181</ele>
        <time>2026-07-10T13:16:04.000Z</time>
      </trkpt>
      <trkpt lat="52.488761683925986" lon="73.19444498978555">
        <ele>179.4</ele>
        <time>2026-07-10T13:16:12.000Z</time>
      </trkpt>
      <trkpt lat="52.48934271745384" lon="73.19522727280855">
        <ele>179.8</ele>
        <time>2026-07-10T13:16:21.000Z</time>
      </trkpt>
      <trkpt lat="52.48967070132494" lon="73.19551871158183">
        <ele>178.6</ele>
        <time>2026-07-10T13:16:27.000Z</time>
      </trkpt>
      <trkpt lat="52.48987899161875" lon="73.19533967413008">
        <ele>180</ele>
        <time>2026-07-10T13:16:32.000Z</time>
      </trkpt>
      <trkpt lat="52.49084299430251" lon="73.19474690593779">
        <ele>178.6</ele>
        <time>2026-07-10T13:16:47.000Z</time>
      </trkpt>
      <trkpt lat="52.49163147993386" lon="73.19456988014281">
        <ele>178.8</ele>
        <time>2026-07-10T13:16:59.000Z</time>
      </trkpt>
      <trkpt lat="52.49219122342765" lon="73.19445588625968">
        <ele>178.2</ele>
        <time>2026-07-10T13:17:07.000Z</time>
      </trkpt>
      <trkpt lat="52.49243882484734" lon="73.19510456174612">
        <ele>177</ele>
        <time>2026-07-10T13:17:15.000Z</time>
      </trkpt>
      <trkpt lat="52.49293436296284" lon="73.19591953419149">
        <ele>177.2</ele>
        <time>2026-07-10T13:17:26.000Z</time>
      </trkpt>
      <trkpt lat="52.49334566295147" lon="73.19630300626159">
        <ele>177.2</ele>
        <time>2026-07-10T13:17:34.000Z</time>
      </trkpt>
      <trkpt lat="52.49394773505628" lon="73.1972867064178">
        <ele>176</ele>
        <time>2026-07-10T13:17:47.000Z</time>
      </trkpt>
      <trkpt lat="52.49424470588565" lon="73.1980066280812">
        <ele>175.2</ele>
        <time>2026-07-10T13:18:00.000Z</time>
      </trkpt>
      <trkpt lat="52.49465022236109" lon="73.19941227324307">
        <ele>176.4</ele>
        <time>2026-07-10T13:18:13.000Z</time>
      </trkpt>
      <trkpt lat="52.49512053094804" lon="73.20065589621663">
        <ele>175.8</ele>
        <time>2026-07-10T13:18:22.000Z</time>
      </trkpt>
      <trkpt lat="52.49537366442382" lon="73.20157798938453">
        <ele>174.4</ele>
        <time>2026-07-10T13:18:30.000Z</time>
      </trkpt>
      <trkpt lat="52.495785132050514" lon="73.20242615416646">
        <ele>176</ele>
        <time>2026-07-10T13:18:38.000Z</time>
      </trkpt>
      <trkpt lat="52.49621596187353" lon="73.20354119874537">
        <ele>175.2</ele>
        <time>2026-07-10T13:18:47.000Z</time>
      </trkpt>
      <trkpt lat="52.4970518052578" lon="73.20576106198132">
        <ele>172.8</ele>
        <time>2026-07-10T13:19:03.000Z</time>
      </trkpt>
      <trkpt lat="52.497246600687504" lon="73.20643723011017">
        <ele>172.4</ele>
        <time>2026-07-10T13:19:09.000Z</time>
      </trkpt>
      <trkpt lat="52.497412813827395" lon="73.20712010376155">
        <ele>172</ele>
        <time>2026-07-10T13:19:16.000Z</time>
      </trkpt>
      <trkpt lat="52.497953195124865" lon="73.20853723213077">
        <ele>172.8</ele>
        <time>2026-07-10T13:19:29.000Z</time>
      </trkpt>
      <trkpt lat="52.4985711928457" lon="73.21015770547092">
        <ele>174</ele>
        <time>2026-07-10T13:19:42.000Z</time>
      </trkpt>
      <trkpt lat="52.498933961614966" lon="73.21107652969658">
        <ele>172.8</ele>
        <time>2026-07-10T13:19:49.000Z</time>
      </trkpt>
      <trkpt lat="52.499626306816936" lon="73.21294259279966">
        <ele>174</ele>
        <time>2026-07-10T13:20:05.000Z</time>
      </trkpt>
      <trkpt lat="52.50006979331374" lon="73.21391338482499">
        <ele>172.2</ele>
        <time>2026-07-10T13:20:15.000Z</time>
      </trkpt>
      <trkpt lat="52.50017138198018" lon="73.21462886407971">
        <ele>171.2</ele>
        <time>2026-07-10T13:20:25.000Z</time>
      </trkpt>
      <trkpt lat="52.5005432870239" lon="73.21541525423527">
        <ele>171.8</ele>
        <time>2026-07-10T13:20:34.000Z</time>
      </trkpt>
      <trkpt lat="52.50085827894509" lon="73.21584935300052">
        <ele>171.8</ele>
        <time>2026-07-10T13:20:44.000Z</time>
      </trkpt>
      <trkpt lat="52.50196695327759" lon="73.21726589463651">
        <ele>173</ele>
        <time>2026-07-10T13:21:00.000Z</time>
      </trkpt>
      <trkpt lat="52.502767676487565" lon="73.2181335054338">
        <ele>173</ele>
        <time>2026-07-10T13:21:13.000Z</time>
      </trkpt>
      <trkpt lat="52.50384449958801" lon="73.21911477483809">
        <ele>172.6</ele>
        <time>2026-07-10T13:21:28.000Z</time>
      </trkpt>
      <trkpt lat="52.50480070710182" lon="73.21974417194724">
        <ele>173</ele>
        <time>2026-07-10T13:21:40.000Z</time>
      </trkpt>
      <trkpt lat="52.50549992546439" lon="73.22031489573419">
        <ele>171.8</ele>
        <time>2026-07-10T13:21:51.000Z</time>
      </trkpt>
      <trkpt lat="52.5057758577168" lon="73.22081512771547">
        <ele>171.8</ele>
        <time>2026-07-10T13:21:59.000Z</time>
      </trkpt>
      <trkpt lat="52.50621188431978" lon="73.22084597311914">
        <ele>173.2</ele>
        <time>2026-07-10T13:22:05.000Z</time>
      </trkpt>
      <trkpt lat="52.507375460118055" lon="73.22058546356857">
        <ele>173.8</ele>
        <time>2026-07-10T13:22:18.000Z</time>
      </trkpt>
      <trkpt lat="52.50779991969466" lon="73.22029360570014">
        <ele>173</ele>
        <time>2026-07-10T13:22:25.000Z</time>
      </trkpt>
      <trkpt lat="52.50873911194503" lon="73.2199605088681">
        <ele>172.6</ele>
        <time>2026-07-10T13:22:36.000Z</time>
      </trkpt>
      <trkpt lat="52.50982121564448" lon="73.21974283084273">
        <ele>173.6</ele>
        <time>2026-07-10T13:22:48.000Z</time>
      </trkpt>
      <trkpt lat="52.51121043227613" lon="73.2190622203052">
        <ele>174</ele>
        <time>2026-07-10T13:23:04.000Z</time>
      </trkpt>
      <trkpt lat="52.51262546516955" lon="73.21825202554464">
        <ele>174.6</ele>
        <time>2026-07-10T13:23:20.000Z</time>
      </trkpt>
      <trkpt lat="52.51362123526633" lon="73.21793778799474">
        <ele>174</ele>
        <time>2026-07-10T13:23:30.000Z</time>
      </trkpt>
      <trkpt lat="52.5144169293344" lon="73.21752347052097">
        <ele>174</ele>
        <time>2026-07-10T13:23:39.000Z</time>
      </trkpt>
      <trkpt lat="52.51550607383251" lon="73.21728089824319">
        <ele>174.8</ele>
        <time>2026-07-10T13:23:49.000Z</time>
      </trkpt>
      <trkpt lat="52.51616899855435" lon="73.21747980080545">
        <ele>174.8</ele>
        <time>2026-07-10T13:23:57.000Z</time>
      </trkpt>
      <trkpt lat="52.516747768968344" lon="73.21768666617572">
        <ele>175</ele>
        <time>2026-07-10T13:24:04.000Z</time>
      </trkpt>
      <trkpt lat="52.517743622884154" lon="73.21848227642477">
        <ele>174.6</ele>
        <time>2026-07-10T13:24:17.000Z</time>
      </trkpt>
      <trkpt lat="52.518352484330535" lon="73.21863256394863">
        <ele>174.6</ele>
        <time>2026-07-10T13:24:24.000Z</time>
      </trkpt>
      <trkpt lat="52.51946099102497" lon="73.21921736933291">
        <ele>175.2</ele>
        <time>2026-07-10T13:24:39.000Z</time>
      </trkpt>
      <trkpt lat="52.51988670788705" lon="73.21933345869184">
        <ele>174.6</ele>
        <time>2026-07-10T13:24:46.000Z</time>
      </trkpt>
      <trkpt lat="52.520736465230584" lon="73.21981416083872">
        <ele>176.4</ele>
        <time>2026-07-10T13:24:56.000Z</time>
      </trkpt>
      <trkpt lat="52.52147658728063" lon="73.22037616744637">
        <ele>176.4</ele>
        <time>2026-07-10T13:25:07.000Z</time>
      </trkpt>
      <trkpt lat="52.52269137650728" lon="73.22132918983698">
        <ele>178</ele>
        <time>2026-07-10T13:25:22.000Z</time>
      </trkpt>
      <trkpt lat="52.52287971787155" lon="73.22178826667368">
        <ele>177.6</ele>
        <time>2026-07-10T13:25:27.000Z</time>
      </trkpt>
      <trkpt lat="52.52329797483981" lon="73.22422220371664">
        <ele>178.2</ele>
        <time>2026-07-10T13:25:42.000Z</time>
      </trkpt>
      <trkpt lat="52.523608691990376" lon="73.22600696235895">
        <ele>178.2</ele>
        <time>2026-07-10T13:25:53.000Z</time>
      </trkpt>
      <trkpt lat="52.52406181767583" lon="73.22863058187068">
        <ele>176.8</ele>
        <time>2026-07-10T13:26:09.000Z</time>
      </trkpt>
      <trkpt lat="52.52455232664943" lon="73.2312816940248">
        <ele>177</ele>
        <time>2026-07-10T13:26:25.000Z</time>
      </trkpt>
      <trkpt lat="52.52515532076359" lon="73.23390942066908">
        <ele>176</ele>
        <time>2026-07-10T13:26:41.000Z</time>
      </trkpt>
      <trkpt lat="52.525742473080754" lon="73.23653899133205">
        <ele>175.6</ele>
        <time>2026-07-10T13:26:57.000Z</time>
      </trkpt>
      <trkpt lat="52.526426604017615" lon="73.23958095163107">
        <ele>178.2</ele>
        <time>2026-07-10T13:27:14.000Z</time>
      </trkpt>
      <trkpt lat="52.52704678103328" lon="73.242382183671">
        <ele>176</ele>
        <time>2026-07-10T13:27:30.000Z</time>
      </trkpt>
      <trkpt lat="52.52762203104794" lon="73.24505550786853">
        <ele>175.8</ele>
        <time>2026-07-10T13:27:46.000Z</time>
      </trkpt>
      <trkpt lat="52.52799636684358" lon="73.24667899869382">
        <ele>173.8</ele>
        <time>2026-07-10T13:27:57.000Z</time>
      </trkpt>
      <trkpt lat="52.528510596603155" lon="73.24900573119521">
        <ele>173.6</ele>
        <time>2026-07-10T13:28:12.000Z</time>
      </trkpt>
      <trkpt lat="52.52914007753134" lon="73.25076148845255">
        <ele>173.8</ele>
        <time>2026-07-10T13:28:24.000Z</time>
      </trkpt>
      <trkpt lat="52.52985421568155" lon="73.2524755038321">
        <ele>173.4</ele>
        <time>2026-07-10T13:28:37.000Z</time>
      </trkpt>
      <trkpt lat="52.530566677451134" lon="73.25409329496324">
        <ele>173.2</ele>
        <time>2026-07-10T13:28:50.000Z</time>
      </trkpt>
      <trkpt lat="52.53158759325743" lon="73.25652597472072">
        <ele>171</ele>
        <time>2026-07-10T13:29:06.000Z</time>
      </trkpt>
      <trkpt lat="52.53262200392783" lon="73.25900643132627">
        <ele>172</ele>
        <time>2026-07-10T13:29:23.000Z</time>
      </trkpt>
      <trkpt lat="52.53364861942828" lon="73.26148219406605">
        <ele>170.6</ele>
        <time>2026-07-10T13:29:39.000Z</time>
      </trkpt>
      <trkpt lat="52.534756287932396" lon="73.26418653130531">
        <ele>171.4</ele>
        <time>2026-07-10T13:29:55.000Z</time>
      </trkpt>
      <trkpt lat="52.53592187538743" lon="73.26697560958564">
        <ele>169.4</ele>
        <time>2026-07-10T13:30:11.000Z</time>
      </trkpt>
      <trkpt lat="52.53680105321109" lon="73.26921089552343">
        <ele>167.2</ele>
        <time>2026-07-10T13:30:24.000Z</time>
      </trkpt>
      <trkpt lat="52.53766489215195" lon="73.27177475206554">
        <ele>163.6</ele>
        <time>2026-07-10T13:30:39.000Z</time>
      </trkpt>
      <trkpt lat="52.538462430238724" lon="73.27417440712452">
        <ele>162.4</ele>
        <time>2026-07-10T13:30:55.000Z</time>
      </trkpt>
      <trkpt lat="52.53926357254386" lon="73.27616536058486">
        <ele>162.4</ele>
        <time>2026-07-10T13:31:09.000Z</time>
      </trkpt>
      <trkpt lat="52.539875619113445" lon="73.27766421250999">
        <ele>162.6</ele>
        <time>2026-07-10T13:31:21.000Z</time>
      </trkpt>
      <trkpt lat="52.54052471369505" lon="73.27928426675498">
        <ele>163.4</ele>
        <time>2026-07-10T13:31:32.000Z</time>
      </trkpt>
      <trkpt lat="52.54113248549402" lon="73.28060542233288">
        <ele>163.2</ele>
        <time>2026-07-10T13:31:42.000Z</time>
      </trkpt>
      <trkpt lat="52.54178409464657" lon="73.28195566311479">
        <ele>162.6</ele>
        <time>2026-07-10T13:31:53.000Z</time>
      </trkpt>
      <trkpt lat="52.5428463332355" lon="73.28494406305254">
        <ele>161.4</ele>
        <time>2026-07-10T13:32:09.000Z</time>
      </trkpt>
      <trkpt lat="52.54378099925816" lon="73.28772777691483">
        <ele>159.8</ele>
        <time>2026-07-10T13:32:25.000Z</time>
      </trkpt>
      <trkpt lat="52.5446802098304" lon="73.29044351354241">
        <ele>159</ele>
        <time>2026-07-10T13:32:41.000Z</time>
      </trkpt>
      <trkpt lat="52.54568452946842" lon="73.29339880496264">
        <ele>160</ele>
        <time>2026-07-10T13:32:57.000Z</time>
      </trkpt>
      <trkpt lat="52.5465090572834" lon="73.29598177224398">
        <ele>157.6</ele>
        <time>2026-07-10T13:33:11.000Z</time>
      </trkpt>
      <trkpt lat="52.54706217907369" lon="73.29755555838346">
        <ele>157.2</ele>
        <time>2026-07-10T13:33:21.000Z</time>
      </trkpt>
      <trkpt lat="52.54786332137883" lon="73.30017750151455">
        <ele>156.8</ele>
        <time>2026-07-10T13:33:36.000Z</time>
      </trkpt>
      <trkpt lat="52.548381658270955" lon="73.30196930095553">
        <ele>155.6</ele>
        <time>2026-07-10T13:33:48.000Z</time>
      </trkpt>
      <trkpt lat="52.54887728020549" lon="73.30342959612608">
        <ele>155.2</ele>
        <time>2026-07-10T13:34:00.000Z</time>
      </trkpt>
      <trkpt lat="52.549632489681244" lon="73.30600736662745">
        <ele>156.6</ele>
        <time>2026-07-10T13:34:17.000Z</time>
      </trkpt>
      <trkpt lat="52.54993977025151" lon="73.30733740702271">
        <ele>156.6</ele>
        <time>2026-07-10T13:34:24.000Z</time>
      </trkpt>
      <trkpt lat="52.55072825588286" lon="73.31002263352275">
        <ele>158</ele>
        <time>2026-07-10T13:34:40.000Z</time>
      </trkpt>
      <trkpt lat="52.55154758691788" lon="73.31288228742778">
        <ele>158.4</ele>
        <time>2026-07-10T13:34:56.000Z</time>
      </trkpt>
      <trkpt lat="52.55233833566308" lon="73.31564630381763">
        <ele>158.2</ele>
        <time>2026-07-10T13:35:12.000Z</time>
      </trkpt>
      <trkpt lat="52.552665900439024" lon="73.31701640971005">
        <ele>158</ele>
        <time>2026-07-10T13:35:20.000Z</time>
      </trkpt>
      <trkpt lat="52.553235702216625" lon="73.31893125548959">
        <ele>159</ele>
        <time>2026-07-10T13:35:32.000Z</time>
      </trkpt>
      <trkpt lat="52.5540950987488" lon="73.32192652858794">
        <ele>159</ele>
        <time>2026-07-10T13:35:48.000Z</time>
      </trkpt>
      <trkpt lat="52.55477990023792" lon="73.32423347979784">
        <ele>159.6</ele>
        <time>2026-07-10T13:36:02.000Z</time>
      </trkpt>
      <trkpt lat="52.555587999522686" lon="73.32699749618769">
        <ele>160</ele>
        <time>2026-07-10T13:36:18.000Z</time>
      </trkpt>
      <trkpt lat="52.55624388344586" lon="73.32943285815418">
        <ele>157.8</ele>
        <time>2026-07-10T13:36:34.000Z</time>
      </trkpt>
      <trkpt lat="52.55671779625118" lon="73.33113287575543">
        <ele>157.4</ele>
        <time>2026-07-10T13:36:44.000Z</time>
      </trkpt>
      <trkpt lat="52.557332357391715" lon="73.33313749171793">
        <ele>156.8</ele>
        <time>2026-07-10T13:36:58.000Z</time>
      </trkpt>
      <trkpt lat="52.55788371898234" lon="73.33512953482568">
        <ele>156.2</ele>
        <time>2026-07-10T13:37:11.000Z</time>
      </trkpt>
      <trkpt lat="52.55864613689482" lon="73.33806169219315">
        <ele>158.4</ele>
        <time>2026-07-10T13:37:27.000Z</time>
      </trkpt>
      <trkpt lat="52.55934418179095" lon="73.34077969193459">
        <ele>157.6</ele>
        <time>2026-07-10T13:37:43.000Z</time>
      </trkpt>
      <trkpt lat="52.560134679079056" lon="73.34365183487535">
        <ele>158</ele>
        <time>2026-07-10T13:37:59.000Z</time>
      </trkpt>
      <trkpt lat="52.560765920206904" lon="73.34635977633297">
        <ele>158.4</ele>
        <time>2026-07-10T13:38:15.000Z</time>
      </trkpt>
      <trkpt lat="52.56151777692139" lon="73.34931196644902">
        <ele>158.4</ele>
        <time>2026-07-10T13:38:31.000Z</time>
      </trkpt>
      <trkpt lat="52.56201406940818" lon="73.35112069733441">
        <ele>159.2</ele>
        <time>2026-07-10T13:38:44.000Z</time>
      </trkpt>
      <trkpt lat="52.56218028254807" lon="73.35208386182785">
        <ele>160.2</ele>
        <time>2026-07-10T13:38:51.000Z</time>
      </trkpt>
      <trkpt lat="52.562689734622836" lon="73.35360341705382">
        <ele>160.8</ele>
        <time>2026-07-10T13:39:03.000Z</time>
      </trkpt>
      <trkpt lat="52.56318527273834" lon="73.35543419234455">
        <ele>160.4</ele>
        <time>2026-07-10T13:39:19.000Z</time>
      </trkpt>
      <trkpt lat="52.56357100792229" lon="73.35683832876384">
        <ele>160.2</ele>
        <time>2026-07-10T13:39:34.000Z</time>
      </trkpt>
      <trkpt lat="52.56399152800441" lon="73.35833122953773">
        <ele>160.6</ele>
        <time>2026-07-10T13:39:50.000Z</time>
      </trkpt>
      <trkpt lat="52.56450852379203" lon="73.36032721213996">
        <ele>160.6</ele>
        <time>2026-07-10T13:40:06.000Z</time>
      </trkpt>
      <trkpt lat="52.56492929533124" lon="73.36195439100266">
        <ele>160.8</ele>
        <time>2026-07-10T13:40:21.000Z</time>
      </trkpt>
      <trkpt lat="52.56514186039567" lon="73.36265997961164">
        <ele>160.6</ele>
        <time>2026-07-10T13:40:28.000Z</time>
      </trkpt>
      <trkpt lat="52.56545810960233" lon="73.36370067670941">
        <ele>159.6</ele>
        <time>2026-07-10T13:40:38.000Z</time>
      </trkpt>
      <trkpt lat="52.565831104293466" lon="73.36512057110667">
        <ele>161.2</ele>
        <time>2026-07-10T13:40:50.000Z</time>
      </trkpt>
      <trkpt lat="52.566165793687105" lon="73.3664161618799">
        <ele>162.4</ele>
        <time>2026-07-10T13:41:00.000Z</time>
      </trkpt>
      <trkpt lat="52.5666029099375" lon="73.36802431382239">
        <ele>163</ele>
        <time>2026-07-10T13:41:13.000Z</time>
      </trkpt>
      <trkpt lat="52.56717145442963" lon="73.37027569301426">
        <ele>163.8</ele>
        <time>2026-07-10T13:41:29.000Z</time>
      </trkpt>
      <trkpt lat="52.56767529062927" lon="73.37243361398578">
        <ele>164.2</ele>
        <time>2026-07-10T13:41:43.000Z</time>
      </trkpt>
      <trkpt lat="52.56812397390604" lon="73.37401217781007">
        <ele>164</ele>
        <time>2026-07-10T13:41:54.000Z</time>
      </trkpt>
      <trkpt lat="52.56852596998215" lon="73.37514189071953">
        <ele>164.4</ele>
        <time>2026-07-10T13:42:02.000Z</time>
      </trkpt>
      <trkpt lat="52.56889016367495" lon="73.37649271823466">
        <ele>163.6</ele>
        <time>2026-07-10T13:42:11.000Z</time>
      </trkpt>
      <trkpt lat="52.56930942647159" lon="73.37810380384326">
        <ele>163</ele>
        <time>2026-07-10T13:42:27.000Z</time>
      </trkpt>
      <trkpt lat="52.56965476088226" lon="73.3792654518038">
        <ele>164.8</ele>
        <time>2026-07-10T13:42:35.000Z</time>
      </trkpt>
      <trkpt lat="52.57019036449492" lon="73.38096907362342">
        <ele>164.8</ele>
        <time>2026-07-10T13:42:47.000Z</time>
      </trkpt>
      <trkpt lat="52.57072873413563" lon="73.38302976451814">
        <ele>163.8</ele>
        <time>2026-07-10T13:43:03.000Z</time>
      </trkpt>
      <trkpt lat="52.57112452760339" lon="73.38466591201723">
        <ele>163.8</ele>
        <time>2026-07-10T13:43:15.000Z</time>
      </trkpt>
      <trkpt lat="52.57164780981839" lon="73.38663021102548">
        <ele>164.2</ele>
        <time>2026-07-10T13:43:28.000Z</time>
      </trkpt>
      <trkpt lat="52.57207947783172" lon="73.388378508389">
        <ele>165</ele>
        <time>2026-07-10T13:43:40.000Z</time>
      </trkpt>
      <trkpt lat="52.57267761044204" lon="73.39051648043096">
        <ele>164.6</ele>
        <time>2026-07-10T13:43:54.000Z</time>
      </trkpt>
      <trkpt lat="52.5732081849128" lon="73.39236016385257">
        <ele>163.8</ele>
        <time>2026-07-10T13:44:09.000Z</time>
      </trkpt>
      <trkpt lat="52.57371939718723" lon="73.39472469873726">
        <ele>167</ele>
        <time>2026-07-10T13:44:25.000Z</time>
      </trkpt>
      <trkpt lat="52.57405542768538" lon="73.39581820182502">
        <ele>164.8</ele>
        <time>2026-07-10T13:44:32.000Z</time>
      </trkpt>
      <trkpt lat="52.57445557974279" lon="73.39736851863563">
        <ele>162.8</ele>
        <time>2026-07-10T13:44:44.000Z</time>
      </trkpt>
      <trkpt lat="52.57478482089937" lon="73.3987326733768">
        <ele>162</ele>
        <time>2026-07-10T13:44:54.000Z</time>
      </trkpt>
      <trkpt lat="52.57536459714174" lon="73.40059379115701">
        <ele>163.8</ele>
        <time>2026-07-10T13:45:07.000Z</time>
      </trkpt>
      <trkpt lat="52.57585292682052" lon="73.40201728977263">
        <ele>163.4</ele>
        <time>2026-07-10T13:45:17.000Z</time>
      </trkpt>
      <trkpt lat="52.57608770392835" lon="73.40308271348476">
        <ele>162</ele>
        <time>2026-07-10T13:45:25.000Z</time>
      </trkpt>
      <trkpt lat="52.576726488769054" lon="73.40505472384393">
        <ele>161.4</ele>
        <time>2026-07-10T13:45:41.000Z</time>
      </trkpt>
      <trkpt lat="52.5769710727036" lon="73.40590632520616">
        <ele>162.4</ele>
        <time>2026-07-10T13:45:49.000Z</time>
      </trkpt>
      <trkpt lat="52.577735586091876" lon="73.40802250429988">
        <ele>160.8</ele>
        <time>2026-07-10T13:46:06.000Z</time>
      </trkpt>
      <trkpt lat="52.57822098210454" lon="73.40905456803739">
        <ele>160</ele>
        <time>2026-07-10T13:46:15.000Z</time>
      </trkpt>
      <trkpt lat="52.57885130122304" lon="73.41075492091477">
        <ele>161.6</ele>
        <time>2026-07-10T13:46:29.000Z</time>
      </trkpt>
      <trkpt lat="52.57929998449981" lon="73.41181590221822">
        <ele>161.6</ele>
        <time>2026-07-10T13:46:38.000Z</time>
      </trkpt>
      <trkpt lat="52.57987263612449" lon="73.41326513327658">
        <ele>160.8</ele>
        <time>2026-07-10T13:46:50.000Z</time>
      </trkpt>
      <trkpt lat="52.58028041571379" lon="73.41442736797035">
        <ele>161</ele>
        <time>2026-07-10T13:46:58.000Z</time>
      </trkpt>
      <trkpt lat="52.58077846840024" lon="73.41612973250449">
        <ele>160.4</ele>
        <time>2026-07-10T13:47:10.000Z</time>
      </trkpt>
      <trkpt lat="52.58108742535114" lon="73.41702651232481">
        <ele>158.8</ele>
        <time>2026-07-10T13:47:19.000Z</time>
      </trkpt>
      <trkpt lat="52.58176350966096" lon="73.41881370171905">
        <ele>157</ele>
        <time>2026-07-10T13:47:35.000Z</time>
      </trkpt>
      <trkpt lat="52.58210272528231" lon="73.41970763169229">
        <ele>156.6</ele>
        <time>2026-07-10T13:47:45.000Z</time>
      </trkpt>
      <trkpt lat="52.58270177990198" lon="73.42088880948722">
        <ele>153.6</ele>
        <time>2026-07-10T13:48:01.000Z</time>
      </trkpt>
      <trkpt lat="52.582864221185446" lon="73.42150236479938">
        <ele>153</ele>
        <time>2026-07-10T13:48:08.000Z</time>
      </trkpt>
      <trkpt lat="52.583363531157374" lon="73.42248388566077">
        <ele>152.8</ele>
        <time>2026-07-10T13:48:19.000Z</time>
      </trkpt>
      <trkpt lat="52.5842153839767" lon="73.42385365627706">
        <ele>151.4</ele>
        <time>2026-07-10T13:48:36.000Z</time>
      </trkpt>
      <trkpt lat="52.58497671224177" lon="73.42504715546966">
        <ele>151.8</ele>
        <time>2026-07-10T13:48:51.000Z</time>
      </trkpt>
      <trkpt lat="52.58556252345443" lon="73.42602171935141">
        <ele>152</ele>
        <time>2026-07-10T13:49:02.000Z</time>
      </trkpt>
      <trkpt lat="52.586503559723496" lon="73.42737556435168">
        <ele>151</ele>
        <time>2026-07-10T13:49:16.000Z</time>
      </trkpt>
      <trkpt lat="52.587116779759526" lon="73.42839798890054">
        <ele>151</ele>
        <time>2026-07-10T13:49:26.000Z</time>
      </trkpt>
      <trkpt lat="52.587979109957814" lon="73.4297970123589">
        <ele>151</ele>
        <time>2026-07-10T13:49:39.000Z</time>
      </trkpt>
      <trkpt lat="52.58908560499549" lon="73.43158872798085">
        <ele>149.2</ele>
        <time>2026-07-10T13:49:54.000Z</time>
      </trkpt>
      <trkpt lat="52.59038899093866" lon="73.43347859568894">
        <ele>148</ele>
        <time>2026-07-10T13:50:10.000Z</time>
      </trkpt>
      <trkpt lat="52.591552734375" lon="73.43520987778902">
        <ele>144.6</ele>
        <time>2026-07-10T13:50:25.000Z</time>
      </trkpt>
      <trkpt lat="52.59281479753554" lon="73.43714886344969">
        <ele>143</ele>
        <time>2026-07-10T13:50:41.000Z</time>
      </trkpt>
      <trkpt lat="52.594182221218944" lon="73.43928247690201">
        <ele>140.8</ele>
        <time>2026-07-10T13:50:58.000Z</time>
      </trkpt>
      <trkpt lat="52.59531612507999" lon="73.4410272538662">
        <ele>138</ele>
        <time>2026-07-10T13:51:14.000Z</time>
      </trkpt>
      <trkpt lat="52.59627006947994" lon="73.44251772388816">
        <ele>137.2</ele>
        <time>2026-07-10T13:51:29.000Z</time>
      </trkpt>
      <trkpt lat="52.59738586843014" lon="73.44425956718624">
        <ele>135.2</ele>
        <time>2026-07-10T13:51:45.000Z</time>
      </trkpt>
      <trkpt lat="52.598329335451126" lon="73.44575858674943">
        <ele>132.8</ele>
        <time>2026-07-10T13:52:01.000Z</time>
      </trkpt>
      <trkpt lat="52.59899636730552" lon="73.44683063216507">
        <ele>131</ele>
        <time>2026-07-10T13:52:17.000Z</time>
      </trkpt>
      <trkpt lat="52.59971427731216" lon="73.44801742583513">
        <ele>131</ele>
        <time>2026-07-10T13:52:32.000Z</time>
      </trkpt>
      <trkpt lat="52.60044668801129" lon="73.44934268854558">
        <ele>131.4</ele>
        <time>2026-07-10T13:52:44.000Z</time>
      </trkpt>
      <trkpt lat="52.601374899968505" lon="73.45075068064034">
        <ele>132</ele>
        <time>2026-07-10T13:52:57.000Z</time>
      </trkpt>
      <trkpt lat="52.60214662179351" lon="73.4519131667912">
        <ele>130</ele>
        <time>2026-07-10T13:53:11.000Z</time>
      </trkpt>
      <trkpt lat="52.60263729840517" lon="73.45254139043391">
        <ele>128.8</ele>
        <time>2026-07-10T13:53:20.000Z</time>
      </trkpt>
      <trkpt lat="52.60314071550965" lon="73.45345359295607">
        <ele>128.4</ele>
        <time>2026-07-10T13:53:32.000Z</time>
      </trkpt>
      <trkpt lat="52.60362267494202" lon="73.45410570502281">
        <ele>128.8</ele>
        <time>2026-07-10T13:53:43.000Z</time>
      </trkpt>
      <trkpt lat="52.6047252304852" lon="73.45585869625211">
        <ele>132.6</ele>
        <time>2026-07-10T13:53:59.000Z</time>
      </trkpt>
      <trkpt lat="52.60561857372522" lon="73.4572926722467">
        <ele>131.2</ele>
        <time>2026-07-10T13:54:11.000Z</time>
      </trkpt>
      <trkpt lat="52.60661702603102" lon="73.45866520889103">
        <ele>132.6</ele>
        <time>2026-07-10T13:54:24.000Z</time>
      </trkpt>
      <trkpt lat="52.60784891434014" lon="73.46061592921615">
        <ele>132.2</ele>
        <time>2026-07-10T13:54:40.000Z</time>
      </trkpt>
      <trkpt lat="52.608790369704366" lon="73.46209919080138">
        <ele>128.4</ele>
        <time>2026-07-10T13:54:56.000Z</time>
      </trkpt>
      <trkpt lat="52.609862918034196" lon="73.46373525448143">
        <ele>129.8</ele>
        <time>2026-07-10T13:55:10.000Z</time>
      </trkpt>
      <trkpt lat="52.61067520827055" lon="73.46508557908237">
        <ele>127.4</ele>
        <time>2026-07-10T13:55:22.000Z</time>
      </trkpt>
      <trkpt lat="52.61142170056701" lon="73.46632232889533">
        <ele>126</ele>
        <time>2026-07-10T13:55:35.000Z</time>
      </trkpt>
      <trkpt lat="52.61179746128619" lon="73.46711735241115">
        <ele>126.2</ele>
        <time>2026-07-10T13:55:42.000Z</time>
      </trkpt>
      <trkpt lat="52.612271793186665" lon="73.46779385581613">
        <ele>126</ele>
        <time>2026-07-10T13:55:50.000Z</time>
      </trkpt>
      <trkpt lat="52.61279205791652" lon="73.46866339445114">
        <ele>126</ele>
        <time>2026-07-10T13:55:58.000Z</time>
      </trkpt>
      <trkpt lat="52.61390618048608" lon="73.47051420249045">
        <ele>127</ele>
        <time>2026-07-10T13:56:13.000Z</time>
      </trkpt>
      <trkpt lat="52.614377830177546" lon="73.47121752798557">
        <ele>125.8</ele>
        <time>2026-07-10T13:56:20.000Z</time>
      </trkpt>
      <trkpt lat="52.615072606131434" lon="73.4725282061845">
        <ele>123.6</ele>
        <time>2026-07-10T13:56:34.000Z</time>
      </trkpt>
      <trkpt lat="52.61598506011069" lon="73.47399487160146">
        <ele>124.4</ele>
        <time>2026-07-10T13:56:50.000Z</time>
      </trkpt>
      <trkpt lat="52.61661797761917" lon="73.47542926669121">
        <ele>124.2</ele>
        <time>2026-07-10T13:57:01.000Z</time>
      </trkpt>
      <trkpt lat="52.6168582867831" lon="73.47605145536363">
        <ele>123</ele>
        <time>2026-07-10T13:57:09.000Z</time>
      </trkpt>
      <trkpt lat="52.617674600332975" lon="73.47702945582569">
        <ele>123.6</ele>
        <time>2026-07-10T13:57:20.000Z</time>
      </trkpt>
      <trkpt lat="52.61810568161309" lon="73.47770285792649">
        <ele>123.2</ele>
        <time>2026-07-10T13:57:28.000Z</time>
      </trkpt>
      <trkpt lat="52.61887446977198" lon="73.47865135408938">
        <ele>123.8</ele>
        <time>2026-07-10T13:57:40.000Z</time>
      </trkpt>
      <trkpt lat="52.61994492262602" lon="73.47916751168668">
        <ele>125.2</ele>
        <time>2026-07-10T13:57:50.000Z</time>
      </trkpt>
      <trkpt lat="52.62085871770978" lon="73.4799038618803">
        <ele>125.4</ele>
        <time>2026-07-10T13:58:00.000Z</time>
      </trkpt>
      <trkpt lat="52.62183353304863" lon="73.48114932887256">
        <ele>124.2</ele>
        <time>2026-07-10T13:58:10.000Z</time>
      </trkpt>
      <trkpt lat="52.62249897234142" lon="73.48201551474631">
        <ele>124.6</ele>
        <time>2026-07-10T13:58:18.000Z</time>
      </trkpt>
      <trkpt lat="52.62284941971302" lon="73.48339802585542">
        <ele>125.2</ele>
        <time>2026-07-10T13:58:27.000Z</time>
      </trkpt>
      <trkpt lat="52.62365458533168" lon="73.48587186075747">
        <ele>126.4</ele>
        <time>2026-07-10T13:58:41.000Z</time>
      </trkpt>
      <trkpt lat="52.62418138794601" lon="73.48749099299312">
        <ele>126.2</ele>
        <time>2026-07-10T13:58:51.000Z</time>
      </trkpt>
      <trkpt lat="52.62464398518205" lon="73.48836782388389">
        <ele>125.6</ele>
        <time>2026-07-10T13:58:58.000Z</time>
      </trkpt>
      <trkpt lat="52.625044053420424" lon="73.48945520818233">
        <ele>125.4</ele>
        <time>2026-07-10T13:59:07.000Z</time>
      </trkpt>
      <trkpt lat="52.62581082992256" lon="73.49050638265908">
        <ele>126.8</ele>
        <time>2026-07-10T13:59:17.000Z</time>
      </trkpt>
      <trkpt lat="52.62691087089479" lon="73.4920850303024">
        <ele>128.2</ele>
        <time>2026-07-10T13:59:29.000Z</time>
      </trkpt>
      <trkpt lat="52.62763439677656" lon="73.4930678922683">
        <ele>125.6</ele>
        <time>2026-07-10T13:59:38.000Z</time>
      </trkpt>
      <trkpt lat="52.628109231591225" lon="73.49353526718915">
        <ele>124.6</ele>
        <time>2026-07-10T13:59:45.000Z</time>
      </trkpt>
      <trkpt lat="52.629090417176485" lon="73.49573291838169">
        <ele>125.8</ele>
        <time>2026-07-10T14:00:01.000Z</time>
      </trkpt>
      <trkpt lat="52.62973406352103" lon="73.49732799455523">
        <ele>124</ele>
        <time>2026-07-10T14:00:13.000Z</time>
      </trkpt>
      <trkpt lat="52.63035675510764" lon="73.499526232481">
        <ele>123.4</ele>
        <time>2026-07-10T14:00:30.000Z</time>
      </trkpt>
      <trkpt lat="52.631038120016456" lon="73.50132700055838">
        <ele>123.4</ele>
        <time>2026-07-10T14:00:44.000Z</time>
      </trkpt>
      <trkpt lat="52.631794922053814" lon="73.5025966912508">
        <ele>122.8</ele>
        <time>2026-07-10T14:00:56.000Z</time>
      </trkpt>
      <trkpt lat="52.6324690785259" lon="73.50300690159202">
        <ele>123.4</ele>
        <time>2026-07-10T14:01:04.000Z</time>
      </trkpt>
      <trkpt lat="52.632664712145925" lon="73.50342105142772">
        <ele>122.6</ele>
        <time>2026-07-10T14:01:09.000Z</time>
      </trkpt>
      <trkpt lat="52.632884653285146" lon="73.50465930998325">
        <ele>123.2</ele>
        <time>2026-07-10T14:01:17.000Z</time>
      </trkpt>
      <trkpt lat="52.63285716064274" lon="73.50562649779022">
        <ele>122.6</ele>
        <time>2026-07-10T14:01:24.000Z</time>
      </trkpt>
      <trkpt lat="52.63262649066746" lon="73.50625019520521">
        <ele>118.4</ele>
        <time>2026-07-10T14:01:34.000Z</time>
      </trkpt>
      <trkpt lat="52.63256287202239" lon="73.50705158896744">
        <ele>117.4</ele>
        <time>2026-07-10T14:01:45.000Z</time>
      </trkpt>
      <trkpt lat="52.63250327669084" lon="73.50751678459346">
        <ele>119.6</ele>
        <time>2026-07-10T14:01:50.000Z</time>
      </trkpt>
      <trkpt lat="52.63249849900603" lon="73.50765248760581">
        <ele>120.2</ele>
        <time>2026-07-10T14:01:52.000Z</time>
      </trkpt>
      <trkpt lat="52.632641326636076" lon="73.50819395855069">
        <ele>121.8</ele>
        <time>2026-07-10T14:02:01.000Z</time>
      </trkpt>
      <trkpt lat="52.63298858888447" lon="73.5095027089119">
        <ele>122.8</ele>
        <time>2026-07-10T14:02:15.000Z</time>
      </trkpt>
      <trkpt lat="52.63360750861466" lon="73.51141076534986">
        <ele>124.2</ele>
        <time>2026-07-10T14:02:29.000Z</time>
      </trkpt>
      <trkpt lat="52.63435031287372" lon="73.51356097497046">
        <ele>123.2</ele>
        <time>2026-07-10T14:02:46.000Z</time>
      </trkpt>
      <trkpt lat="52.63497618958354" lon="73.51493585854769">
        <ele>123.4</ele>
        <time>2026-07-10T14:02:57.000Z</time>
      </trkpt>
      <trkpt lat="52.63583952561021" lon="73.51678566075861">
        <ele>123.6</ele>
        <time>2026-07-10T14:03:11.000Z</time>
      </trkpt>
      <trkpt lat="52.63676497153938" lon="73.51874912157655">
        <ele>124.8</ele>
        <time>2026-07-10T14:03:26.000Z</time>
      </trkpt>
      <trkpt lat="52.63767239637673" lon="73.52084241807461">
        <ele>123</ele>
        <time>2026-07-10T14:03:42.000Z</time>
      </trkpt>
      <trkpt lat="52.638695910573006" lon="73.52298265323043">
        <ele>122.8</ele>
        <time>2026-07-10T14:03:58.000Z</time>
      </trkpt>
      <trkpt lat="52.639728812500834" lon="73.52506320923567">
        <ele>123.6</ele>
        <time>2026-07-10T14:04:14.000Z</time>
      </trkpt>
      <trkpt lat="52.64072089456022" lon="73.52708467282355">
        <ele>121.6</ele>
        <time>2026-07-10T14:04:30.000Z</time>
      </trkpt>
      <trkpt lat="52.64173066243529" lon="73.52903036400676">
        <ele>122.8</ele>
        <time>2026-07-10T14:04:46.000Z</time>
      </trkpt>
      <trkpt lat="52.6423348300159" lon="73.53009411133826">
        <ele>122.4</ele>
        <time>2026-07-10T14:04:56.000Z</time>
      </trkpt>
      <trkpt lat="52.64313831925392" lon="73.531832434237">
        <ele>121.2</ele>
        <time>2026-07-10T14:05:12.000Z</time>
      </trkpt>
      <trkpt lat="52.644252106547356" lon="73.53387426584959">
        <ele>121.4</ele>
        <time>2026-07-10T14:05:28.000Z</time>
      </trkpt>
      <trkpt lat="52.64508945867419" lon="73.53566698729992">
        <ele>122.8</ele>
        <time>2026-07-10T14:05:43.000Z</time>
      </trkpt>
      <trkpt lat="52.645898312330246" lon="73.53728486225009">
        <ele>124</ele>
        <time>2026-07-10T14:05:57.000Z</time>
      </trkpt>
      <trkpt lat="52.64670808799565" lon="73.53939735330641">
        <ele>122.4</ele>
        <time>2026-07-10T14:06:13.000Z</time>
      </trkpt>
      <trkpt lat="52.647517528384924" lon="73.54153071530163">
        <ele>121.8</ele>
        <time>2026-07-10T14:06:29.000Z</time>
      </trkpt>
      <trkpt lat="52.64817441813648" lon="73.54366902261972">
        <ele>120.2</ele>
        <time>2026-07-10T14:06:45.000Z</time>
      </trkpt>
      <trkpt lat="52.64868420548737" lon="73.544687256217">
        <ele>119.8</ele>
        <time>2026-07-10T14:06:55.000Z</time>
      </trkpt>
      <trkpt lat="52.64931737445295" lon="73.5462520737201">
        <ele>120.2</ele>
        <time>2026-07-10T14:07:08.000Z</time>
      </trkpt>
      <trkpt lat="52.6498553249985" lon="73.54754146188498">
        <ele>119.8</ele>
        <time>2026-07-10T14:07:19.000Z</time>
      </trkpt>
      <trkpt lat="52.650697035714984" lon="73.54972729459405">
        <ele>119.8</ele>
        <time>2026-07-10T14:07:36.000Z</time>
      </trkpt>
      <trkpt lat="52.65137596987188" lon="73.55153032578528">
        <ele>119.2</ele>
        <time>2026-07-10T14:07:50.000Z</time>
      </trkpt>
      <trkpt lat="52.65215632505715" lon="73.55331357568502">
        <ele>120.4</ele>
        <time>2026-07-10T14:08:04.000Z</time>
      </trkpt>
      <trkpt lat="52.65303449705243" lon="73.55490731075406">
        <ele>119.4</ele>
        <time>2026-07-10T14:08:18.000Z</time>
      </trkpt>
      <trkpt lat="52.65389800071716" lon="73.55626660399139">
        <ele>119</ele>
        <time>2026-07-10T14:08:31.000Z</time>
      </trkpt>
      <trkpt lat="52.65463527292013" lon="73.55726103298366">
        <ele>119.4</ele>
        <time>2026-07-10T14:08:41.000Z</time>
      </trkpt>
      <trkpt lat="52.655734391883016" lon="73.55913522653282">
        <ele>119</ele>
        <time>2026-07-10T14:08:57.000Z</time>
      </trkpt>
      <trkpt lat="52.6568678766489" lon="73.56110815890133">
        <ele>121</ele>
        <time>2026-07-10T14:09:13.000Z</time>
      </trkpt>
      <trkpt lat="52.65779918991029" lon="73.56297506019473">
        <ele>121.2</ele>
        <time>2026-07-10T14:09:28.000Z</time>
      </trkpt>
      <trkpt lat="52.658673506230116" lon="73.56415037065744">
        <ele>119.4</ele>
        <time>2026-07-10T14:09:40.000Z</time>
      </trkpt>
      <trkpt lat="52.65911397524178" lon="73.56479309499264">
        <ele>119.4</ele>
        <time>2026-07-10T14:09:47.000Z</time>
      </trkpt>
      <trkpt lat="52.65925521031022" lon="73.56556171551347">
        <ele>118.4</ele>
        <time>2026-07-10T14:09:55.000Z</time>
      </trkpt>
      <trkpt lat="52.65962149947882" lon="73.56641583144665">
        <ele>119.8</ele>
        <time>2026-07-10T14:10:04.000Z</time>
      </trkpt>
      <trkpt lat="52.66057351604104" lon="73.56824585236609">
        <ele>118.4</ele>
        <time>2026-07-10T14:10:18.000Z</time>
      </trkpt>
      <trkpt lat="52.661319421604276" lon="73.56961637735367">
        <ele>117.2</ele>
        <time>2026-07-10T14:10:33.000Z</time>
      </trkpt>
      <trkpt lat="52.66186902299523" lon="73.57025558128953">
        <ele>117.6</ele>
        <time>2026-07-10T14:10:41.000Z</time>
      </trkpt>
      <trkpt lat="52.66305539757013" lon="73.57115160673857">
        <ele>116.8</ele>
        <time>2026-07-10T14:10:56.000Z</time>
      </trkpt>
      <trkpt lat="52.66379560343921" lon="73.57235918752849">
        <ele>118.4</ele>
        <time>2026-07-10T14:11:07.000Z</time>
      </trkpt>
      <trkpt lat="52.664628429338336" lon="73.57397337444127">
        <ele>119</ele>
        <time>2026-07-10T14:11:20.000Z</time>
      </trkpt>
      <trkpt lat="52.66505473293364" lon="73.57460679486394">
        <ele>119.2</ele>
        <time>2026-07-10T14:11:26.000Z</time>
      </trkpt>
      <trkpt lat="52.66612610779703" lon="73.57575989328325">
        <ele>117.6</ele>
        <time>2026-07-10T14:11:39.000Z</time>
      </trkpt>
      <trkpt lat="52.66743888147175" lon="73.5769730899483">
        <ele>117.4</ele>
        <time>2026-07-10T14:11:55.000Z</time>
      </trkpt>
      <trkpt lat="52.66885315999389" lon="73.57818930409849">
        <ele>117.8</ele>
        <time>2026-07-10T14:12:12.000Z</time>
      </trkpt>
      <trkpt lat="52.669950099661946" lon="73.5792123991996">
        <ele>121.6</ele>
        <time>2026-07-10T14:12:25.000Z</time>
      </trkpt>
      <trkpt lat="52.6712613645941" lon="73.58087905682623">
        <ele>119.4</ele>
        <time>2026-07-10T14:12:41.000Z</time>
      </trkpt>
      <trkpt lat="52.67224632203579" lon="73.58241361565888">
        <ele>119.6</ele>
        <time>2026-07-10T14:12:55.000Z</time>
      </trkpt>
      <trkpt lat="52.67302072606981" lon="73.58409628272057">
        <ele>117.8</ele>
        <time>2026-07-10T14:13:10.000Z</time>
      </trkpt>
      <trkpt lat="52.67394986003637" lon="73.58603090979159">
        <ele>117.4</ele>
        <time>2026-07-10T14:13:26.000Z</time>
      </trkpt>
      <trkpt lat="52.674405332654715" lon="73.58700790442526">
        <ele>117.8</ele>
        <time>2026-07-10T14:13:34.000Z</time>
      </trkpt>
      <trkpt lat="52.674548076465726" lon="73.58805337920785">
        <ele>117.8</ele>
        <time>2026-07-10T14:13:41.000Z</time>
      </trkpt>
      <trkpt lat="52.674914030358195" lon="73.58900975435972">
        <ele>118.6</ele>
        <time>2026-07-10T14:13:48.000Z</time>
      </trkpt>
      <trkpt lat="52.6756202057004" lon="73.59025212004781">
        <ele>118</ele>
        <time>2026-07-10T14:13:59.000Z</time>
      </trkpt>
      <trkpt lat="52.676064698025584" lon="73.59160479158163">
        <ele>117.2</ele>
        <time>2026-07-10T14:14:09.000Z</time>
      </trkpt>
      <trkpt lat="52.67676131799817" lon="73.59314588829875">
        <ele>117</ele>
        <time>2026-07-10T14:14:22.000Z</time>
      </trkpt>
      <trkpt lat="52.67788792960346" lon="73.59533943235874">
        <ele>117</ele>
        <time>2026-07-10T14:14:39.000Z</time>
      </trkpt>
      <trkpt lat="52.67864741384983" lon="73.59678849577904">
        <ele>116</ele>
        <time>2026-07-10T14:14:50.000Z</time>
      </trkpt>
      <trkpt lat="52.6790670119226" lon="73.59788300469518">
        <ele>117</ele>
        <time>2026-07-10T14:14:58.000Z</time>
      </trkpt>
      <trkpt lat="52.68003017641604" lon="73.59978217631578">
        <ele>118.2</ele>
        <time>2026-07-10T14:15:14.000Z</time>
      </trkpt>
      <trkpt lat="52.68091312609613" lon="73.60107692889869">
        <ele>118.8</ele>
        <time>2026-07-10T14:15:28.000Z</time>
      </trkpt>
      <trkpt lat="52.68185282126069" lon="73.60253328457475">
        <ele>118.6</ele>
        <time>2026-07-10T14:15:43.000Z</time>
      </trkpt>
      <trkpt lat="52.68301606178284" lon="73.60413112677634">
        <ele>118.8</ele>
        <time>2026-07-10T14:15:59.000Z</time>
      </trkpt>
      <trkpt lat="52.68386992625892" lon="73.6046907864511">
        <ele>117.4</ele>
        <time>2026-07-10T14:16:10.000Z</time>
      </trkpt>
      <trkpt lat="52.68467215821147" lon="73.60525991767645">
        <ele>117</ele>
        <time>2026-07-10T14:16:20.000Z</time>
      </trkpt>
      <trkpt lat="52.685839254409075" lon="73.60660596750677">
        <ele>116.8</ele>
        <time>2026-07-10T14:16:36.000Z</time>
      </trkpt>
      <trkpt lat="52.686852123588324" lon="73.60822811722755">
        <ele>116.8</ele>
        <time>2026-07-10T14:16:50.000Z</time>
      </trkpt>
      <trkpt lat="52.68718170002103" lon="73.6090615298599">
        <ele>116.2</ele>
        <time>2026-07-10T14:16:56.000Z</time>
      </trkpt>
      <trkpt lat="52.687457632273436" lon="73.61054252833128">
        <ele>115.6</ele>
        <time>2026-07-10T14:17:07.000Z</time>
      </trkpt>
      <trkpt lat="52.68764605745673" lon="73.6113309301436">
        <ele>115</ele>
        <time>2026-07-10T14:17:13.000Z</time>
      </trkpt>
      <trkpt lat="52.688645431771874" lon="73.61364986747503">
        <ele>114.8</ele>
        <time>2026-07-10T14:17:29.000Z</time>
      </trkpt>
      <trkpt lat="52.689283629879355" lon="73.61517118290067">
        <ele>114</ele>
        <time>2026-07-10T14:17:41.000Z</time>
      </trkpt>
      <trkpt lat="52.68955268897116" lon="73.61632872372866">
        <ele>114.2</ele>
        <time>2026-07-10T14:17:51.000Z</time>
      </trkpt>
      <trkpt lat="52.689514216035604" lon="73.61704596318305">
        <ele>113.4</ele>
        <time>2026-07-10T14:17:57.000Z</time>
      </trkpt>
      <trkpt lat="52.6892673689872" lon="73.6179668828845">
        <ele>113.6</ele>
        <time>2026-07-10T14:18:04.000Z</time>
      </trkpt>
      <trkpt lat="52.68902479670942" lon="73.61878152005374">
        <ele>113.4</ele>
        <time>2026-07-10T14:18:11.000Z</time>
      </trkpt>
      <trkpt lat="52.68835826776922" lon="73.62007861956954">
        <ele>113.8</ele>
        <time>2026-07-10T14:18:25.000Z</time>
      </trkpt>
      <trkpt lat="52.68757715821266" lon="73.62180026248097">
        <ele>113.6</ele>
        <time>2026-07-10T14:18:38.000Z</time>
      </trkpt>
      <trkpt lat="52.686922531574965" lon="73.6226378660649">
        <ele>113</ele>
        <time>2026-07-10T14:18:47.000Z</time>
      </trkpt>
      <trkpt lat="52.686351891607046" lon="73.6233876273036">
        <ele>112</ele>
        <time>2026-07-10T14:18:58.000Z</time>
      </trkpt>
      <trkpt lat="52.686215015128255" lon="73.6240005120635">
        <ele>112.4</ele>
        <time>2026-07-10T14:19:04.000Z</time>
      </trkpt>
      <trkpt lat="52.685982920229435" lon="73.62445246428251">
        <ele>111.4</ele>
        <time>2026-07-10T14:19:13.000Z</time>
      </trkpt>
      <trkpt lat="52.68575510010123" lon="73.6250232718885">
        <ele>111.8</ele>
        <time>2026-07-10T14:19:28.000Z</time>
      </trkpt>
      <trkpt lat="52.68603363074362" lon="73.62577848136425">
        <ele>113.6</ele>
        <time>2026-07-10T14:19:41.000Z</time>
      </trkpt>
      <trkpt lat="52.68673402257264" lon="73.62685312516987">
        <ele>114.8</ele>
        <time>2026-07-10T14:19:53.000Z</time>
      </trkpt>
      <trkpt lat="52.68699897453189" lon="73.62760146148503">
        <ele>113.8</ele>
        <time>2026-07-10T14:20:01.000Z</time>
      </trkpt>
      <trkpt lat="52.68727641552687" lon="73.62852179445326">
        <ele>113.6</ele>
        <time>2026-07-10T14:20:09.000Z</time>
      </trkpt>
      <trkpt lat="52.687575817108154" lon="73.63049958832562">
        <ele>113.8</ele>
        <time>2026-07-10T14:20:25.000Z</time>
      </trkpt>
      <trkpt lat="52.68784370273352" lon="73.63256832584739">
        <ele>114</ele>
        <time>2026-07-10T14:20:41.000Z</time>
      </trkpt>
      <trkpt lat="52.68816095776856" lon="73.63452868536115">
        <ele>115.2</ele>
        <time>2026-07-10T14:20:57.000Z</time>
      </trkpt>
      <trkpt lat="52.68847863189876" lon="73.63650622777641">
        <ele>115.4</ele>
        <time>2026-07-10T14:21:13.000Z</time>
      </trkpt>
      <trkpt lat="52.68876093439758" lon="73.63840531557798">
        <ele>115.2</ele>
        <time>2026-07-10T14:21:29.000Z</time>
      </trkpt>
      <trkpt lat="52.689034854993224" lon="73.64035125821829">
        <ele>114.8</ele>
        <time>2026-07-10T14:21:46.000Z</time>
      </trkpt>
      <trkpt lat="52.689250353723764" lon="73.64231631159782">
        <ele>115</ele>
        <time>2026-07-10T14:22:02.000Z</time>
      </trkpt>
      <trkpt lat="52.689474653452635" lon="73.6441496014595">
        <ele>114.4</ele>
        <time>2026-07-10T14:22:16.000Z</time>
      </trkpt>
      <trkpt lat="52.68968436866999" lon="73.64487555809319">
        <ele>113.4</ele>
        <time>2026-07-10T14:22:32.000Z</time>
      </trkpt>
      <trkpt lat="52.69045835360885" lon="73.64644221961498">
        <ele>115.2</ele>
        <time>2026-07-10T14:22:48.000Z</time>
      </trkpt>
      <trkpt lat="52.69102295860648" lon="73.6479423288256">
        <ele>114.8</ele>
        <time>2026-07-10T14:23:00.000Z</time>
      </trkpt>
      <trkpt lat="52.69149921834469" lon="73.64940798841417">
        <ele>114.8</ele>
        <time>2026-07-10T14:23:12.000Z</time>
      </trkpt>
      <trkpt lat="52.69179929047823" lon="73.65035070106387">
        <ele>114.6</ele>
        <time>2026-07-10T14:23:21.000Z</time>
      </trkpt>
      <trkpt lat="52.69231050275266" lon="73.65227686241269">
        <ele>114.2</ele>
        <time>2026-07-10T14:23:35.000Z</time>
      </trkpt>
      <trkpt lat="52.692771926522255" lon="73.65397847257555">
        <ele>114.2</ele>
        <time>2026-07-10T14:23:48.000Z</time>
      </trkpt>
      <trkpt lat="52.69316227175295" lon="73.65562685765326">
        <ele>113.2</ele>
        <time>2026-07-10T14:24:03.000Z</time>
      </trkpt>
      <trkpt lat="52.69347181543708" lon="73.6573416274041">
        <ele>113</ele>
        <time>2026-07-10T14:24:20.000Z</time>
      </trkpt>
      <trkpt lat="52.69378940574825" lon="73.65899747237563">
        <ele>112.4</ele>
        <time>2026-07-10T14:24:36.000Z</time>
      </trkpt>
      <trkpt lat="52.694110265001655" lon="73.66038979031146">
        <ele>112.2</ele>
        <time>2026-07-10T14:24:52.000Z</time>
      </trkpt>
      <trkpt lat="52.69448862411082" lon="73.66170667111874">
        <ele>112.2</ele>
        <time>2026-07-10T14:25:06.000Z</time>
      </trkpt>
      <trkpt lat="52.69474041648209" lon="73.66257620975375">
        <ele>112.4</ele>
        <time>2026-07-10T14:25:16.000Z</time>
      </trkpt>
      <trkpt lat="52.69524207338691" lon="73.6635544616729">
        <ele>112.6</ele>
        <time>2026-07-10T14:25:28.000Z</time>
      </trkpt>
      <trkpt lat="52.69536579027772" lon="73.66422803141177">
        <ele>111.8</ele>
        <time>2026-07-10T14:25:36.000Z</time>
      </trkpt>
      <trkpt lat="52.69550560042262" lon="73.66498248651624">
        <ele>111.6</ele>
        <time>2026-07-10T14:25:48.000Z</time>
      </trkpt>
      <trkpt lat="52.69561842083931" lon="73.66549076512456">
        <ele>112</ele>
        <time>2026-07-10T14:25:58.000Z</time>
      </trkpt>
      <trkpt lat="52.69544675946236" lon="73.66585789248347">
        <ele>112.4</ele>
        <time>2026-07-10T14:26:03.000Z</time>
      </trkpt>
      <trkpt lat="52.69505557604134" lon="73.66628360934556">
        <ele>112.2</ele>
        <time>2026-07-10T14:26:12.000Z</time>
      </trkpt>
      <trkpt lat="52.69493060186505" lon="73.66679532453418">
        <ele>112</ele>
        <time>2026-07-10T14:26:19.000Z</time>
      </trkpt>
      <trkpt lat="52.694571521133184" lon="73.66702867671847">
        <ele>111.6</ele>
        <time>2026-07-10T14:26:26.000Z</time>
      </trkpt>
      <trkpt lat="52.6944965030998" lon="73.66734651848674">
        <ele>111.8</ele>
        <time>2026-07-10T14:26:32.000Z</time>
      </trkpt>
      <trkpt lat="52.69446590915322" lon="73.66804338991642">
        <ele>111.2</ele>
        <time>2026-07-10T14:26:43.000Z</time>
      </trkpt>
      <trkpt lat="52.694600103423" lon="73.66823550313711">
        <ele>111.4</ele>
        <time>2026-07-10T14:26:48.000Z</time>
      </trkpt>
      <trkpt lat="52.69489036872983" lon="73.66854571737349">
        <ele>112</ele>
        <time>2026-07-10T14:27:01.000Z</time>
      </trkpt>
      <trkpt lat="52.694825660437346" lon="73.66890689358115">
        <ele>113</ele>
        <time>2026-07-10T14:27:07.000Z</time>
      </trkpt>
      <trkpt lat="52.69414513371885" lon="73.66985656321049">
        <ele>113.6</ele>
        <time>2026-07-10T14:27:23.000Z</time>
      </trkpt>
      <trkpt lat="52.69363216124475" lon="73.67058319039643">
        <ele>113.4</ele>
        <time>2026-07-10T14:27:35.000Z</time>
      </trkpt>
      <trkpt lat="52.69347567111254" lon="73.67074982263148">
        <ele>113.6</ele>
        <time>2026-07-10T14:27:43.000Z</time>
      </trkpt>
      <trkpt lat="52.69337207078934" lon="73.67063960060477">
        <ele>114</ele>
        <time>2026-07-10T14:28:01.000Z</time>
      </trkpt>
      <trkpt lat="52.69313310272992" lon="73.67055259644985">
        <ele>113.8</ele>
        <time>2026-07-10T14:28:17.000Z</time>
      </trkpt>
      <trkpt lat="52.692926824092865" lon="73.67051462642848">
        <ele>113.8</ele>
        <time>2026-07-10T14:28:31.000Z</time>
      </trkpt>
    </trkseg>
  </trk>
</gpx>