<?xml version="1.0" encoding="UTF-8"?>
<TrainingCenterDatabase xmlns="http://www.garmin.com/xmlschemas/TrainingCenterDatabase/v2" xmlns:ns3="http://www.garmin.com/xmlschemas/ActivityExtension/v2" xmlns:xsi="http://www.w3.org/2001/XMLSchema-instance" xsi:schemaLocation="http://www.garmin.com/xmlschemas/TrainingCenterDatabase/v2 http://www.garmin.com/xmlschemas/TrainingCenterDatabasev2.xsd">
<Activities>
<Activity Sport="Biking">
<Id>2026-08-28T03:14:40Z</Id>
<Lap StartTime="2026-08-28T03:14:40Z">
<TotalTimeSeconds>1451.0</TotalTimeSeconds>
<DistanceMeters>4079.48</DistanceMeters>
<MaximumSpeed>5.461</MaximumSpeed>
<Calories>199</Calories>
<Intensity>Active</Intensity>
<TriggerMethod>Manual</TriggerMethod>
<Track>
<Trackpoint>
<Time>2026-08-28T03:14:40Z</Time>
<Position>
<LatitudeDegrees>43.6579212</LatitudeDegrees>
<LongitudeDegrees>111.9723134</LongitudeDegrees>
</Position>
<DistanceMeters>0.0</DistanceMeters>
<Extensions>
<ns3:TPX>
<ns3:Speed>0.0</ns3:Speed>
</ns3:TPX>
</Extensions>
</Trackpoint>
<Trackpoint>
<Time>2026-08-28T03:14:50Z</Time>
<Position>
<LatitudeDegrees>43.6578950</LatitudeDegrees>
<LongitudeDegrees>111.9723718</LongitudeDegrees>
</Position>
<DistanceMeters>5.5</DistanceMeters>
<Extensions>
<ns3:TPX>
<ns3:Speed>1.606</ns3:Speed>
</ns3:TPX>
</Extensions>
</Trackpoint>
<Trackpoint>
<Time>2026-08-28T03:14:51Z</Time>
<Position>
<LatitudeDegrees>43.6578814</LatitudeDegrees>
<LongitudeDegrees>111.9723815</LongitudeDegrees>
</Position>
<DistanceMeters>7.2</DistanceMeters>
<Extensions>
<ns3:TPX>
<ns3:Speed>1.653</ns3:Speed>
</ns3:TPX>
</Extensions>
</Trackpoint>
<Trackpoint>
<Time>2026-08-28T03:14:54Z</Time>
<Position>
<LatitudeDegrees>43.6578427</LatitudeDegrees>
<LongitudeDegrees>111.9723654</LongitudeDegrees>
</Position>
<DistanceMeters>12.0</DistanceMeters>
<Extensions>
<ns3:TPX>
<ns3:Speed>1.355</ns3:Speed>
</ns3:TPX>
</Extensions>
</Trackpoint>
<Trackpoint>
<Time>2026-08-28T03:15:00Z</Time>
<Position>
<LatitudeDegrees>43.6578001</LatitudeDegrees>
<LongitudeDegrees>111.9722833</LongitudeDegrees>
</Position>
<DistanceMeters>20.2</DistanceMeters>
<Extensions>
<ns3:TPX>
<ns3:Speed>1.129</ns3:Speed>
</ns3:TPX>
</Extensions>
</Trackpoint>
<Trackpoint>
<Time>2026-08-28T03:15:03Z</Time>
<Position>
<LatitudeDegrees>43.6578249</LatitudeDegrees>
<LongitudeDegrees>111.9722638</LongitudeDegrees>
</Position>
<DistanceMeters>23.8</DistanceMeters>
<Extensions>
<ns3:TPX>
<ns3:Speed>1.712</ns3:Speed>
</ns3:TPX>
</Extensions>
</Trackpoint>
<Trackpoint>
<Time>2026-08-28T03:15:08Z</Time>
<Position>
<LatitudeDegrees>43.6578981</LatitudeDegrees>
<LongitudeDegrees>111.9722974</LongitudeDegrees>
</Position>
<DistanceMeters>32.8</DistanceMeters>
<Extensions>
<ns3:TPX>
<ns3:Speed>1.938</ns3:Speed>
</ns3:TPX>
</Extensions>
</Trackpoint>
<Trackpoint>
<Time>2026-08-28T03:15:09Z</Time>
<Position>
<LatitudeDegrees>43.6579074</LatitudeDegrees>
<LongitudeDegrees>111.9723192</LongitudeDegrees>
</Position>
<DistanceMeters>34.8</DistanceMeters>
<Extensions>
<ns3:TPX>
<ns3:Speed>2.218</ns3:Speed>
</ns3:TPX>
</Extensions>
</Trackpoint>
<Trackpoint>
<Time>2026-08-28T03:15:10Z</Time>
<Position>
<LatitudeDegrees>43.6579165</LatitudeDegrees>
<LongitudeDegrees>111.9723452</LongitudeDegrees>
</Position>
<DistanceMeters>37.1</DistanceMeters>
<Extensions>
<ns3:TPX>
<ns3:Speed>2.4</ns3:Speed>
</ns3:TPX>
</Extensions>
</Trackpoint>
<Trackpoint>
<Time>2026-08-28T03:15:18Z</Time>
<Position>
<LatitudeDegrees>43.6579321</LatitudeDegrees>
<LongitudeDegrees>111.9725807</LongitudeDegrees>
</Position>
<DistanceMeters>56.3</DistanceMeters>
<Extensions>
<ns3:TPX>
<ns3:Speed>2.157</ns3:Speed>
</ns3:TPX>
</Extensions>
</Trackpoint>
<Trackpoint>
<Time>2026-08-28T03:15:24Z</Time>
<Position>
<LatitudeDegrees>43.6579301</LatitudeDegrees>
<LongitudeDegrees>111.9726596</LongitudeDegrees>
</Position>
<DistanceMeters>61.3</DistanceMeters>
<Extensions>
<ns3:TPX>
<ns3:Speed>0.0</ns3:Speed>
</ns3:TPX>
</Extensions>
</Trackpoint>
<Trackpoint>
<Time>2026-08-28T03:15:29Z</Time>
<Position>
<LatitudeDegrees>43.6578719</LatitudeDegrees>
<LongitudeDegrees>111.9727087</LongitudeDegrees>
</Position>
<DistanceMeters>68.9</DistanceMeters>
<Extensions>
<ns3:TPX>
<ns3:Speed>3.006</ns3:Speed>
</ns3:TPX>
</Extensions>
</Trackpoint>
<Trackpoint>
<Time>2026-08-28T03:15:32Z</Time>
<Position>
<LatitudeDegrees>43.6578107</LatitudeDegrees>
<LongitudeDegrees>111.9727812</LongitudeDegrees>
</Position>
<AltitudeMeters>959.4</AltitudeMeters>
<DistanceMeters>77.9</DistanceMeters>
<Extensions>
<ns3:TPX>
<ns3:Speed>2.599</ns3:Speed>
</ns3:TPX>
</Extensions>
</Trackpoint>
<Trackpoint>
<Time>2026-08-28T03:15:35Z</Time>
<Position>
<LatitudeDegrees>43.6577583</LatitudeDegrees>
<LongitudeDegrees>111.9728486</LongitudeDegrees>
</Position>
<AltitudeMeters>959.6</AltitudeMeters>
<DistanceMeters>85.8</DistanceMeters>
<Extensions>
<ns3:TPX>
<ns3:Speed>2.313</ns3:Speed>
</ns3:TPX>
</Extensions>
</Trackpoint>
<Trackpoint>
<Time>2026-08-28T03:15:37Z</Time>
<Position>
<LatitudeDegrees>43.6577404</LatitudeDegrees>
<LongitudeDegrees>111.9729186</LongitudeDegrees>
</Position>
<AltitudeMeters>959.8</AltitudeMeters>
<DistanceMeters>91.9</DistanceMeters>
<Extensions>
<ns3:TPX>
<ns3:Speed>2.264</ns3:Speed>
</ns3:TPX>
</Extensions>
</Trackpoint>
<Trackpoint>
<Time>2026-08-28T03:15:45Z</Time>
<Position>
<LatitudeDegrees>43.6578320</LatitudeDegrees>
<LongitudeDegrees>111.9731274</LongitudeDegrees>
</Position>
<AltitudeMeters>960.0</AltitudeMeters>
<DistanceMeters>111.6</DistanceMeters>
<Extensions>
<ns3:TPX>
<ns3:Speed>1.906</ns3:Speed>
</ns3:TPX>
</Extensions>
</Trackpoint>
<Trackpoint>
<Time>2026-08-28T03:15:47Z</Time>
<Position>
<LatitudeDegrees>43.6578522</LatitudeDegrees>
<LongitudeDegrees>111.9731642</LongitudeDegrees>
</Position>
<AltitudeMeters>960.2</AltitudeMeters>
<DistanceMeters>115.3</DistanceMeters>
<Extensions>
<ns3:TPX>
<ns3:Speed>1.915</ns3:Speed>
</ns3:TPX>
</Extensions>
</Trackpoint>
<Trackpoint>
<Time>2026-08-28T03:15:48Z</Time>
<Position>
<LatitudeDegrees>43.6578613</LatitudeDegrees>
<LongitudeDegrees>111.9731835</LongitudeDegrees>
</Position>
<AltitudeMeters>960.4</AltitudeMeters>
<DistanceMeters>117.2</DistanceMeters>
<Extensions>
<ns3:TPX>
<ns3:Speed>1.975</ns3:Speed>
</ns3:TPX>
</Extensions>
</Trackpoint>
<Trackpoint>
<Time>2026-08-28T03:15:56Z</Time>
<Position>
<LatitudeDegrees>43.6579272</LatitudeDegrees>
<LongitudeDegrees>111.9733707</LongitudeDegrees>
</Position>
<AltitudeMeters>960.2</AltitudeMeters>
<DistanceMeters>134.0</DistanceMeters>
<Extensions>
<ns3:TPX>
<ns3:Speed>2.13</ns3:Speed>
</ns3:TPX>
</Extensions>
</Trackpoint>
<Trackpoint>
<Time>2026-08-28T03:16:04Z</Time>
<Position>
<LatitudeDegrees>43.6580270</LatitudeDegrees>
<LongitudeDegrees>111.9735305</LongitudeDegrees>
</Position>
<AltitudeMeters>959.8</AltitudeMeters>
<DistanceMeters>151.0</DistanceMeters>
<Extensions>
<ns3:TPX>
<ns3:Speed>1.973</ns3:Speed>
</ns3:TPX>
</Extensions>
</Trackpoint>
<Trackpoint>
<Time>2026-08-28T03:16:10Z</Time>
<Position>
<LatitudeDegrees>43.6580502</LatitudeDegrees>
<LongitudeDegrees>111.9736133</LongitudeDegrees>
</Position>
<AltitudeMeters>960.0</AltitudeMeters>
<DistanceMeters>156.3</DistanceMeters>
<Extensions>
<ns3:TPX>
<ns3:Speed>0.0</ns3:Speed>
</ns3:TPX>
</Extensions>
</Trackpoint>
<Trackpoint>
<Time>2026-08-28T03:16:53Z</Time>
<Position>
<LatitudeDegrees>43.6580093</LatitudeDegrees>
<LongitudeDegrees>111.9736919</LongitudeDegrees>
</Position>
<AltitudeMeters>960.6</AltitudeMeters>
<DistanceMeters>164.3</DistanceMeters>
<Extensions>
<ns3:TPX>
<ns3:Speed>2.569</ns3:Speed>
</ns3:TPX>
</Extensions>
</Trackpoint>
<Trackpoint>
<Time>2026-08-28T03:17:02Z</Time>
<Position>
<LatitudeDegrees>43.6578362</LatitudeDegrees>
<LongitudeDegrees>111.9738426</LongitudeDegrees>
</Position>
<AltitudeMeters>960.6</AltitudeMeters>
<DistanceMeters>187.0</DistanceMeters>
<Extensions>
<ns3:TPX>
<ns3:Speed>2.7</ns3:Speed>
</ns3:TPX>
</Extensions>
</Trackpoint>
<Trackpoint>
<Time>2026-08-28T03:17:06Z</Time>
<Position>
<LatitudeDegrees>43.6577519</LatitudeDegrees>
<LongitudeDegrees>111.9739132</LongitudeDegrees>
</Position>
<AltitudeMeters>960.4</AltitudeMeters>
<DistanceMeters>197.9</DistanceMeters>
<Extensions>
<ns3:TPX>
<ns3:Speed>3.115</ns3:Speed>
</ns3:TPX>
</Extensions>
</Trackpoint>
<Trackpoint>
<Time>2026-08-28T03:17:14Z</Time>
<Position>
<LatitudeDegrees>43.6575695</LatitudeDegrees>
<LongitudeDegrees>111.9740435</LongitudeDegrees>
</Position>
<AltitudeMeters>960.6</AltitudeMeters>
<DistanceMeters>220.7</DistanceMeters>
<Extensions>
<ns3:TPX>
<ns3:Speed>2.638</ns3:Speed>
</ns3:TPX>
</Extensions>
</Trackpoint>
<Trackpoint>
<Time>2026-08-28T03:17:22Z</Time>
<Position>
<LatitudeDegrees>43.6574020</LatitudeDegrees>
<LongitudeDegrees>111.9741652</LongitudeDegrees>
</Position>
<AltitudeMeters>960.8</AltitudeMeters>
<DistanceMeters>241.9</DistanceMeters>
<Extensions>
<ns3:TPX>
<ns3:Speed>2.964</ns3:Speed>
</ns3:TPX>
</Extensions>
</Trackpoint>
<Trackpoint>
<Time>2026-08-28T03:17:30Z</Time>
<Position>
<LatitudeDegrees>43.6572169</LatitudeDegrees>
<LongitudeDegrees>111.9742658</LongitudeDegrees>
</Position>
<AltitudeMeters>960.6</AltitudeMeters>
<DistanceMeters>264.0</DistanceMeters>
<Extensions>
<ns3:TPX>
<ns3:Speed>3.209</ns3:Speed>
</ns3:TPX>
</Extensions>
</Trackpoint>
<Trackpoint>
<Time>2026-08-28T03:17:31Z</Time>
<Position>
<LatitudeDegrees>43.6571934</LatitudeDegrees>
<LongitudeDegrees>111.9742897</LongitudeDegrees>
</Position>
<AltitudeMeters>960.6</AltitudeMeters>
<DistanceMeters>267.3</DistanceMeters>
<Extensions>
<ns3:TPX>
<ns3:Speed>3.303</ns3:Speed>
</ns3:TPX>
</Extensions>
</Trackpoint>
<Trackpoint>
<Time>2026-08-28T03:17:36Z</Time>
<Position>
<LatitudeDegrees>43.6570776</LatitudeDegrees>
<LongitudeDegrees>111.9744204</LongitudeDegrees>
</Position>
<AltitudeMeters>960.6</AltitudeMeters>
<DistanceMeters>283.9</DistanceMeters>
<Extensions>
<ns3:TPX>
<ns3:Speed>3.343</ns3:Speed>
</ns3:TPX>
</Extensions>
</Trackpoint>
<Trackpoint>
<Time>2026-08-28T03:17:44Z</Time>
<Position>
<LatitudeDegrees>43.6568790</LatitudeDegrees>
<LongitudeDegrees>111.9745835</LongitudeDegrees>
</Position>
<AltitudeMeters>960.6</AltitudeMeters>
<DistanceMeters>309.5</DistanceMeters>
<Extensions>
<ns3:TPX>
<ns3:Speed>3.235</ns3:Speed>
</ns3:TPX>
</Extensions>
</Trackpoint>
<Trackpoint>
<Time>2026-08-28T03:17:52Z</Time>
<Position>
<LatitudeDegrees>43.6566819</LatitudeDegrees>
<LongitudeDegrees>111.9747436</LongitudeDegrees>
</Position>
<AltitudeMeters>960.6</AltitudeMeters>
<DistanceMeters>334.9</DistanceMeters>
<Extensions>
<ns3:TPX>
<ns3:Speed>3.012</ns3:Speed>
</ns3:TPX>
</Extensions>
</Trackpoint>
<Trackpoint>
<Time>2026-08-28T03:18:00Z</Time>
<Position>
<LatitudeDegrees>43.6564915</LatitudeDegrees>
<LongitudeDegrees>111.9749022</LongitudeDegrees>
</Position>
<AltitudeMeters>960.6</AltitudeMeters>
<DistanceMeters>359.6</DistanceMeters>
<Extensions>
<ns3:TPX>
<ns3:Speed>2.495</ns3:Speed>
</ns3:TPX>
</Extensions>
</Trackpoint>
<Trackpoint>
<Time>2026-08-28T03:18:08Z</Time>
<Position>
<LatitudeDegrees>43.6563491</LatitudeDegrees>
<LongitudeDegrees>111.9750459</LongitudeDegrees>
</Position>
<AltitudeMeters>960.4</AltitudeMeters>
<DistanceMeters>379.4</DistanceMeters>
<Extensions>
<ns3:TPX>
<ns3:Speed>1.299</ns3:Speed>
</ns3:TPX>
</Extensions>
</Trackpoint>
<Trackpoint>
<Time>2026-08-28T03:18:11Z</Time>
<Position>
<LatitudeDegrees>43.6563332</LatitudeDegrees>
<LongitudeDegrees>111.9750416</LongitudeDegrees>
</Position>
<AltitudeMeters>960.4</AltitudeMeters>
<DistanceMeters>379.4</DistanceMeters>
<Extensions>
<ns3:TPX>
<ns3:Speed>0.0</ns3:Speed>
</ns3:TPX>
</Extensions>
</Trackpoint>
<Trackpoint>
<Time>2026-08-28T03:18:30Z</Time>
<Position>
<LatitudeDegrees>43.6562334</LatitudeDegrees>
<LongitudeDegrees>111.9751273</LongitudeDegrees>
</Position>
<AltitudeMeters>960.0</AltitudeMeters>
<DistanceMeters>392.5</DistanceMeters>
<Extensions>
<ns3:TPX>
<ns3:Speed>2.589</ns3:Speed>
</ns3:TPX>
</Extensions>
</Trackpoint>
<Trackpoint>
<Time>2026-08-28T03:18:37Z</Time>
<Position>
<LatitudeDegrees>43.6560812</LatitudeDegrees>
<LongitudeDegrees>111.9753025</LongitudeDegrees>
</Position>
<AltitudeMeters>960.4</AltitudeMeters>
<DistanceMeters>414.6</DistanceMeters>
<Extensions>
<ns3:TPX>
<ns3:Speed>3.412</ns3:Speed>
</ns3:TPX>
</Extensions>
</Trackpoint>
<Trackpoint>
<Time>2026-08-28T03:18:38Z</Time>
<Position>
<LatitudeDegrees>43.6560539</LatitudeDegrees>
<LongitudeDegrees>111.9753220</LongitudeDegrees>
</Position>
<AltitudeMeters>960.4</AltitudeMeters>
<DistanceMeters>418.0</DistanceMeters>
<Extensions>
<ns3:TPX>
<ns3:Speed>3.475</ns3:Speed>
</ns3:TPX>
</Extensions>
</Trackpoint>
<Trackpoint>
<Time>2026-08-28T03:18:46Z</Time>
<Position>
<LatitudeDegrees>43.6558534</LatitudeDegrees>
<LongitudeDegrees>111.9754868</LongitudeDegrees>
</Position>
<AltitudeMeters>960.4</AltitudeMeters>
<DistanceMeters>444.0</DistanceMeters>
<Extensions>
<ns3:TPX>
<ns3:Speed>3.044</ns3:Speed>
</ns3:TPX>
</Extensions>
</Trackpoint>
<Trackpoint>
<Time>2026-08-28T03:18:50Z</Time>
<Position>
<LatitudeDegrees>43.6557584</LatitudeDegrees>
<LongitudeDegrees>111.9755757</LongitudeDegrees>
</Position>
<AltitudeMeters>960.4</AltitudeMeters>
<DistanceMeters>456.7</DistanceMeters>
<Extensions>
<ns3:TPX>
<ns3:Speed>3.521</ns3:Speed>
</ns3:TPX>
</Extensions>
</Trackpoint>
<Trackpoint>
<Time>2026-08-28T03:18:51Z</Time>
<Position>
<LatitudeDegrees>43.6557327</LatitudeDegrees>
<LongitudeDegrees>111.9756011</LongitudeDegrees>
</Position>
<AltitudeMeters>960.4</AltitudeMeters>
<DistanceMeters>460.2</DistanceMeters>
<Extensions>
<ns3:TPX>
<ns3:Speed>3.563</ns3:Speed>
</ns3:TPX>
</Extensions>
</Trackpoint>
<Trackpoint>
<Time>2026-08-28T03:18:59Z</Time>
<Position>
<LatitudeDegrees>43.6555284</LatitudeDegrees>
<LongitudeDegrees>111.9757846</LongitudeDegrees>
</Position>
<AltitudeMeters>960.0</AltitudeMeters>
<DistanceMeters>487.3</DistanceMeters>
<Extensions>
<ns3:TPX>
<ns3:Speed>3.343</ns3:Speed>
</ns3:TPX>
</Extensions>
</Trackpoint>
<Trackpoint>
<Time>2026-08-28T03:19:07Z</Time>
<Position>
<LatitudeDegrees>43.6553547</LatitudeDegrees>
<LongitudeDegrees>111.9759596</LongitudeDegrees>
</Position>
<AltitudeMeters>960.0</AltitudeMeters>
<DistanceMeters>511.3</DistanceMeters>
<Extensions>
<ns3:TPX>
<ns3:Speed>2.838</ns3:Speed>
</ns3:TPX>
</Extensions>
</Trackpoint>
<Trackpoint>
<Time>2026-08-28T03:19:12Z</Time>
<Position>
<LatitudeDegrees>43.6552755</LatitudeDegrees>
<LongitudeDegrees>111.9760599</LongitudeDegrees>
</Position>
<AltitudeMeters>960.8</AltitudeMeters>
<DistanceMeters>523.3</DistanceMeters>
<Extensions>
<ns3:TPX>
<ns3:Speed>2.154</ns3:Speed>
</ns3:TPX>
</Extensions>
</Trackpoint>
<Trackpoint>
<Time>2026-08-28T03:19:16Z</Time>
<Position>
<LatitudeDegrees>43.6551998</LatitudeDegrees>
<LongitudeDegrees>111.9760825</LongitudeDegrees>
</Position>
<AltitudeMeters>960.8</AltitudeMeters>
<DistanceMeters>531.9</DistanceMeters>
<Extensions>
<ns3:TPX>
<ns3:Speed>2.099</ns3:Speed>
</ns3:TPX>
</Extensions>
</Trackpoint>
<Trackpoint>
<Time>2026-08-28T03:19:25Z</Time>
<Position>
<LatitudeDegrees>43.6550593</LatitudeDegrees>
<LongitudeDegrees>111.9762556</LongitudeDegrees>
</Position>
<AltitudeMeters>960.8</AltitudeMeters>
<DistanceMeters>552.8</DistanceMeters>
<Extensions>
<ns3:TPX>
<ns3:Speed>3.14</ns3:Speed>
</ns3:TPX>
</Extensions>
</Trackpoint>
<Trackpoint>
<Time>2026-08-28T03:19:33Z</Time>
<Position>
<LatitudeDegrees>43.6548615</LatitudeDegrees>
<LongitudeDegrees>111.9764216</LongitudeDegrees>
</Position>
<AltitudeMeters>960.4</AltitudeMeters>
<DistanceMeters>578.6</DistanceMeters>
<Extensions>
<ns3:TPX>
<ns3:Speed>2.998</ns3:Speed>
</ns3:TPX>
</Extensions>
</Trackpoint>
<Trackpoint>
<Time>2026-08-28T03:19:41Z</Time>
<Position>
<LatitudeDegrees>43.6547338</LatitudeDegrees>
<LongitudeDegrees>111.9765039</LongitudeDegrees>
</Position>
<AltitudeMeters>960.6</AltitudeMeters>
<DistanceMeters>594.3</DistanceMeters>
<Extensions>
<ns3:TPX>
<ns3:Speed>1.311</ns3:Speed>
</ns3:TPX>
</Extensions>
</Trackpoint>
<Trackpoint>
<Time>2026-08-28T03:19:49Z</Time>
<Position>
<LatitudeDegrees>43.6546189</LatitudeDegrees>
<LongitudeDegrees>111.9766224</LongitudeDegrees>
</Position>
<AltitudeMeters>961.2</AltitudeMeters>
<DistanceMeters>610.3</DistanceMeters>
<Extensions>
<ns3:TPX>
<ns3:Speed>2.494</ns3:Speed>
</ns3:TPX>
</Extensions>
</Trackpoint>
<Trackpoint>
<Time>2026-08-28T03:19:50Z</Time>
<Position>
<LatitudeDegrees>43.6546004</LatitudeDegrees>
<LongitudeDegrees>111.9766447</LongitudeDegrees>
</Position>
<AltitudeMeters>961.4</AltitudeMeters>
<DistanceMeters>613.0</DistanceMeters>
<Extensions>
<ns3:TPX>
<ns3:Speed>2.563</ns3:Speed>
</ns3:TPX>
</Extensions>
</Trackpoint>
<Trackpoint>
<Time>2026-08-28T03:19:56Z</Time>
<Position>
<LatitudeDegrees>43.6544670</LatitudeDegrees>
<LongitudeDegrees>111.9767431</LongitudeDegrees>
</Position>
<AltitudeMeters>961.8</AltitudeMeters>
<DistanceMeters>629.9</DistanceMeters>
<Extensions>
<ns3:TPX>
<ns3:Speed>2.89</ns3:Speed>
</ns3:TPX>
</Extensions>
</Trackpoint>
<Trackpoint>
<Time>2026-08-28T03:20:00Z</Time>
<Position>
<LatitudeDegrees>43.6543926</LatitudeDegrees>
<LongitudeDegrees>111.9768259</LongitudeDegrees>
</Position>
<AltitudeMeters>961.4</AltitudeMeters>
<DistanceMeters>640.6</DistanceMeters>
<Extensions>
<ns3:TPX>
<ns3:Speed>2.064</ns3:Speed>
</ns3:TPX>
</Extensions>
</Trackpoint>
<Trackpoint>
<Time>2026-08-28T03:20:05Z</Time>
<Position>
<LatitudeDegrees>43.6543100</LatitudeDegrees>
<LongitudeDegrees>111.9768441</LongitudeDegrees>
</Position>
<AltitudeMeters>961.0</AltitudeMeters>
<DistanceMeters>650.1</DistanceMeters>
<Extensions>
<ns3:TPX>
<ns3:Speed>2.616</ns3:Speed>
</ns3:TPX>
</Extensions>
</Trackpoint>
<Trackpoint>
<Time>2026-08-28T03:20:13Z</Time>
<Position>
<LatitudeDegrees>43.6541525</LatitudeDegrees>
<LongitudeDegrees>111.9770233</LongitudeDegrees>
</Position>
<AltitudeMeters>960.8</AltitudeMeters>
<DistanceMeters>672.8</DistanceMeters>
<Extensions>
<ns3:TPX>
<ns3:Speed>2.955</ns3:Speed>
</ns3:TPX>
</Extensions>
</Trackpoint>
<Trackpoint>
<Time>2026-08-28T03:20:21Z</Time>
<Position>
<LatitudeDegrees>43.6539784</LatitudeDegrees>
<LongitudeDegrees>111.9771652</LongitudeDegrees>
</Position>
<AltitudeMeters>961.2</AltitudeMeters>
<DistanceMeters>695.3</DistanceMeters>
<Extensions>
<ns3:TPX>
<ns3:Speed>2.586</ns3:Speed>
</ns3:TPX>
</Extensions>
</Trackpoint>
<Trackpoint>
<Time>2026-08-28T03:20:26Z</Time>
<Position>
<LatitudeDegrees>43.6538727</LatitudeDegrees>
<LongitudeDegrees>111.9772539</LongitudeDegrees>
</Position>
<AltitudeMeters>960.8</AltitudeMeters>
<DistanceMeters>709.1</DistanceMeters>
<Extensions>
<ns3:TPX>
<ns3:Speed>2.035</ns3:Speed>
</ns3:TPX>
</Extensions>
</Trackpoint>
<Trackpoint>
<Time>2026-08-28T03:20:29Z</Time>
<Position>
<LatitudeDegrees>43.6538152</LatitudeDegrees>
<LongitudeDegrees>111.9772250</LongitudeDegrees>
</Position>
<AltitudeMeters>960.6</AltitudeMeters>
<DistanceMeters>716.2</DistanceMeters>
<Extensions>
<ns3:TPX>
<ns3:Speed>2.51</ns3:Speed>
</ns3:TPX>
</Extensions>
</Trackpoint>
<Trackpoint>
<Time>2026-08-28T03:20:37Z</Time>
<Position>
<LatitudeDegrees>43.6537573</LatitudeDegrees>
<LongitudeDegrees>111.9769253</LongitudeDegrees>
</Position>
<AltitudeMeters>960.8</AltitudeMeters>
<DistanceMeters>741.3</DistanceMeters>
<Extensions>
<ns3:TPX>
<ns3:Speed>3.224</ns3:Speed>
</ns3:TPX>
</Extensions>
</Trackpoint>
<Trackpoint>
<Time>2026-08-28T03:20:42Z</Time>
<Position>
<LatitudeDegrees>43.6536810</LatitudeDegrees>
<LongitudeDegrees>111.9767374</LongitudeDegrees>
</Position>
<AltitudeMeters>961.0</AltitudeMeters>
<DistanceMeters>758.6</DistanceMeters>
<Extensions>
<ns3:TPX>
<ns3:Speed>3.63</ns3:Speed>
</ns3:TPX>
</Extensions>
</Trackpoint>
<Trackpoint>
<Time>2026-08-28T03:20:43Z</Time>
<Position>
<LatitudeDegrees>43.6536643</LatitudeDegrees>
<LongitudeDegrees>111.9766970</LongitudeDegrees>
</Position>
<AltitudeMeters>961.0</AltitudeMeters>
<DistanceMeters>762.4</DistanceMeters>
<Extensions>
<ns3:TPX>
<ns3:Speed>3.768</ns3:Speed>
</ns3:TPX>
</Extensions>
</Trackpoint>
<Trackpoint>
<Time>2026-08-28T03:20:51Z</Time>
<Position>
<LatitudeDegrees>43.6535497</LatitudeDegrees>
<LongitudeDegrees>111.9764122</LongitudeDegrees>
</Position>
<AltitudeMeters>960.8</AltitudeMeters>
<DistanceMeters>788.5</DistanceMeters>
<Extensions>
<ns3:TPX>
<ns3:Speed>3.03</ns3:Speed>
</ns3:TPX>
</Extensions>
</Trackpoint>
<Trackpoint>
<Time>2026-08-28T03:20:59Z</Time>
<Position>
<LatitudeDegrees>43.6534303</LatitudeDegrees>
<LongitudeDegrees>111.9761089</LongitudeDegrees>
</Position>
<AltitudeMeters>960.4</AltitudeMeters>
<DistanceMeters>816.3</DistanceMeters>
<Extensions>
<ns3:TPX>
<ns3:Speed>3.622</ns3:Speed>
</ns3:TPX>
</Extensions>
</Trackpoint>
<Trackpoint>
<Time>2026-08-28T03:21:07Z</Time>
<Position>
<LatitudeDegrees>43.6533006</LatitudeDegrees>
<LongitudeDegrees>111.9758201</LongitudeDegrees>
</Position>
<AltitudeMeters>959.8</AltitudeMeters>
<DistanceMeters>843.6</DistanceMeters>
<Extensions>
<ns3:TPX>
<ns3:Speed>3.527</ns3:Speed>
</ns3:TPX>
</Extensions>
</Trackpoint>
<Trackpoint>
<Time>2026-08-28T03:21:13Z</Time>
<Position>
<LatitudeDegrees>43.6532082</LatitudeDegrees>
<LongitudeDegrees>111.9756122</LongitudeDegrees>
</Position>
<AltitudeMeters>960.2</AltitudeMeters>
<DistanceMeters>863.3</DistanceMeters>
<Extensions>
<ns3:TPX>
<ns3:Speed>2.838</ns3:Speed>
</ns3:TPX>
</Extensions>
</Trackpoint>
<Trackpoint>
<Time>2026-08-28T03:21:21Z</Time>
<Position>
<LatitudeDegrees>43.6531194</LatitudeDegrees>
<LongitudeDegrees>111.9754799</LongitudeDegrees>
</Position>
<AltitudeMeters>960.0</AltitudeMeters>
<DistanceMeters>877.9</DistanceMeters>
<Extensions>
<ns3:TPX>
<ns3:Speed>2.173</ns3:Speed>
</ns3:TPX>
</Extensions>
</Trackpoint>
<Trackpoint>
<Time>2026-08-28T03:21:29Z</Time>
<Position>
<LatitudeDegrees>43.6530402</LatitudeDegrees>
<LongitudeDegrees>111.9753624</LongitudeDegrees>
</Position>
<AltitudeMeters>960.0</AltitudeMeters>
<DistanceMeters>890.9</DistanceMeters>
<Extensions>
<ns3:TPX>
<ns3:Speed>1.932</ns3:Speed>
</ns3:TPX>
</Extensions>
</Trackpoint>
<Trackpoint>
<Time>2026-08-28T03:21:34Z</Time>
<Position>
<LatitudeDegrees>43.6530215</LatitudeDegrees>
<LongitudeDegrees>111.9752324</LongitudeDegrees>
</Position>
<AltitudeMeters>960.4</AltitudeMeters>
<DistanceMeters>901.7</DistanceMeters>
<Extensions>
<ns3:TPX>
<ns3:Speed>2.469</ns3:Speed>
</ns3:TPX>
</Extensions>
</Trackpoint>
<Trackpoint>
<Time>2026-08-28T03:21:43Z</Time>
<Position>
<LatitudeDegrees>43.6529145</LatitudeDegrees>
<LongitudeDegrees>111.9750072</LongitudeDegrees>
</Position>
<AltitudeMeters>960.8</AltitudeMeters>
<DistanceMeters>923.4</DistanceMeters>
<Extensions>
<ns3:TPX>
<ns3:Speed>2.839</ns3:Speed>
</ns3:TPX>
</Extensions>
</Trackpoint>
<Trackpoint>
<Time>2026-08-28T03:21:51Z</Time>
<Position>
<LatitudeDegrees>43.6528208</LatitudeDegrees>
<LongitudeDegrees>111.9747746</LongitudeDegrees>
</Position>
<AltitudeMeters>960.6</AltitudeMeters>
<DistanceMeters>944.8</DistanceMeters>
<Extensions>
<ns3:TPX>
<ns3:Speed>2.116</ns3:Speed>
</ns3:TPX>
</Extensions>
</Trackpoint>
<Trackpoint>
<Time>2026-08-28T03:21:59Z</Time>
<Position>
<LatitudeDegrees>43.6527391</LatitudeDegrees>
<LongitudeDegrees>111.9746400</LongitudeDegrees>
</Position>
<AltitudeMeters>960.6</AltitudeMeters>
<DistanceMeters>959.0</DistanceMeters>
<Extensions>
<ns3:TPX>
<ns3:Speed>1.918</ns3:Speed>
</ns3:TPX>
</Extensions>
</Trackpoint>
<Trackpoint>
<Time>2026-08-28T03:22:07Z</Time>
<Position>
<LatitudeDegrees>43.6526427</LatitudeDegrees>
<LongitudeDegrees>111.9743912</LongitudeDegrees>
</Position>
<AltitudeMeters>961.0</AltitudeMeters>
<DistanceMeters>981.7</DistanceMeters>
<Extensions>
<ns3:TPX>
<ns3:Speed>3.078</ns3:Speed>
</ns3:TPX>
</Extensions>
</Trackpoint>
<Trackpoint>
<Time>2026-08-28T03:22:15Z</Time>
<Position>
<LatitudeDegrees>43.6525216</LatitudeDegrees>
<LongitudeDegrees>111.9741363</LongitudeDegrees>
</Position>
<AltitudeMeters>961.2</AltitudeMeters>
<DistanceMeters>1006.3</DistanceMeters>
<Extensions>
<ns3:TPX>
<ns3:Speed>2.624</ns3:Speed>
</ns3:TPX>
</Extensions>
</Trackpoint>
<Trackpoint>
<Time>2026-08-28T03:22:23Z</Time>
<Position>
<LatitudeDegrees>43.6524310</LatitudeDegrees>
<LongitudeDegrees>111.9739791</LongitudeDegrees>
</Position>
<AltitudeMeters>961.0</AltitudeMeters>
<DistanceMeters>1022.5</DistanceMeters>
<Extensions>
<ns3:TPX>
<ns3:Speed>2.567</ns3:Speed>
</ns3:TPX>
</Extensions>
</Trackpoint>
<Trackpoint>
<Time>2026-08-28T03:22:31Z</Time>
<Position>
<LatitudeDegrees>43.6523316</LatitudeDegrees>
<LongitudeDegrees>111.9737431</LongitudeDegrees>
</Position>
<AltitudeMeters>960.6</AltitudeMeters>
<DistanceMeters>1044.4</DistanceMeters>
<Extensions>
<ns3:TPX>
<ns3:Speed>2.575</ns3:Speed>
</ns3:TPX>
</Extensions>
</Trackpoint>
<Trackpoint>
<Time>2026-08-28T03:22:39Z</Time>
<Position>
<LatitudeDegrees>43.6522347</LatitudeDegrees>
<LongitudeDegrees>111.9734924</LongitudeDegrees>
</Position>
<AltitudeMeters>961.0</AltitudeMeters>
<DistanceMeters>1067.3</DistanceMeters>
<Extensions>
<ns3:TPX>
<ns3:Speed>2.272</ns3:Speed>
</ns3:TPX>
</Extensions>
</Trackpoint>
<Trackpoint>
<Time>2026-08-28T03:22:47Z</Time>
<Position>
<LatitudeDegrees>43.6521496</LatitudeDegrees>
<LongitudeDegrees>111.9732921</LongitudeDegrees>
</Position>
<AltitudeMeters>961.2</AltitudeMeters>
<DistanceMeters>1086.0</DistanceMeters>
<Extensions>
<ns3:TPX>
<ns3:Speed>2.143</ns3:Speed>
</ns3:TPX>
</Extensions>
</Trackpoint>
<Trackpoint>
<Time>2026-08-28T03:22:52Z</Time>
<Position>
<LatitudeDegrees>43.6520633</LatitudeDegrees>
<LongitudeDegrees>111.9732034</LongitudeDegrees>
</Position>
<AltitudeMeters>960.8</AltitudeMeters>
<DistanceMeters>1098.2</DistanceMeters>
<Extensions>
<ns3:TPX>
<ns3:Speed>1.505</ns3:Speed>
</ns3:TPX>
</Extensions>
</Trackpoint>
<Trackpoint>
<Time>2026-08-28T03:22:55Z</Time>
<Position>
<LatitudeDegrees>43.6520437</LatitudeDegrees>
<LongitudeDegrees>111.9732144</LongitudeDegrees>
</Position>
<AltitudeMeters>960.6</AltitudeMeters>
<DistanceMeters>1098.2</DistanceMeters>
<Extensions>
<ns3:TPX>
<ns3:Speed>0.0</ns3:Speed>
</ns3:TPX>
</Extensions>
</Trackpoint>
<Trackpoint>
<Time>2026-08-28T03:23:21Z</Time>
<Position>
<LatitudeDegrees>43.6519648</LatitudeDegrees>
<LongitudeDegrees>111.9733168</LongitudeDegrees>
</Position>
<AltitudeMeters>960.0</AltitudeMeters>
<DistanceMeters>1110.3</DistanceMeters>
<Extensions>
<ns3:TPX>
<ns3:Speed>2.928</ns3:Speed>
</ns3:TPX>
</Extensions>
</Trackpoint>
<Trackpoint>
<Time>2026-08-28T03:23:24Z</Time>
<Position>
<LatitudeDegrees>43.6518825</LatitudeDegrees>
<LongitudeDegrees>111.9733384</LongitudeDegrees>
</Position>
<AltitudeMeters>959.8</AltitudeMeters>
<DistanceMeters>1119.7</DistanceMeters>
<Extensions>
<ns3:TPX>
<ns3:Speed>2.599</ns3:Speed>
</ns3:TPX>
</Extensions>
</Trackpoint>
<Trackpoint>
<Time>2026-08-28T03:23:30Z</Time>
<Position>
<LatitudeDegrees>43.6518126</LatitudeDegrees>
<LongitudeDegrees>111.9732935</LongitudeDegrees>
</Position>
<AltitudeMeters>959.2</AltitudeMeters>
<DistanceMeters>1126.4</DistanceMeters>
<Extensions>
<ns3:TPX>
<ns3:Speed>0.0</ns3:Speed>
</ns3:TPX>
</Extensions>
</Trackpoint>
<Trackpoint>
<Time>2026-08-28T03:23:39Z</Time>
<Position>
<LatitudeDegrees>43.6517092</LatitudeDegrees>
<LongitudeDegrees>111.9733054</LongitudeDegrees>
</Position>
<AltitudeMeters>960.4</AltitudeMeters>
<DistanceMeters>1138.1</DistanceMeters>
<Extensions>
<ns3:TPX>
<ns3:Speed>2.076</ns3:Speed>
</ns3:TPX>
</Extensions>
</Trackpoint>
<Trackpoint>
<Time>2026-08-28T03:23:43Z</Time>
<Position>
<LatitudeDegrees>43.6516356</LatitudeDegrees>
<LongitudeDegrees>111.9733184</LongitudeDegrees>
</Position>
<AltitudeMeters>961.0</AltitudeMeters>
<DistanceMeters>1146.5</DistanceMeters>
<Extensions>
<ns3:TPX>
<ns3:Speed>2.042</ns3:Speed>
</ns3:TPX>
</Extensions>
</Trackpoint>
<Trackpoint>
<Time>2026-08-28T03:23:45Z</Time>
<Position>
<LatitudeDegrees>43.6515955</LatitudeDegrees>
<LongitudeDegrees>111.9733054</LongitudeDegrees>
</Position>
<AltitudeMeters>961.2</AltitudeMeters>
<DistanceMeters>1151.0</DistanceMeters>
<Extensions>
<ns3:TPX>
<ns3:Speed>2.385</ns3:Speed>
</ns3:TPX>
</Extensions>
</Trackpoint>
<Trackpoint>
<Time>2026-08-28T03:23:46Z</Time>
<Position>
<LatitudeDegrees>43.6515754</LatitudeDegrees>
<LongitudeDegrees>111.9732949</LongitudeDegrees>
</Position>
<AltitudeMeters>961.4</AltitudeMeters>
<DistanceMeters>1153.4</DistanceMeters>
<Extensions>
<ns3:TPX>
<ns3:Speed>2.172</ns3:Speed>
</ns3:TPX>
</Extensions>
</Trackpoint>
<Trackpoint>
<Time>2026-08-28T03:23:51Z</Time>
<Position>
<LatitudeDegrees>43.6514831</LatitudeDegrees>
<LongitudeDegrees>111.9732692</LongitudeDegrees>
</Position>
<AltitudeMeters>960.4</AltitudeMeters>
<DistanceMeters>1164.1</DistanceMeters>
<Extensions>
<ns3:TPX>
<ns3:Speed>1.921</ns3:Speed>
</ns3:TPX>
</Extensions>
</Trackpoint>
<Trackpoint>
<Time>2026-08-28T03:23:59Z</Time>
<Position>
<LatitudeDegrees>43.6513438</LatitudeDegrees>
<LongitudeDegrees>111.9733631</LongitudeDegrees>
</Position>
<AltitudeMeters>960.0</AltitudeMeters>
<DistanceMeters>1181.4</DistanceMeters>
<Extensions>
<ns3:TPX>
<ns3:Speed>2.453</ns3:Speed>
</ns3:TPX>
</Extensions>
</Trackpoint>
<Trackpoint>
<Time>2026-08-28T03:24:08Z</Time>
<Position>
<LatitudeDegrees>43.6512119</LatitudeDegrees>
<LongitudeDegrees>111.9734907</LongitudeDegrees>
</Position>
<AltitudeMeters>960.8</AltitudeMeters>
<DistanceMeters>1199.3</DistanceMeters>
<Extensions>
<ns3:TPX>
<ns3:Speed>2.501</ns3:Speed>
</ns3:TPX>
</Extensions>
</Trackpoint>
<Trackpoint>
<Time>2026-08-28T03:24:16Z</Time>
<Position>
<LatitudeDegrees>43.6510476</LatitudeDegrees>
<LongitudeDegrees>111.9736093</LongitudeDegrees>
</Position>
<AltitudeMeters>960.8</AltitudeMeters>
<DistanceMeters>1219.9</DistanceMeters>
<Extensions>
<ns3:TPX>
<ns3:Speed>2.942</ns3:Speed>
</ns3:TPX>
</Extensions>
</Trackpoint>
<Trackpoint>
<Time>2026-08-28T03:24:24Z</Time>
<Position>
<LatitudeDegrees>43.6508825</LatitudeDegrees>
<LongitudeDegrees>111.9737585</LongitudeDegrees>
</Position>
<AltitudeMeters>960.6</AltitudeMeters>
<DistanceMeters>1241.8</DistanceMeters>
<Extensions>
<ns3:TPX>
<ns3:Speed>2.663</ns3:Speed>
</ns3:TPX>
</Extensions>
</Trackpoint>
<Trackpoint>
<Time>2026-08-28T03:24:32Z</Time>
<Position>
<LatitudeDegrees>43.6507139</LatitudeDegrees>
<LongitudeDegrees>111.9739033</LongitudeDegrees>
</Position>
<AltitudeMeters>960.6</AltitudeMeters>
<DistanceMeters>1263.9</DistanceMeters>
<Extensions>
<ns3:TPX>
<ns3:Speed>2.889</ns3:Speed>
</ns3:TPX>
</Extensions>
</Trackpoint>
<Trackpoint>
<Time>2026-08-28T03:24:40Z</Time>
<Position>
<LatitudeDegrees>43.6505440</LatitudeDegrees>
<LongitudeDegrees>111.9740466</LongitudeDegrees>
</Position>
<AltitudeMeters>960.2</AltitudeMeters>
<DistanceMeters>1286.0</DistanceMeters>
<Extensions>
<ns3:TPX>
<ns3:Speed>2.715</ns3:Speed>
</ns3:TPX>
</Extensions>
</Trackpoint>
<Trackpoint>
<Time>2026-08-28T03:24:48Z</Time>
<Position>
<LatitudeDegrees>43.6503747</LatitudeDegrees>
<LongitudeDegrees>111.9742039</LongitudeDegrees>
</Position>
<AltitudeMeters>961.2</AltitudeMeters>
<DistanceMeters>1308.7</DistanceMeters>
<Extensions>
<ns3:TPX>
<ns3:Speed>3.059</ns3:Speed>
</ns3:TPX>
</Extensions>
</Trackpoint>
<Trackpoint>
<Time>2026-08-28T03:24:56Z</Time>
<Position>
<LatitudeDegrees>43.6501961</LatitudeDegrees>
<LongitudeDegrees>111.9743429</LongitudeDegrees>
</Position>
<AltitudeMeters>961.4</AltitudeMeters>
<DistanceMeters>1331.5</DistanceMeters>
<Extensions>
<ns3:TPX>
<ns3:Speed>1.594</ns3:Speed>
</ns3:TPX>
</Extensions>
</Trackpoint>
<Trackpoint>
<Time>2026-08-28T03:25:04Z</Time>
<Position>
<LatitudeDegrees>43.6501086</LatitudeDegrees>
<LongitudeDegrees>111.9743159</LongitudeDegrees>
</Position>
<AltitudeMeters>961.2</AltitudeMeters>
<DistanceMeters>1341.7</DistanceMeters>
<Extensions>
<ns3:TPX>
<ns3:Speed>1.985</ns3:Speed>
</ns3:TPX>
</Extensions>
</Trackpoint>
<Trackpoint>
<Time>2026-08-28T03:25:10Z</Time>
<Position>
<LatitudeDegrees>43.6500424</LatitudeDegrees>
<LongitudeDegrees>111.9742625</LongitudeDegrees>
</Position>
<AltitudeMeters>961.0</AltitudeMeters>
<DistanceMeters>1347.9</DistanceMeters>
<Extensions>
<ns3:TPX>
<ns3:Speed>0.0</ns3:Speed>
</ns3:TPX>
</Extensions>
</Trackpoint>
<Trackpoint>
<Time>2026-08-28T03:25:37Z</Time>
<Position>
<LatitudeDegrees>43.6498415</LatitudeDegrees>
<LongitudeDegrees>111.9744426</LongitudeDegrees>
</Position>
<AltitudeMeters>961.4</AltitudeMeters>
<DistanceMeters>1374.6</DistanceMeters>
<Extensions>
<ns3:TPX>
<ns3:Speed>1.79</ns3:Speed>
</ns3:TPX>
</Extensions>
</Trackpoint>
<Trackpoint>
<Time>2026-08-28T03:25:45Z</Time>
<Position>
<LatitudeDegrees>43.6497267</LatitudeDegrees>
<LongitudeDegrees>111.9745368</LongitudeDegrees>
</Position>
<AltitudeMeters>961.2</AltitudeMeters>
<DistanceMeters>1389.4</DistanceMeters>
<Extensions>
<ns3:TPX>
<ns3:Speed>1.917</ns3:Speed>
</ns3:TPX>
</Extensions>
</Trackpoint>
<Trackpoint>
<Time>2026-08-28T03:25:53Z</Time>
<Position>
<LatitudeDegrees>43.6495826</LatitudeDegrees>
<LongitudeDegrees>111.9746607</LongitudeDegrees>
</Position>
<AltitudeMeters>961.0</AltitudeMeters>
<DistanceMeters>1408.2</DistanceMeters>
<Extensions>
<ns3:TPX>
<ns3:Speed>2.994</ns3:Speed>
</ns3:TPX>
</Extensions>
</Trackpoint>
<Trackpoint>
<Time>2026-08-28T03:26:01Z</Time>
<Position>
<LatitudeDegrees>43.6494120</LatitudeDegrees>
<LongitudeDegrees>111.9748020</LongitudeDegrees>
</Position>
<AltitudeMeters>959.8</AltitudeMeters>
<DistanceMeters>1430.3</DistanceMeters>
<Extensions>
<ns3:TPX>
<ns3:Speed>1.411</ns3:Speed>
</ns3:TPX>
</Extensions>
</Trackpoint>
<Trackpoint>
<Time>2026-08-28T03:26:04Z</Time>
<Position>
<LatitudeDegrees>43.6493954</LatitudeDegrees>
<LongitudeDegrees>111.9748180</LongitudeDegrees>
</Position>
<AltitudeMeters>959.4</AltitudeMeters>
<DistanceMeters>1430.3</DistanceMeters>
<Extensions>
<ns3:TPX>
<ns3:Speed>0.0</ns3:Speed>
</ns3:TPX>
</Extensions>
</Trackpoint>
<Trackpoint>
<Time>2026-08-28T03:26:52Z</Time>
<Position>
<LatitudeDegrees>43.6492623</LatitudeDegrees>
<LongitudeDegrees>111.9747070</LongitudeDegrees>
</Position>
<AltitudeMeters>960.6</AltitudeMeters>
<DistanceMeters>1447.7</DistanceMeters>
<Extensions>
<ns3:TPX>
<ns3:Speed>2.92</ns3:Speed>
</ns3:TPX>
</Extensions>
</Trackpoint>
<Trackpoint>
<Time>2026-08-28T03:26:59Z</Time>
<Position>
<LatitudeDegrees>43.6491848</LatitudeDegrees>
<LongitudeDegrees>111.9745400</LongitudeDegrees>
</Position>
<AltitudeMeters>961.2</AltitudeMeters>
<DistanceMeters>1463.7</DistanceMeters>
<Extensions>
<ns3:TPX>
<ns3:Speed>2.123</ns3:Speed>
</ns3:TPX>
</Extensions>
</Trackpoint>
<Trackpoint>
<Time>2026-08-28T03:27:02Z</Time>
<Position>
<LatitudeDegrees>43.6491903</LatitudeDegrees>
<LongitudeDegrees>111.9744780</LongitudeDegrees>
</Position>
<AltitudeMeters>961.4</AltitudeMeters>
<DistanceMeters>1469.1</DistanceMeters>
<Extensions>
<ns3:TPX>
<ns3:Speed>1.911</ns3:Speed>
</ns3:TPX>
</Extensions>
</Trackpoint>
<Trackpoint>
<Time>2026-08-28T03:27:10Z</Time>
<Position>
<LatitudeDegrees>43.6493628</LatitudeDegrees>
<LongitudeDegrees>111.9743541</LongitudeDegrees>
</Position>
<AltitudeMeters>961.6</AltitudeMeters>
<DistanceMeters>1490.7</DistanceMeters>
<Extensions>
<ns3:TPX>
<ns3:Speed>2.821</ns3:Speed>
</ns3:TPX>
</Extensions>
</Trackpoint>
<Trackpoint>
<Time>2026-08-28T03:27:18Z</Time>
<Position>
<LatitudeDegrees>43.6495447</LatitudeDegrees>
<LongitudeDegrees>111.9741957</LongitudeDegrees>
</Position>
<AltitudeMeters>961.0</AltitudeMeters>
<DistanceMeters>1514.6</DistanceMeters>
<Extensions>
<ns3:TPX>
<ns3:Speed>3.0</ns3:Speed>
</ns3:TPX>
</Extensions>
</Trackpoint>
<Trackpoint>
<Time>2026-08-28T03:27:26Z</Time>
<Position>
<LatitudeDegrees>43.6497447</LatitudeDegrees>
<LongitudeDegrees>111.9740334</LongitudeDegrees>
</Position>
<AltitudeMeters>961.6</AltitudeMeters>
<DistanceMeters>1540.4</DistanceMeters>
<Extensions>
<ns3:TPX>
<ns3:Speed>2.954</ns3:Speed>
</ns3:TPX>
</Extensions>
</Trackpoint>
<Trackpoint>
<Time>2026-08-28T03:27:34Z</Time>
<Position>
<LatitudeDegrees>43.6499223</LatitudeDegrees>
<LongitudeDegrees>111.9738548</LongitudeDegrees>
</Position>
<AltitudeMeters>961.4</AltitudeMeters>
<DistanceMeters>1564.9</DistanceMeters>
<Extensions>
<ns3:TPX>
<ns3:Speed>3.154</ns3:Speed>
</ns3:TPX>
</Extensions>
</Trackpoint>
<Trackpoint>
<Time>2026-08-28T03:27:42Z</Time>
<Position>
<LatitudeDegrees>43.6501188</LatitudeDegrees>
<LongitudeDegrees>111.9737078</LongitudeDegrees>
</Position>
<AltitudeMeters>961.2</AltitudeMeters>
<DistanceMeters>1589.7</DistanceMeters>
<Extensions>
<ns3:TPX>
<ns3:Speed>3.238</ns3:Speed>
</ns3:TPX>
</Extensions>
</Trackpoint>
<Trackpoint>
<Time>2026-08-28T03:27:50Z</Time>
<Position>
<LatitudeDegrees>43.6503313</LatitudeDegrees>
<LongitudeDegrees>111.9735245</LongitudeDegrees>
</Position>
<AltitudeMeters>960.8</AltitudeMeters>
<DistanceMeters>1617.5</DistanceMeters>
<Extensions>
<ns3:TPX>
<ns3:Speed>3.257</ns3:Speed>
</ns3:TPX>
</Extensions>
</Trackpoint>
<Trackpoint>
<Time>2026-08-28T03:27:58Z</Time>
<Position>
<LatitudeDegrees>43.6505300</LatitudeDegrees>
<LongitudeDegrees>111.9733667</LongitudeDegrees>
</Position>
<AltitudeMeters>961.2</AltitudeMeters>
<DistanceMeters>1643.0</DistanceMeters>
<Extensions>
<ns3:TPX>
<ns3:Speed>2.843</ns3:Speed>
</ns3:TPX>
</Extensions>
</Trackpoint>
<Trackpoint>
<Time>2026-08-28T03:28:06Z</Time>
<Position>
<LatitudeDegrees>43.6506568</LatitudeDegrees>
<LongitudeDegrees>111.9732491</LongitudeDegrees>
</Position>
<AltitudeMeters>961.2</AltitudeMeters>
<DistanceMeters>1660.0</DistanceMeters>
<Extensions>
<ns3:TPX>
<ns3:Speed>2.769</ns3:Speed>
</ns3:TPX>
</Extensions>
</Trackpoint>
<Trackpoint>
<Time>2026-08-28T03:28:14Z</Time>
<Position>
<LatitudeDegrees>43.6508348</LatitudeDegrees>
<LongitudeDegrees>111.9731063</LongitudeDegrees>
</Position>
<AltitudeMeters>961.2</AltitudeMeters>
<DistanceMeters>1682.9</DistanceMeters>
<Extensions>
<ns3:TPX>
<ns3:Speed>2.754</ns3:Speed>
</ns3:TPX>
</Extensions>
</Trackpoint>
<Trackpoint>
<Time>2026-08-28T03:28:22Z</Time>
<Position>
<LatitudeDegrees>43.6510107</LatitudeDegrees>
<LongitudeDegrees>111.9729483</LongitudeDegrees>
</Position>
<AltitudeMeters>961.0</AltitudeMeters>
<DistanceMeters>1706.2</DistanceMeters>
<Extensions>
<ns3:TPX>
<ns3:Speed>2.666</ns3:Speed>
</ns3:TPX>
</Extensions>
</Trackpoint>
<Trackpoint>
<Time>2026-08-28T03:28:30Z</Time>
<Position>
<LatitudeDegrees>43.6511623</LatitudeDegrees>
<LongitudeDegrees>111.9727990</LongitudeDegrees>
</Position>
<AltitudeMeters>961.2</AltitudeMeters>
<DistanceMeters>1726.9</DistanceMeters>
<Extensions>
<ns3:TPX>
<ns3:Speed>2.598</ns3:Speed>
</ns3:TPX>
</Extensions>
</Trackpoint>
<Trackpoint>
<Time>2026-08-28T03:28:33Z</Time>
<Position>
<LatitudeDegrees>43.6512136</LatitudeDegrees>
<LongitudeDegrees>111.9727365</LongitudeDegrees>
</Position>
<AltitudeMeters>961.2</AltitudeMeters>
<DistanceMeters>1734.7</DistanceMeters>
<Extensions>
<ns3:TPX>
<ns3:Speed>2.632</ns3:Speed>
</ns3:TPX>
</Extensions>
</Trackpoint>
<Trackpoint>
<Time>2026-08-28T03:28:36Z</Time>
<Position>
<LatitudeDegrees>43.6511983</LatitudeDegrees>
<LongitudeDegrees>111.9726390</LongitudeDegrees>
</Position>
<AltitudeMeters>960.8</AltitudeMeters>
<DistanceMeters>1742.9</DistanceMeters>
<Extensions>
<ns3:TPX>
<ns3:Speed>2.943</ns3:Speed>
</ns3:TPX>
</Extensions>
</Trackpoint>
<Trackpoint>
<Time>2026-08-28T03:28:40Z</Time>
<Position>
<LatitudeDegrees>43.6511611</LatitudeDegrees>
<LongitudeDegrees>111.9724885</LongitudeDegrees>
</Position>
<AltitudeMeters>960.8</AltitudeMeters>
<DistanceMeters>1755.8</DistanceMeters>
<Extensions>
<ns3:TPX>
<ns3:Speed>3.083</ns3:Speed>
</ns3:TPX>
</Extensions>
</Trackpoint>
<Trackpoint>
<Time>2026-08-28T03:28:45Z</Time>
<Position>
<LatitudeDegrees>43.6511327</LatitudeDegrees>
<LongitudeDegrees>111.9722925</LongitudeDegrees>
</Position>
<AltitudeMeters>961.2</AltitudeMeters>
<DistanceMeters>1771.9</DistanceMeters>
<Extensions>
<ns3:TPX>
<ns3:Speed>3.121</ns3:Speed>
</ns3:TPX>
</Extensions>
</Trackpoint>
<Trackpoint>
<Time>2026-08-28T03:28:53Z</Time>
<Position>
<LatitudeDegrees>43.6510776</LatitudeDegrees>
<LongitudeDegrees>111.9721596</LongitudeDegrees>
</Position>
<AltitudeMeters>961.4</AltitudeMeters>
<DistanceMeters>1784.7</DistanceMeters>
<Extensions>
<ns3:TPX>
<ns3:Speed>2.397</ns3:Speed>
</ns3:TPX>
</Extensions>
</Trackpoint>
<Trackpoint>
<Time>2026-08-28T03:28:56Z</Time>
<Position>
<LatitudeDegrees>43.6510853</LatitudeDegrees>
<LongitudeDegrees>111.9720725</LongitudeDegrees>
</Position>
<AltitudeMeters>961.8</AltitudeMeters>
<DistanceMeters>1791.8</DistanceMeters>
<Extensions>
<ns3:TPX>
<ns3:Speed>2.807</ns3:Speed>
</ns3:TPX>
</Extensions>
</Trackpoint>
<Trackpoint>
<Time>2026-08-28T03:29:01Z</Time>
<Position>
<LatitudeDegrees>43.6510261</LatitudeDegrees>
<LongitudeDegrees>111.9719347</LongitudeDegrees>
</Position>
<AltitudeMeters>961.2</AltitudeMeters>
<DistanceMeters>1804.8</DistanceMeters>
<Extensions>
<ns3:TPX>
<ns3:Speed>2.189</ns3:Speed>
</ns3:TPX>
</Extensions>
</Trackpoint>
<Trackpoint>
<Time>2026-08-28T03:29:08Z</Time>
<Position>
<LatitudeDegrees>43.6509306</LatitudeDegrees>
<LongitudeDegrees>111.9717523</LongitudeDegrees>
</Position>
<AltitudeMeters>961.6</AltitudeMeters>
<DistanceMeters>1823.0</DistanceMeters>
<Extensions>
<ns3:TPX>
<ns3:Speed>2.673</ns3:Speed>
</ns3:TPX>
</Extensions>
</Trackpoint>
<Trackpoint>
<Time>2026-08-28T03:29:15Z</Time>
<Position>
<LatitudeDegrees>43.6508486</LatitudeDegrees>
<LongitudeDegrees>111.9715333</LongitudeDegrees>
</Position>
<AltitudeMeters>961.4</AltitudeMeters>
<DistanceMeters>1842.9</DistanceMeters>
<Extensions>
<ns3:TPX>
<ns3:Speed>2.632</ns3:Speed>
</ns3:TPX>
</Extensions>
</Trackpoint>
<Trackpoint>
<Time>2026-08-28T03:29:23Z</Time>
<Position>
<LatitudeDegrees>43.6508307</LatitudeDegrees>
<LongitudeDegrees>111.9713430</LongitudeDegrees>
</Position>
<AltitudeMeters>961.6</AltitudeMeters>
<DistanceMeters>1858.6</DistanceMeters>
<Extensions>
<ns3:TPX>
<ns3:Speed>1.371</ns3:Speed>
</ns3:TPX>
</Extensions>
</Trackpoint>
<Trackpoint>
<Time>2026-08-28T03:29:31Z</Time>
<Position>
<LatitudeDegrees>43.6507276</LatitudeDegrees>
<LongitudeDegrees>111.9712031</LongitudeDegrees>
</Position>
<AltitudeMeters>961.8</AltitudeMeters>
<DistanceMeters>1874.7</DistanceMeters>
<Extensions>
<ns3:TPX>
<ns3:Speed>2.619</ns3:Speed>
</ns3:TPX>
</Extensions>
</Trackpoint>
<Trackpoint>
<Time>2026-08-28T03:29:39Z</Time>
<Position>
<LatitudeDegrees>43.6506137</LatitudeDegrees>
<LongitudeDegrees>111.9709536</LongitudeDegrees>
</Position>
<AltitudeMeters>962.0</AltitudeMeters>
<DistanceMeters>1898.4</DistanceMeters>
<Extensions>
<ns3:TPX>
<ns3:Speed>3.006</ns3:Speed>
</ns3:TPX>
</Extensions>
</Trackpoint>
<Trackpoint>
<Time>2026-08-28T03:29:47Z</Time>
<Position>
<LatitudeDegrees>43.6505259</LatitudeDegrees>
<LongitudeDegrees>111.9707131</LongitudeDegrees>
</Position>
<AltitudeMeters>962.0</AltitudeMeters>
<DistanceMeters>1920.2</DistanceMeters>
<Extensions>
<ns3:TPX>
<ns3:Speed>2.786</ns3:Speed>
</ns3:TPX>
</Extensions>
</Trackpoint>
<Trackpoint>
<Time>2026-08-28T03:29:55Z</Time>
<Position>
<LatitudeDegrees>43.6503769</LatitudeDegrees>
<LongitudeDegrees>111.9704404</LongitudeDegrees>
</Position>
<AltitudeMeters>962.0</AltitudeMeters>
<DistanceMeters>1947.7</DistanceMeters>
<Extensions>
<ns3:TPX>
<ns3:Speed>3.25</ns3:Speed>
</ns3:TPX>
</Extensions>
</Trackpoint>
<Trackpoint>
<Time>2026-08-28T03:30:03Z</Time>
<Position>
<LatitudeDegrees>43.6502532</LatitudeDegrees>
<LongitudeDegrees>111.9702026</LongitudeDegrees>
</Position>
<AltitudeMeters>962.0</AltitudeMeters>
<DistanceMeters>1971.3</DistanceMeters>
<Extensions>
<ns3:TPX>
<ns3:Speed>2.806</ns3:Speed>
</ns3:TPX>
</Extensions>
</Trackpoint>
<Trackpoint>
<Time>2026-08-28T03:30:11Z</Time>
<Position>
<LatitudeDegrees>43.6501920</LatitudeDegrees>
<LongitudeDegrees>111.9700226</LongitudeDegrees>
</Position>
<AltitudeMeters>961.4</AltitudeMeters>
<DistanceMeters>1987.3</DistanceMeters>
<Extensions>
<ns3:TPX>
<ns3:Speed>1.771</ns3:Speed>
</ns3:TPX>
</Extensions>
</Trackpoint>
<Trackpoint>
<Time>2026-08-28T03:30:19Z</Time>
<Position>
<LatitudeDegrees>43.6501112</LatitudeDegrees>
<LongitudeDegrees>111.9698129</LongitudeDegrees>
</Position>
<AltitudeMeters>961.2</AltitudeMeters>
<DistanceMeters>2006.4</DistanceMeters>
<Extensions>
<ns3:TPX>
<ns3:Speed>3.076</ns3:Speed>
</ns3:TPX>
</Extensions>
</Trackpoint>
<Trackpoint>
<Time>2026-08-28T03:30:27Z</Time>
<Position>
<LatitudeDegrees>43.6499936</LatitudeDegrees>
<LongitudeDegrees>111.9695623</LongitudeDegrees>
</Position>
<AltitudeMeters>961.8</AltitudeMeters>
<DistanceMeters>2030.5</DistanceMeters>
<Extensions>
<ns3:TPX>
<ns3:Speed>2.906</ns3:Speed>
</ns3:TPX>
</Extensions>
</Trackpoint>
<Trackpoint>
<Time>2026-08-28T03:30:35Z</Time>
<Position>
<LatitudeDegrees>43.6499158</LatitudeDegrees>
<LongitudeDegrees>111.9693435</LongitudeDegrees>
</Position>
<AltitudeMeters>961.2</AltitudeMeters>
<DistanceMeters>2050.2</DistanceMeters>
<Extensions>
<ns3:TPX>
<ns3:Speed>1.616</ns3:Speed>
</ns3:TPX>
</Extensions>
</Trackpoint>
<Trackpoint>
<Time>2026-08-28T03:30:41Z</Time>
<Position>
<LatitudeDegrees>43.6498442</LatitudeDegrees>
<LongitudeDegrees>111.9692670</LongitudeDegrees>
</Position>
<AltitudeMeters>960.8</AltitudeMeters>
<DistanceMeters>2060.4</DistanceMeters>
<Extensions>
<ns3:TPX>
<ns3:Speed>2.714</ns3:Speed>
</ns3:TPX>
</Extensions>
</Trackpoint>
<Trackpoint>
<Time>2026-08-28T03:30:49Z</Time>
<Position>
<LatitudeDegrees>43.6497634</LatitudeDegrees>
<LongitudeDegrees>111.9690461</LongitudeDegrees>
</Position>
<AltitudeMeters>962.2</AltitudeMeters>
<DistanceMeters>2080.4</DistanceMeters>
<Extensions>
<ns3:TPX>
<ns3:Speed>1.958</ns3:Speed>
</ns3:TPX>
</Extensions>
</Trackpoint>
<Trackpoint>
<Time>2026-08-28T03:30:56Z</Time>
<Position>
<LatitudeDegrees>43.6497127</LatitudeDegrees>
<LongitudeDegrees>111.9689082</LongitudeDegrees>
</Position>
<AltitudeMeters>962.4</AltitudeMeters>
<DistanceMeters>2092.9</DistanceMeters>
<Extensions>
<ns3:TPX>
<ns3:Speed>1.92</ns3:Speed>
</ns3:TPX>
</Extensions>
</Trackpoint>
<Trackpoint>
<Time>2026-08-28T03:31:04Z</Time>
<Position>
<LatitudeDegrees>43.6496273</LatitudeDegrees>
<LongitudeDegrees>111.9687403</LongitudeDegrees>
</Position>
<AltitudeMeters>962.4</AltitudeMeters>
<DistanceMeters>2109.4</DistanceMeters>
<Extensions>
<ns3:TPX>
<ns3:Speed>1.718</ns3:Speed>
</ns3:TPX>
</Extensions>
</Trackpoint>
<Trackpoint>
<Time>2026-08-28T03:31:08Z</Time>
<Position>
<LatitudeDegrees>43.6495812</LatitudeDegrees>
<LongitudeDegrees>111.9686924</LongitudeDegrees>
</Position>
<AltitudeMeters>962.0</AltitudeMeters>
<DistanceMeters>2116.1</DistanceMeters>
<Extensions>
<ns3:TPX>
<ns3:Speed>1.768</ns3:Speed>
</ns3:TPX>
</Extensions>
</Trackpoint>
<Trackpoint>
<Time>2026-08-28T03:31:10Z</Time>
<Position>
<LatitudeDegrees>43.6495659</LatitudeDegrees>
<LongitudeDegrees>111.9687185</LongitudeDegrees>
</Position>
<AltitudeMeters>962.0</AltitudeMeters>
<DistanceMeters>2119.1</DistanceMeters>
<Extensions>
<ns3:TPX>
<ns3:Speed>2.045</ns3:Speed>
</ns3:TPX>
</Extensions>
</Trackpoint>
<Trackpoint>
<Time>2026-08-28T03:31:19Z</Time>
<Position>
<LatitudeDegrees>43.6496899</LatitudeDegrees>
<LongitudeDegrees>111.9689167</LongitudeDegrees>
</Position>
<AltitudeMeters>962.0</AltitudeMeters>
<DistanceMeters>2140.2</DistanceMeters>
<Extensions>
<ns3:TPX>
<ns3:Speed>2.512</ns3:Speed>
</ns3:TPX>
</Extensions>
</Trackpoint>
<Trackpoint>
<Time>2026-08-28T03:31:25Z</Time>
<Position>
<LatitudeDegrees>43.6497655</LatitudeDegrees>
<LongitudeDegrees>111.9690683</LongitudeDegrees>
</Position>
<AltitudeMeters>962.2</AltitudeMeters>
<DistanceMeters>2155.0</DistanceMeters>
<Extensions>
<ns3:TPX>
<ns3:Speed>2.2</ns3:Speed>
</ns3:TPX>
</Extensions>
</Trackpoint>
<Trackpoint>
<Time>2026-08-28T03:31:28Z</Time>
<Position>
<LatitudeDegrees>43.6497485</LatitudeDegrees>
<LongitudeDegrees>111.9691279</LongitudeDegrees>
</Position>
<AltitudeMeters>962.4</AltitudeMeters>
<DistanceMeters>2160.5</DistanceMeters>
<Extensions>
<ns3:TPX>
<ns3:Speed>1.267</ns3:Speed>
</ns3:TPX>
</Extensions>
</Trackpoint>
<Trackpoint>
<Time>2026-08-28T03:31:33Z</Time>
<Position>
<LatitudeDegrees>43.6497218</LatitudeDegrees>
<LongitudeDegrees>111.9691496</LongitudeDegrees>
</Position>
<AltitudeMeters>962.6</AltitudeMeters>
<DistanceMeters>2161.6</DistanceMeters>
<Extensions>
<ns3:TPX>
<ns3:Speed>0.0</ns3:Speed>
</ns3:TPX>
</Extensions>
</Trackpoint>
<Trackpoint>
<Time>2026-08-28T03:46:16Z</Time>
<Position>
<LatitudeDegrees>43.6498503</LatitudeDegrees>
<LongitudeDegrees>111.9692817</LongitudeDegrees>
</Position>
<AltitudeMeters>961.0</AltitudeMeters>
<DistanceMeters>2179.4</DistanceMeters>
<Extensions>
<ns3:TPX>
<ns3:Speed>2.864</ns3:Speed>
</ns3:TPX>
</Extensions>
</Trackpoint>
<Trackpoint>
<Time>2026-08-28T03:46:24Z</Time>
<Position>
<LatitudeDegrees>43.6499378</LatitudeDegrees>
<LongitudeDegrees>111.9695204</LongitudeDegrees>
</Position>
<AltitudeMeters>961.2</AltitudeMeters>
<DistanceMeters>2201.1</DistanceMeters>
<Extensions>
<ns3:TPX>
<ns3:Speed>3.009</ns3:Speed>
</ns3:TPX>
</Extensions>
</Trackpoint>
<Trackpoint>
<Time>2026-08-28T03:46:32Z</Time>
<Position>
<LatitudeDegrees>43.6500892</LatitudeDegrees>
<LongitudeDegrees>111.9698011</LongitudeDegrees>
</Position>
<AltitudeMeters>961.4</AltitudeMeters>
<DistanceMeters>2229.3</DistanceMeters>
<Extensions>
<ns3:TPX>
<ns3:Speed>3.461</ns3:Speed>
</ns3:TPX>
</Extensions>
</Trackpoint>
<Trackpoint>
<Time>2026-08-28T03:46:40Z</Time>
<Position>
<LatitudeDegrees>43.6501988</LatitudeDegrees>
<LongitudeDegrees>111.9700847</LongitudeDegrees>
</Position>
<AltitudeMeters>961.8</AltitudeMeters>
<DistanceMeters>2255.2</DistanceMeters>
<Extensions>
<ns3:TPX>
<ns3:Speed>3.473</ns3:Speed>
</ns3:TPX>
</Extensions>
</Trackpoint>
<Trackpoint>
<Time>2026-08-28T03:46:42Z</Time>
<Position>
<LatitudeDegrees>43.6502351</LatitudeDegrees>
<LongitudeDegrees>111.9701561</LongitudeDegrees>
</Position>
<AltitudeMeters>961.8</AltitudeMeters>
<DistanceMeters>2262.2</DistanceMeters>
<Extensions>
<ns3:TPX>
<ns3:Speed>3.818</ns3:Speed>
</ns3:TPX>
</Extensions>
</Trackpoint>
<Trackpoint>
<Time>2026-08-28T03:46:43Z</Time>
<Position>
<LatitudeDegrees>43.6502577</LatitudeDegrees>
<LongitudeDegrees>111.9701926</LongitudeDegrees>
</Position>
<AltitudeMeters>961.8</AltitudeMeters>
<DistanceMeters>2266.0</DistanceMeters>
<Extensions>
<ns3:TPX>
<ns3:Speed>4.067</ns3:Speed>
</ns3:TPX>
</Extensions>
</Trackpoint>
<Trackpoint>
<Time>2026-08-28T03:46:44Z</Time>
<Position>
<LatitudeDegrees>43.6502810</LatitudeDegrees>
<LongitudeDegrees>111.9702318</LongitudeDegrees>
</Position>
<AltitudeMeters>961.8</AltitudeMeters>
<DistanceMeters>2270.1</DistanceMeters>
<Extensions>
<ns3:TPX>
<ns3:Speed>4.118</ns3:Speed>
</ns3:TPX>
</Extensions>
</Trackpoint>
<Trackpoint>
<Time>2026-08-28T03:46:45Z</Time>
<Position>
<LatitudeDegrees>43.6503033</LatitudeDegrees>
<LongitudeDegrees>111.9702738</LongitudeDegrees>
</Position>
<AltitudeMeters>961.8</AltitudeMeters>
<DistanceMeters>2274.3</DistanceMeters>
<Extensions>
<ns3:TPX>
<ns3:Speed>4.146</ns3:Speed>
</ns3:TPX>
</Extensions>
</Trackpoint>
<Trackpoint>
<Time>2026-08-28T03:46:53Z</Time>
<Position>
<LatitudeDegrees>43.6504570</LatitudeDegrees>
<LongitudeDegrees>111.9706082</LongitudeDegrees>
</Position>
<AltitudeMeters>961.8</AltitudeMeters>
<DistanceMeters>2306.1</DistanceMeters>
<Extensions>
<ns3:TPX>
<ns3:Speed>3.662</ns3:Speed>
</ns3:TPX>
</Extensions>
</Trackpoint>
<Trackpoint>
<Time>2026-08-28T03:47:02Z</Time>
<Position>
<LatitudeDegrees>43.6505843</LatitudeDegrees>
<LongitudeDegrees>111.9709209</LongitudeDegrees>
</Position>
<AltitudeMeters>961.8</AltitudeMeters>
<DistanceMeters>2335.0</DistanceMeters>
<Extensions>
<ns3:TPX>
<ns3:Speed>3.904</ns3:Speed>
</ns3:TPX>
</Extensions>
</Trackpoint>
<Trackpoint>
<Time>2026-08-28T03:47:04Z</Time>
<Position>
<LatitudeDegrees>43.6506283</LatitudeDegrees>
<LongitudeDegrees>111.9710011</LongitudeDegrees>
</Position>
<AltitudeMeters>961.6</AltitudeMeters>
<DistanceMeters>2343.1</DistanceMeters>
<Extensions>
<ns3:TPX>
<ns3:Speed>4.309</ns3:Speed>
</ns3:TPX>
</Extensions>
</Trackpoint>
<Trackpoint>
<Time>2026-08-28T03:47:11Z</Time>
<Position>
<LatitudeDegrees>43.6507812</LatitudeDegrees>
<LongitudeDegrees>111.9712987</LongitudeDegrees>
</Position>
<AltitudeMeters>961.0</AltitudeMeters>
<DistanceMeters>2372.4</DistanceMeters>
<Extensions>
<ns3:TPX>
<ns3:Speed>3.571</ns3:Speed>
</ns3:TPX>
</Extensions>
</Trackpoint>
<Trackpoint>
<Time>2026-08-28T03:47:19Z</Time>
<Position>
<LatitudeDegrees>43.6509229</LatitudeDegrees>
<LongitudeDegrees>111.9714299</LongitudeDegrees>
</Position>
<AltitudeMeters>960.4</AltitudeMeters>
<DistanceMeters>2391.4</DistanceMeters>
<Extensions>
<ns3:TPX>
<ns3:Speed>1.669</ns3:Speed>
</ns3:TPX>
</Extensions>
</Trackpoint>
<Trackpoint>
<Time>2026-08-28T03:47:27Z</Time>
<Position>
<LatitudeDegrees>43.6510046</LatitudeDegrees>
<LongitudeDegrees>111.9716271</LongitudeDegrees>
</Position>
<AltitudeMeters>960.8</AltitudeMeters>
<DistanceMeters>2409.7</DistanceMeters>
<Extensions>
<ns3:TPX>
<ns3:Speed>3.27</ns3:Speed>
</ns3:TPX>
</Extensions>
</Trackpoint>
<Trackpoint>
<Time>2026-08-28T03:47:35Z</Time>
<Position>
<LatitudeDegrees>43.6511411</LatitudeDegrees>
<LongitudeDegrees>111.9719199</LongitudeDegrees>
</Position>
<AltitudeMeters>961.0</AltitudeMeters>
<DistanceMeters>2437.7</DistanceMeters>
<Extensions>
<ns3:TPX>
<ns3:Speed>3.44</ns3:Speed>
</ns3:TPX>
</Extensions>
</Trackpoint>
<Trackpoint>
<Time>2026-08-28T03:47:39Z</Time>
<Position>
<LatitudeDegrees>43.6512045</LatitudeDegrees>
<LongitudeDegrees>111.9720749</LongitudeDegrees>
</Position>
<AltitudeMeters>961.0</AltitudeMeters>
<DistanceMeters>2452.1</DistanceMeters>
<Extensions>
<ns3:TPX>
<ns3:Speed>3.493</ns3:Speed>
</ns3:TPX>
</Extensions>
</Trackpoint>
<Trackpoint>
<Time>2026-08-28T03:47:43Z</Time>
<Position>
<LatitudeDegrees>43.6512166</LatitudeDegrees>
<LongitudeDegrees>111.9722479</LongitudeDegrees>
</Position>
<AltitudeMeters>961.2</AltitudeMeters>
<DistanceMeters>2466.2</DistanceMeters>
<Extensions>
<ns3:TPX>
<ns3:Speed>3.386</ns3:Speed>
</ns3:TPX>
</Extensions>
</Trackpoint>
<Trackpoint>
<Time>2026-08-28T03:47:48Z</Time>
<Position>
<LatitudeDegrees>43.6511955</LatitudeDegrees>
<LongitudeDegrees>111.9724392</LongitudeDegrees>
</Position>
<AltitudeMeters>961.2</AltitudeMeters>
<DistanceMeters>2481.8</DistanceMeters>
<Extensions>
<ns3:TPX>
<ns3:Speed>1.506</ns3:Speed>
</ns3:TPX>
</Extensions>
</Trackpoint>
<Trackpoint>
<Time>2026-08-28T03:47:55Z</Time>
<Position>
<LatitudeDegrees>43.6511570</LatitudeDegrees>
<LongitudeDegrees>111.9725649</LongitudeDegrees>
</Position>
<AltitudeMeters>961.2</AltitudeMeters>
<DistanceMeters>2493.0</DistanceMeters>
<Extensions>
<ns3:TPX>
<ns3:Speed>2.883</ns3:Speed>
</ns3:TPX>
</Extensions>
</Trackpoint>
<Trackpoint>
<Time>2026-08-28T03:48:02Z</Time>
<Position>
<LatitudeDegrees>43.6512561</LatitudeDegrees>
<LongitudeDegrees>111.9728606</LongitudeDegrees>
</Position>
<AltitudeMeters>961.0</AltitudeMeters>
<DistanceMeters>2519.4</DistanceMeters>
<Extensions>
<ns3:TPX>
<ns3:Speed>2.704</ns3:Speed>
</ns3:TPX>
</Extensions>
</Trackpoint>
<Trackpoint>
<Time>2026-08-28T03:48:07Z</Time>
<Position>
<LatitudeDegrees>43.6512633</LatitudeDegrees>
<LongitudeDegrees>111.9729347</LongitudeDegrees>
</Position>
<AltitudeMeters>960.6</AltitudeMeters>
<DistanceMeters>2523.9</DistanceMeters>
<Extensions>
<ns3:TPX>
<ns3:Speed>0.0</ns3:Speed>
</ns3:TPX>
</Extensions>
</Trackpoint>
<Trackpoint>
<Time>2026-08-28T03:48:15Z</Time>
<Position>
<LatitudeDegrees>43.6513420</LatitudeDegrees>
<LongitudeDegrees>111.9730762</LongitudeDegrees>
</Position>
<AltitudeMeters>960.6</AltitudeMeters>
<DistanceMeters>2538.3</DistanceMeters>
<Extensions>
<ns3:TPX>
<ns3:Speed>4.397</ns3:Speed>
</ns3:TPX>
</Extensions>
</Trackpoint>
<Trackpoint>
<Time>2026-08-28T03:48:16Z</Time>
<Position>
<LatitudeDegrees>43.6513758</LatitudeDegrees>
<LongitudeDegrees>111.9731074</LongitudeDegrees>
</Position>
<AltitudeMeters>960.8</AltitudeMeters>
<DistanceMeters>2542.8</DistanceMeters>
<Extensions>
<ns3:TPX>
<ns3:Speed>4.723</ns3:Speed>
</ns3:TPX>
</Extensions>
</Trackpoint>
<Trackpoint>
<Time>2026-08-28T03:48:17Z</Time>
<Position>
<LatitudeDegrees>43.6514162</LatitudeDegrees>
<LongitudeDegrees>111.9731348</LongitudeDegrees>
</Position>
<AltitudeMeters>960.6</AltitudeMeters>
<DistanceMeters>2547.8</DistanceMeters>
<Extensions>
<ns3:TPX>
<ns3:Speed>4.927</ns3:Speed>
</ns3:TPX>
</Extensions>
</Trackpoint>
<Trackpoint>
<Time>2026-08-28T03:48:18Z</Time>
<Position>
<LatitudeDegrees>43.6514613</LatitudeDegrees>
<LongitudeDegrees>111.9731557</LongitudeDegrees>
</Position>
<AltitudeMeters>960.6</AltitudeMeters>
<DistanceMeters>2553.1</DistanceMeters>
<Extensions>
<ns3:TPX>
<ns3:Speed>5.017</ns3:Speed>
</ns3:TPX>
</Extensions>
</Trackpoint>
<Trackpoint>
<Time>2026-08-28T03:48:25Z</Time>
<Position>
<LatitudeDegrees>43.6517712</LatitudeDegrees>
<LongitudeDegrees>111.9732462</LongitudeDegrees>
</Position>
<AltitudeMeters>960.0</AltitudeMeters>
<DistanceMeters>2588.3</DistanceMeters>
<Extensions>
<ns3:TPX>
<ns3:Speed>4.577</ns3:Speed>
</ns3:TPX>
</Extensions>
</Trackpoint>
<Trackpoint>
<Time>2026-08-28T03:48:28Z</Time>
<Position>
<LatitudeDegrees>43.6518781</LatitudeDegrees>
<LongitudeDegrees>111.9733373</LongitudeDegrees>
</Position>
<AltitudeMeters>959.8</AltitudeMeters>
<DistanceMeters>2602.3</DistanceMeters>
<Extensions>
<ns3:TPX>
<ns3:Speed>4.881</ns3:Speed>
</ns3:TPX>
</Extensions>
</Trackpoint>
<Trackpoint>
<Time>2026-08-28T03:48:36Z</Time>
<Position>
<LatitudeDegrees>43.6520567</LatitudeDegrees>
<LongitudeDegrees>111.9737580</LongitudeDegrees>
</Position>
<AltitudeMeters>960.2</AltitudeMeters>
<DistanceMeters>2641.6</DistanceMeters>
<Extensions>
<ns3:TPX>
<ns3:Speed>4.825</ns3:Speed>
</ns3:TPX>
</Extensions>
</Trackpoint>
<Trackpoint>
<Time>2026-08-28T03:48:44Z</Time>
<Position>
<LatitudeDegrees>43.6522350</LatitudeDegrees>
<LongitudeDegrees>111.9741506</LongitudeDegrees>
</Position>
<AltitudeMeters>960.0</AltitudeMeters>
<DistanceMeters>2678.8</DistanceMeters>
<Extensions>
<ns3:TPX>
<ns3:Speed>4.75</ns3:Speed>
</ns3:TPX>
</Extensions>
</Trackpoint>
<Trackpoint>
<Time>2026-08-28T03:48:52Z</Time>
<Position>
<LatitudeDegrees>43.6524045</LatitudeDegrees>
<LongitudeDegrees>111.9745333</LongitudeDegrees>
</Position>
<AltitudeMeters>960.0</AltitudeMeters>
<DistanceMeters>2714.9</DistanceMeters>
<Extensions>
<ns3:TPX>
<ns3:Speed>4.255</ns3:Speed>
</ns3:TPX>
</Extensions>
</Trackpoint>
<Trackpoint>
<Time>2026-08-28T03:49:00Z</Time>
<Position>
<LatitudeDegrees>43.6525647</LatitudeDegrees>
<LongitudeDegrees>111.9748961</LongitudeDegrees>
</Position>
<AltitudeMeters>959.8</AltitudeMeters>
<DistanceMeters>2749.0</DistanceMeters>
<Extensions>
<ns3:TPX>
<ns3:Speed>4.226</ns3:Speed>
</ns3:TPX>
</Extensions>
</Trackpoint>
<Trackpoint>
<Time>2026-08-28T03:49:08Z</Time>
<Position>
<LatitudeDegrees>43.6527230</LatitudeDegrees>
<LongitudeDegrees>111.9752423</LongitudeDegrees>
</Position>
<AltitudeMeters>959.2</AltitudeMeters>
<DistanceMeters>2781.9</DistanceMeters>
<Extensions>
<ns3:TPX>
<ns3:Speed>3.933</ns3:Speed>
</ns3:TPX>
</Extensions>
</Trackpoint>
<Trackpoint>
<Time>2026-08-28T03:49:16Z</Time>
<Position>
<LatitudeDegrees>43.6528409</LatitudeDegrees>
<LongitudeDegrees>111.9755259</LongitudeDegrees>
</Position>
<AltitudeMeters>959.2</AltitudeMeters>
<DistanceMeters>2808.3</DistanceMeters>
<Extensions>
<ns3:TPX>
<ns3:Speed>2.782</ns3:Speed>
</ns3:TPX>
</Extensions>
</Trackpoint>
<Trackpoint>
<Time>2026-08-28T03:49:19Z</Time>
<Position>
<LatitudeDegrees>43.6528211</LatitudeDegrees>
<LongitudeDegrees>111.9756211</LongitudeDegrees>
</Position>
<AltitudeMeters>959.2</AltitudeMeters>
<DistanceMeters>2816.5</DistanceMeters>
<Extensions>
<ns3:TPX>
<ns3:Speed>3.11</ns3:Speed>
</ns3:TPX>
</Extensions>
</Trackpoint>
<Trackpoint>
<Time>2026-08-28T03:49:26Z</Time>
<Position>
<LatitudeDegrees>43.6526455</LatitudeDegrees>
<LongitudeDegrees>111.9757693</LongitudeDegrees>
</Position>
<AltitudeMeters>959.8</AltitudeMeters>
<DistanceMeters>2839.5</DistanceMeters>
<Extensions>
<ns3:TPX>
<ns3:Speed>3.011</ns3:Speed>
</ns3:TPX>
</Extensions>
</Trackpoint>
<Trackpoint>
<Time>2026-08-28T03:49:29Z</Time>
<Position>
<LatitudeDegrees>43.6525665</LatitudeDegrees>
<LongitudeDegrees>111.9757747</LongitudeDegrees>
</Position>
<AltitudeMeters>959.0</AltitudeMeters>
<DistanceMeters>2848.4</DistanceMeters>
<Extensions>
<ns3:TPX>
<ns3:Speed>2.717</ns3:Speed>
</ns3:TPX>
</Extensions>
</Trackpoint>
<Trackpoint>
<Time>2026-08-28T03:49:33Z</Time>
<Position>
<LatitudeDegrees>43.6524655</LatitudeDegrees>
<LongitudeDegrees>111.9757627</LongitudeDegrees>
</Position>
<AltitudeMeters>959.6</AltitudeMeters>
<DistanceMeters>2859.8</DistanceMeters>
<Extensions>
<ns3:TPX>
<ns3:Speed>3.211</ns3:Speed>
</ns3:TPX>
</Extensions>
</Trackpoint>
<Trackpoint>
<Time>2026-08-28T03:49:41Z</Time>
<Position>
<LatitudeDegrees>43.6522549</LatitudeDegrees>
<LongitudeDegrees>111.9759451</LongitudeDegrees>
</Position>
<AltitudeMeters>960.2</AltitudeMeters>
<DistanceMeters>2887.5</DistanceMeters>
<Extensions>
<ns3:TPX>
<ns3:Speed>3.256</ns3:Speed>
</ns3:TPX>
</Extensions>
</Trackpoint>
<Trackpoint>
<Time>2026-08-28T03:49:49Z</Time>
<Position>
<LatitudeDegrees>43.6521481</LatitudeDegrees>
<LongitudeDegrees>111.9760622</LongitudeDegrees>
</Position>
<AltitudeMeters>960.2</AltitudeMeters>
<DistanceMeters>2902.7</DistanceMeters>
<Extensions>
<ns3:TPX>
<ns3:Speed>1.736</ns3:Speed>
</ns3:TPX>
</Extensions>
</Trackpoint>
<Trackpoint>
<Time>2026-08-28T03:49:57Z</Time>
<Position>
<LatitudeDegrees>43.6520675</LatitudeDegrees>
<LongitudeDegrees>111.9761545</LongitudeDegrees>
</Position>
<AltitudeMeters>960.8</AltitudeMeters>
<DistanceMeters>2914.4</DistanceMeters>
<Extensions>
<ns3:TPX>
<ns3:Speed>1.796</ns3:Speed>
</ns3:TPX>
</Extensions>
</Trackpoint>
<Trackpoint>
<Time>2026-08-28T03:50:02Z</Time>
<Position>
<LatitudeDegrees>43.6520196</LatitudeDegrees>
<LongitudeDegrees>111.9761905</LongitudeDegrees>
</Position>
<AltitudeMeters>961.6</AltitudeMeters>
<DistanceMeters>2918.1</DistanceMeters>
<Extensions>
<ns3:TPX>
<ns3:Speed>0.0</ns3:Speed>
</ns3:TPX>
</Extensions>
</Trackpoint>
<Trackpoint>
<Time>2026-08-28T04:14:28Z</Time>
<Position>
<LatitudeDegrees>43.6522281</LatitudeDegrees>
<LongitudeDegrees>111.9760901</LongitudeDegrees>
</Position>
<AltitudeMeters>961.6</AltitudeMeters>
<DistanceMeters>2942.8</DistanceMeters>
<Extensions>
<ns3:TPX>
<ns3:Speed>2.992</ns3:Speed>
</ns3:TPX>
</Extensions>
</Trackpoint>
<Trackpoint>
<Time>2026-08-28T04:14:32Z</Time>
<Position>
<LatitudeDegrees>43.6522820</LatitudeDegrees>
<LongitudeDegrees>111.9759848</LongitudeDegrees>
</Position>
<AltitudeMeters>961.2</AltitudeMeters>
<DistanceMeters>2953.3</DistanceMeters>
<Extensions>
<ns3:TPX>
<ns3:Speed>2.474</ns3:Speed>
</ns3:TPX>
</Extensions>
</Trackpoint>
<Trackpoint>
<Time>2026-08-28T04:14:36Z</Time>
<Position>
<LatitudeDegrees>43.6523379</LatitudeDegrees>
<LongitudeDegrees>111.9758754</LongitudeDegrees>
</Position>
<AltitudeMeters>961.6</AltitudeMeters>
<DistanceMeters>2964.2</DistanceMeters>
<Extensions>
<ns3:TPX>
<ns3:Speed>2.788</ns3:Speed>
</ns3:TPX>
</Extensions>
</Trackpoint>
<Trackpoint>
<Time>2026-08-28T04:14:44Z</Time>
<Position>
<LatitudeDegrees>43.6524688</LatitudeDegrees>
<LongitudeDegrees>111.9757652</LongitudeDegrees>
</Position>
<AltitudeMeters>962.2</AltitudeMeters>
<DistanceMeters>2981.3</DistanceMeters>
<Extensions>
<ns3:TPX>
<ns3:Speed>1.255</ns3:Speed>
</ns3:TPX>
</Extensions>
</Trackpoint>
<Trackpoint>
<Time>2026-08-28T04:14:50Z</Time>
<Position>
<LatitudeDegrees>43.6525608</LatitudeDegrees>
<LongitudeDegrees>111.9756677</LongitudeDegrees>
</Position>
<AltitudeMeters>962.2</AltitudeMeters>
<DistanceMeters>2994.3</DistanceMeters>
<Extensions>
<ns3:TPX>
<ns3:Speed>2.772</ns3:Speed>
</ns3:TPX>
</Extensions>
</Trackpoint>
<Trackpoint>
<Time>2026-08-28T04:14:53Z</Time>
<Position>
<LatitudeDegrees>43.6525862</LatitudeDegrees>
<LongitudeDegrees>111.9755627</LongitudeDegrees>
</Position>
<AltitudeMeters>962.0</AltitudeMeters>
<DistanceMeters>3003.3</DistanceMeters>
<Extensions>
<ns3:TPX>
<ns3:Speed>3.038</ns3:Speed>
</ns3:TPX>
</Extensions>
</Trackpoint>
<Trackpoint>
<Time>2026-08-28T04:14:58Z</Time>
<Position>
<LatitudeDegrees>43.6525650</LatitudeDegrees>
<LongitudeDegrees>111.9753565</LongitudeDegrees>
</Position>
<AltitudeMeters>961.8</AltitudeMeters>
<DistanceMeters>3020.1</DistanceMeters>
<Extensions>
<ns3:TPX>
<ns3:Speed>3.443</ns3:Speed>
</ns3:TPX>
</Extensions>
</Trackpoint>
<Trackpoint>
<Time>2026-08-28T04:15:06Z</Time>
<Position>
<LatitudeDegrees>43.6524401</LatitudeDegrees>
<LongitudeDegrees>111.9750483</LongitudeDegrees>
</Position>
<AltitudeMeters>962.0</AltitudeMeters>
<DistanceMeters>3048.5</DistanceMeters>
<Extensions>
<ns3:TPX>
<ns3:Speed>3.536</ns3:Speed>
</ns3:TPX>
</Extensions>
</Trackpoint>
<Trackpoint>
<Time>2026-08-28T04:15:14Z</Time>
<Position>
<LatitudeDegrees>43.6523272</LatitudeDegrees>
<LongitudeDegrees>111.9748022</LongitudeDegrees>
</Position>
<AltitudeMeters>962.0</AltitudeMeters>
<DistanceMeters>3071.9</DistanceMeters>
<Extensions>
<ns3:TPX>
<ns3:Speed>3.188</ns3:Speed>
</ns3:TPX>
</Extensions>
</Trackpoint>
<Trackpoint>
<Time>2026-08-28T04:15:22Z</Time>
<Position>
<LatitudeDegrees>43.6522164</LatitudeDegrees>
<LongitudeDegrees>111.9745063</LongitudeDegrees>
</Position>
<AltitudeMeters>961.8</AltitudeMeters>
<DistanceMeters>3098.7</DistanceMeters>
<Extensions>
<ns3:TPX>
<ns3:Speed>3.422</ns3:Speed>
</ns3:TPX>
</Extensions>
</Trackpoint>
<Trackpoint>
<Time>2026-08-28T04:15:28Z</Time>
<Position>
<LatitudeDegrees>43.6521320</LatitudeDegrees>
<LongitudeDegrees>111.9742462</LongitudeDegrees>
</Position>
<AltitudeMeters>962.0</AltitudeMeters>
<DistanceMeters>3121.7</DistanceMeters>
<Extensions>
<ns3:TPX>
<ns3:Speed>3.465</ns3:Speed>
</ns3:TPX>
</Extensions>
</Trackpoint>
<Trackpoint>
<Time>2026-08-28T04:15:32Z</Time>
<Position>
<LatitudeDegrees>43.6520915</LatitudeDegrees>
<LongitudeDegrees>111.9740995</LongitudeDegrees>
</Position>
<AltitudeMeters>962.0</AltitudeMeters>
<DistanceMeters>3134.3</DistanceMeters>
<Extensions>
<ns3:TPX>
<ns3:Speed>2.718</ns3:Speed>
</ns3:TPX>
</Extensions>
</Trackpoint>
<Trackpoint>
<Time>2026-08-28T04:15:40Z</Time>
<Position>
<LatitudeDegrees>43.6519699</LatitudeDegrees>
<LongitudeDegrees>111.9738614</LongitudeDegrees>
</Position>
<AltitudeMeters>962.0</AltitudeMeters>
<DistanceMeters>3157.8</DistanceMeters>
<Extensions>
<ns3:TPX>
<ns3:Speed>3.265</ns3:Speed>
</ns3:TPX>
</Extensions>
</Trackpoint>
<Trackpoint>
<Time>2026-08-28T04:15:48Z</Time>
<Position>
<LatitudeDegrees>43.6518479</LatitudeDegrees>
<LongitudeDegrees>111.9735977</LongitudeDegrees>
</Position>
<AltitudeMeters>961.4</AltitudeMeters>
<DistanceMeters>3182.9</DistanceMeters>
<Extensions>
<ns3:TPX>
<ns3:Speed>2.73</ns3:Speed>
</ns3:TPX>
</Extensions>
</Trackpoint>
<Trackpoint>
<Time>2026-08-28T04:15:54Z</Time>
<Position>
<LatitudeDegrees>43.6517891</LatitudeDegrees>
<LongitudeDegrees>111.9734335</LongitudeDegrees>
</Position>
<AltitudeMeters>963.6</AltitudeMeters>
<DistanceMeters>3197.8</DistanceMeters>
<Extensions>
<ns3:TPX>
<ns3:Speed>2.329</ns3:Speed>
</ns3:TPX>
</Extensions>
</Trackpoint>
<Trackpoint>
<Time>2026-08-28T04:15:55Z</Time>
<Position>
<LatitudeDegrees>43.6517723</LatitudeDegrees>
<LongitudeDegrees>111.9734181</LongitudeDegrees>
</Position>
<AltitudeMeters>963.4</AltitudeMeters>
<DistanceMeters>3200.1</DistanceMeters>
<Extensions>
<ns3:TPX>
<ns3:Speed>2.408</ns3:Speed>
</ns3:TPX>
</Extensions>
</Trackpoint>
<Trackpoint>
<Time>2026-08-28T04:16:03Z</Time>
<Position>
<LatitudeDegrees>43.6515923</LatitudeDegrees>
<LongitudeDegrees>111.9733248</LongitudeDegrees>
</Position>
<AltitudeMeters>961.8</AltitudeMeters>
<DistanceMeters>3221.5</DistanceMeters>
<Extensions>
<ns3:TPX>
<ns3:Speed>2.817</ns3:Speed>
</ns3:TPX>
</Extensions>
</Trackpoint>
<Trackpoint>
<Time>2026-08-28T04:16:08Z</Time>
<Position>
<LatitudeDegrees>43.6514846</LatitudeDegrees>
<LongitudeDegrees>111.9732622</LongitudeDegrees>
</Position>
<AltitudeMeters>959.4</AltitudeMeters>
<DistanceMeters>3234.7</DistanceMeters>
<Extensions>
<ns3:TPX>
<ns3:Speed>2.188</ns3:Speed>
</ns3:TPX>
</Extensions>
</Trackpoint>
<Trackpoint>
<Time>2026-08-28T04:16:12Z</Time>
<Position>
<LatitudeDegrees>43.6514623</LatitudeDegrees>
<LongitudeDegrees>111.9731716</LongitudeDegrees>
</Position>
<AltitudeMeters>959.4</AltitudeMeters>
<DistanceMeters>3242.6</DistanceMeters>
<Extensions>
<ns3:TPX>
<ns3:Speed>2.143</ns3:Speed>
</ns3:TPX>
</Extensions>
</Trackpoint>
<Trackpoint>
<Time>2026-08-28T04:16:17Z</Time>
<Position>
<LatitudeDegrees>43.6513694</LatitudeDegrees>
<LongitudeDegrees>111.9731709</LongitudeDegrees>
</Position>
<AltitudeMeters>960.2</AltitudeMeters>
<DistanceMeters>3253.1</DistanceMeters>
<Extensions>
<ns3:TPX>
<ns3:Speed>1.816</ns3:Speed>
</ns3:TPX>
</Extensions>
</Trackpoint>
<Trackpoint>
<Time>2026-08-28T04:16:22Z</Time>
<Position>
<LatitudeDegrees>43.6513090</LatitudeDegrees>
<LongitudeDegrees>111.9731434</LongitudeDegrees>
</Position>
<AltitudeMeters>961.4</AltitudeMeters>
<DistanceMeters>3261.0</DistanceMeters>
<Extensions>
<ns3:TPX>
<ns3:Speed>2.517</ns3:Speed>
</ns3:TPX>
</Extensions>
</Trackpoint>
<Trackpoint>
<Time>2026-08-28T04:16:30Z</Time>
<Position>
<LatitudeDegrees>43.6512536</LatitudeDegrees>
<LongitudeDegrees>111.9728769</LongitudeDegrees>
</Position>
<AltitudeMeters>960.0</AltitudeMeters>
<DistanceMeters>3283.4</DistanceMeters>
<Extensions>
<ns3:TPX>
<ns3:Speed>2.387</ns3:Speed>
</ns3:TPX>
</Extensions>
</Trackpoint>
<Trackpoint>
<Time>2026-08-28T04:16:34Z</Time>
<Position>
<LatitudeDegrees>43.6512147</LatitudeDegrees>
<LongitudeDegrees>111.9727690</LongitudeDegrees>
</Position>
<AltitudeMeters>961.2</AltitudeMeters>
<DistanceMeters>3293.1</DistanceMeters>
<Extensions>
<ns3:TPX>
<ns3:Speed>2.649</ns3:Speed>
</ns3:TPX>
</Extensions>
</Trackpoint>
<Trackpoint>
<Time>2026-08-28T04:16:39Z</Time>
<Position>
<LatitudeDegrees>43.6511301</LatitudeDegrees>
<LongitudeDegrees>111.9727227</LongitudeDegrees>
</Position>
<AltitudeMeters>961.8</AltitudeMeters>
<DistanceMeters>3303.4</DistanceMeters>
<Extensions>
<ns3:TPX>
<ns3:Speed>2.152</ns3:Speed>
</ns3:TPX>
</Extensions>
</Trackpoint>
<Trackpoint>
<Time>2026-08-28T04:16:44Z</Time>
<Position>
<LatitudeDegrees>43.6510807</LatitudeDegrees>
<LongitudeDegrees>111.9727422</LongitudeDegrees>
</Position>
<AltitudeMeters>962.6</AltitudeMeters>
<DistanceMeters>3306.8</DistanceMeters>
<Extensions>
<ns3:TPX>
<ns3:Speed>0.0</ns3:Speed>
</ns3:TPX>
</Extensions>
</Trackpoint>
<Trackpoint>
<Time>2026-08-28T05:14:37Z</Time>
<Position>
<LatitudeDegrees>43.6510829</LatitudeDegrees>
<LongitudeDegrees>111.9728412</LongitudeDegrees>
</Position>
<AltitudeMeters>961.6</AltitudeMeters>
<DistanceMeters>3306.8</DistanceMeters>
<Extensions>
<ns3:TPX>
<ns3:Speed>0.0</ns3:Speed>
</ns3:TPX>
</Extensions>
</Trackpoint>
<Trackpoint>
<Time>2026-08-28T05:15:06Z</Time>
<Position>
<LatitudeDegrees>43.6511712</LatitudeDegrees>
<LongitudeDegrees>111.9729674</LongitudeDegrees>
</Position>
<AltitudeMeters>961.2</AltitudeMeters>
<DistanceMeters>3320.9</DistanceMeters>
<Extensions>
<ns3:TPX>
<ns3:Speed>1.118</ns3:Speed>
</ns3:TPX>
</Extensions>
</Trackpoint>
<Trackpoint>
<Time>2026-08-28T05:15:11Z</Time>
<Position>
<LatitudeDegrees>43.6512136</LatitudeDegrees>
<LongitudeDegrees>111.9729721</LongitudeDegrees>
</Position>
<AltitudeMeters>960.8</AltitudeMeters>
<DistanceMeters>3325.1</DistanceMeters>
<Extensions>
<ns3:TPX>
<ns3:Speed>1.041</ns3:Speed>
</ns3:TPX>
</Extensions>
</Trackpoint>
<Trackpoint>
<Time>2026-08-28T05:15:18Z</Time>
<Position>
<LatitudeDegrees>43.6512683</LatitudeDegrees>
<LongitudeDegrees>111.9729263</LongitudeDegrees>
</Position>
<AltitudeMeters>961.0</AltitudeMeters>
<DistanceMeters>3331.5</DistanceMeters>
<Extensions>
<ns3:TPX>
<ns3:Speed>1.149</ns3:Speed>
</ns3:TPX>
</Extensions>
</Trackpoint>
<Trackpoint>
<Time>2026-08-28T05:15:26Z</Time>
<Position>
<LatitudeDegrees>43.6513199</LatitudeDegrees>
<LongitudeDegrees>111.9730956</LongitudeDegrees>
</Position>
<AltitudeMeters>960.2</AltitudeMeters>
<DistanceMeters>3346.4</DistanceMeters>
<Extensions>
<ns3:TPX>
<ns3:Speed>1.846</ns3:Speed>
</ns3:TPX>
</Extensions>
</Trackpoint>
<Trackpoint>
<Time>2026-08-28T05:15:31Z</Time>
<Position>
<LatitudeDegrees>43.6513466</LatitudeDegrees>
<LongitudeDegrees>111.9731810</LongitudeDegrees>
</Position>
<AltitudeMeters>960.0</AltitudeMeters>
<DistanceMeters>3354.0</DistanceMeters>
<Extensions>
<ns3:TPX>
<ns3:Speed>1.243</ns3:Speed>
</ns3:TPX>
</Extensions>
</Trackpoint>
<Trackpoint>
<Time>2026-08-28T05:15:36Z</Time>
<Position>
<LatitudeDegrees>43.6513884</LatitudeDegrees>
<LongitudeDegrees>111.9731686</LongitudeDegrees>
</Position>
<AltitudeMeters>959.8</AltitudeMeters>
<DistanceMeters>3356.1</DistanceMeters>
<Extensions>
<ns3:TPX>
<ns3:Speed>0.0</ns3:Speed>
</ns3:TPX>
</Extensions>
</Trackpoint>
<Trackpoint>
<Time>2026-08-28T05:15:43Z</Time>
<Position>
<LatitudeDegrees>43.6514377</LatitudeDegrees>
<LongitudeDegrees>111.9731837</LongitudeDegrees>
</Position>
<AltitudeMeters>959.8</AltitudeMeters>
<DistanceMeters>3361.9</DistanceMeters>
<Extensions>
<ns3:TPX>
<ns3:Speed>1.15</ns3:Speed>
</ns3:TPX>
</Extensions>
</Trackpoint>
<Trackpoint>
<Time>2026-08-28T05:15:51Z</Time>
<Position>
<LatitudeDegrees>43.6514932</LatitudeDegrees>
<LongitudeDegrees>111.9732776</LongitudeDegrees>
</Position>
<AltitudeMeters>959.4</AltitudeMeters>
<DistanceMeters>3371.8</DistanceMeters>
<Extensions>
<ns3:TPX>
<ns3:Speed>1.253</ns3:Speed>
</ns3:TPX>
</Extensions>
</Trackpoint>
<Trackpoint>
<Time>2026-08-28T05:15:59Z</Time>
<Position>
<LatitudeDegrees>43.6515956</LatitudeDegrees>
<LongitudeDegrees>111.9733273</LongitudeDegrees>
</Position>
<AltitudeMeters>960.6</AltitudeMeters>
<DistanceMeters>3383.9</DistanceMeters>
<Extensions>
<ns3:TPX>
<ns3:Speed>1.291</ns3:Speed>
</ns3:TPX>
</Extensions>
</Trackpoint>
<Trackpoint>
<Time>2026-08-28T05:16:07Z</Time>
<Position>
<LatitudeDegrees>43.6516989</LatitudeDegrees>
<LongitudeDegrees>111.9733577</LongitudeDegrees>
</Position>
<AltitudeMeters>960.6</AltitudeMeters>
<DistanceMeters>3395.7</DistanceMeters>
<Extensions>
<ns3:TPX>
<ns3:Speed>1.243</ns3:Speed>
</ns3:TPX>
</Extensions>
</Trackpoint>
<Trackpoint>
<Time>2026-08-28T05:16:12Z</Time>
<Position>
<LatitudeDegrees>43.6517396</LatitudeDegrees>
<LongitudeDegrees>111.9733724</LongitudeDegrees>
</Position>
<AltitudeMeters>960.2</AltitudeMeters>
<DistanceMeters>3398.1</DistanceMeters>
<Extensions>
<ns3:TPX>
<ns3:Speed>0.0</ns3:Speed>
</ns3:TPX>
</Extensions>
</Trackpoint>
<Trackpoint>
<Time>2026-08-28T05:16:41Z</Time>
<Position>
<LatitudeDegrees>43.6518856</LatitudeDegrees>
<LongitudeDegrees>111.9737061</LongitudeDegrees>
</Position>
<AltitudeMeters>961.2</AltitudeMeters>
<DistanceMeters>3429.4</DistanceMeters>
<Extensions>
<ns3:TPX>
<ns3:Speed>3.893</ns3:Speed>
</ns3:TPX>
</Extensions>
</Trackpoint>
<Trackpoint>
<Time>2026-08-28T05:16:50Z</Time>
<Position>
<LatitudeDegrees>43.6520615</LatitudeDegrees>
<LongitudeDegrees>111.9740777</LongitudeDegrees>
</Position>
<AltitudeMeters>961.0</AltitudeMeters>
<DistanceMeters>3465.2</DistanceMeters>
<Extensions>
<ns3:TPX>
<ns3:Speed>4.373</ns3:Speed>
</ns3:TPX>
</Extensions>
</Trackpoint>
<Trackpoint>
<Time>2026-08-28T05:16:52Z</Time>
<Position>
<LatitudeDegrees>43.6521214</LatitudeDegrees>
<LongitudeDegrees>111.9741429</LongitudeDegrees>
</Position>
<AltitudeMeters>961.2</AltitudeMeters>
<DistanceMeters>3473.7</DistanceMeters>
<Extensions>
<ns3:TPX>
<ns3:Speed>4.486</ns3:Speed>
</ns3:TPX>
</Extensions>
</Trackpoint>
<Trackpoint>
<Time>2026-08-28T05:16:55Z</Time>
<Position>
<LatitudeDegrees>43.6522350</LatitudeDegrees>
<LongitudeDegrees>111.9741923</LongitudeDegrees>
</Position>
<AltitudeMeters>961.2</AltitudeMeters>
<DistanceMeters>3487.0</DistanceMeters>
<Extensions>
<ns3:TPX>
<ns3:Speed>4.429</ns3:Speed>
</ns3:TPX>
</Extensions>
</Trackpoint>
<Trackpoint>
<Time>2026-08-28T05:16:58Z</Time>
<Position>
<LatitudeDegrees>43.6523122</LatitudeDegrees>
<LongitudeDegrees>111.9743185</LongitudeDegrees>
</Position>
<AltitudeMeters>961.4</AltitudeMeters>
<DistanceMeters>3500.4</DistanceMeters>
<Extensions>
<ns3:TPX>
<ns3:Speed>4.516</ns3:Speed>
</ns3:TPX>
</Extensions>
</Trackpoint>
<Trackpoint>
<Time>2026-08-28T05:17:05Z</Time>
<Position>
<LatitudeDegrees>43.6524642</LatitudeDegrees>
<LongitudeDegrees>111.9746842</LongitudeDegrees>
</Position>
<AltitudeMeters>960.8</AltitudeMeters>
<DistanceMeters>3534.3</DistanceMeters>
<Extensions>
<ns3:TPX>
<ns3:Speed>5.08</ns3:Speed>
</ns3:TPX>
</Extensions>
</Trackpoint>
<Trackpoint>
<Time>2026-08-28T05:17:06Z</Time>
<Position>
<LatitudeDegrees>43.6524883</LatitudeDegrees>
<LongitudeDegrees>111.9747390</LongitudeDegrees>
</Position>
<AltitudeMeters>960.6</AltitudeMeters>
<DistanceMeters>3539.4</DistanceMeters>
<Extensions>
<ns3:TPX>
<ns3:Speed>5.261</ns3:Speed>
</ns3:TPX>
</Extensions>
</Trackpoint>
<Trackpoint>
<Time>2026-08-28T05:17:07Z</Time>
<Position>
<LatitudeDegrees>43.6525136</LatitudeDegrees>
<LongitudeDegrees>111.9747945</LongitudeDegrees>
</Position>
<AltitudeMeters>960.4</AltitudeMeters>
<DistanceMeters>3544.7</DistanceMeters>
<Extensions>
<ns3:TPX>
<ns3:Speed>5.359</ns3:Speed>
</ns3:TPX>
</Extensions>
</Trackpoint>
<Trackpoint>
<Time>2026-08-28T05:17:08Z</Time>
<Position>
<LatitudeDegrees>43.6525396</LatitudeDegrees>
<LongitudeDegrees>111.9748508</LongitudeDegrees>
</Position>
<AltitudeMeters>960.2</AltitudeMeters>
<DistanceMeters>3550.1</DistanceMeters>
<Extensions>
<ns3:TPX>
<ns3:Speed>5.387</ns3:Speed>
</ns3:TPX>
</Extensions>
</Trackpoint>
<Trackpoint>
<Time>2026-08-28T05:17:10Z</Time>
<Position>
<LatitudeDegrees>43.6525925</LatitudeDegrees>
<LongitudeDegrees>111.9749648</LongitudeDegrees>
</Position>
<AltitudeMeters>960.0</AltitudeMeters>
<DistanceMeters>3560.9</DistanceMeters>
<Extensions>
<ns3:TPX>
<ns3:Speed>5.432</ns3:Speed>
</ns3:TPX>
</Extensions>
</Trackpoint>
<Trackpoint>
<Time>2026-08-28T05:17:11Z</Time>
<Position>
<LatitudeDegrees>43.6526191</LatitudeDegrees>
<LongitudeDegrees>111.9750226</LongitudeDegrees>
</Position>
<AltitudeMeters>960.0</AltitudeMeters>
<DistanceMeters>3566.4</DistanceMeters>
<Extensions>
<ns3:TPX>
<ns3:Speed>5.461</ns3:Speed>
</ns3:TPX>
</Extensions>
</Trackpoint>
<Trackpoint>
<Time>2026-08-28T05:17:19Z</Time>
<Position>
<LatitudeDegrees>43.6528123</LatitudeDegrees>
<LongitudeDegrees>111.9754464</LongitudeDegrees>
</Position>
<AltitudeMeters>960.2</AltitudeMeters>
<DistanceMeters>3606.7</DistanceMeters>
<Extensions>
<ns3:TPX>
<ns3:Speed>2.84</ns3:Speed>
</ns3:TPX>
</Extensions>
</Trackpoint>
<Trackpoint>
<Time>2026-08-28T05:17:23Z</Time>
<Position>
<LatitudeDegrees>43.6528385</LatitudeDegrees>
<LongitudeDegrees>111.9755464</LongitudeDegrees>
</Position>
<AltitudeMeters>960.6</AltitudeMeters>
<DistanceMeters>3615.4</DistanceMeters>
<Extensions>
<ns3:TPX>
<ns3:Speed>1.337</ns3:Speed>
</ns3:TPX>
</Extensions>
</Trackpoint>
<Trackpoint>
<Time>2026-08-28T05:17:27Z</Time>
<Position>
<LatitudeDegrees>43.6528293</LatitudeDegrees>
<LongitudeDegrees>111.9755700</LongitudeDegrees>
</Position>
<AltitudeMeters>960.6</AltitudeMeters>
<DistanceMeters>3616.6</DistanceMeters>
<Extensions>
<ns3:TPX>
<ns3:Speed>0.0</ns3:Speed>
</ns3:TPX>
</Extensions>
</Trackpoint>
<Trackpoint>
<Time>2026-08-28T05:17:43Z</Time>
<Position>
<LatitudeDegrees>43.6529081</LatitudeDegrees>
<LongitudeDegrees>111.9757274</LongitudeDegrees>
</Position>
<AltitudeMeters>961.0</AltitudeMeters>
<DistanceMeters>3632.0</DistanceMeters>
<Extensions>
<ns3:TPX>
<ns3:Speed>2.924</ns3:Speed>
</ns3:TPX>
</Extensions>
</Trackpoint>
<Trackpoint>
<Time>2026-08-28T05:17:47Z</Time>
<Position>
<LatitudeDegrees>43.6529925</LatitudeDegrees>
<LongitudeDegrees>111.9758300</LongitudeDegrees>
</Position>
<AltitudeMeters>961.6</AltitudeMeters>
<DistanceMeters>3644.6</DistanceMeters>
<Extensions>
<ns3:TPX>
<ns3:Speed>3.686</ns3:Speed>
</ns3:TPX>
</Extensions>
</Trackpoint>
<Trackpoint>
<Time>2026-08-28T05:17:55Z</Time>
<Position>
<LatitudeDegrees>43.6531439</LatitudeDegrees>
<LongitudeDegrees>111.9761697</LongitudeDegrees>
</Position>
<AltitudeMeters>961.4</AltitudeMeters>
<DistanceMeters>3676.6</DistanceMeters>
<Extensions>
<ns3:TPX>
<ns3:Speed>4.116</ns3:Speed>
</ns3:TPX>
</Extensions>
</Trackpoint>
<Trackpoint>
<Time>2026-08-28T05:18:03Z</Time>
<Position>
<LatitudeDegrees>43.6533049</LatitudeDegrees>
<LongitudeDegrees>111.9765285</LongitudeDegrees>
</Position>
<AltitudeMeters>960.6</AltitudeMeters>
<DistanceMeters>3710.5</DistanceMeters>
<Extensions>
<ns3:TPX>
<ns3:Speed>4.504</ns3:Speed>
</ns3:TPX>
</Extensions>
</Trackpoint>
<Trackpoint>
<Time>2026-08-28T05:18:11Z</Time>
<Position>
<LatitudeDegrees>43.6534862</LatitudeDegrees>
<LongitudeDegrees>111.9769291</LongitudeDegrees>
</Position>
<AltitudeMeters>960.6</AltitudeMeters>
<DistanceMeters>3748.5</DistanceMeters>
<Extensions>
<ns3:TPX>
<ns3:Speed>4.59</ns3:Speed>
</ns3:TPX>
</Extensions>
</Trackpoint>
<Trackpoint>
<Time>2026-08-28T05:18:19Z</Time>
<Position>
<LatitudeDegrees>43.6536783</LatitudeDegrees>
<LongitudeDegrees>111.9773620</LongitudeDegrees>
</Position>
<AltitudeMeters>960.6</AltitudeMeters>
<DistanceMeters>3789.3</DistanceMeters>
<Extensions>
<ns3:TPX>
<ns3:Speed>5.099</ns3:Speed>
</ns3:TPX>
</Extensions>
</Trackpoint>
<Trackpoint>
<Time>2026-08-28T05:18:27Z</Time>
<Position>
<LatitudeDegrees>43.6538956</LatitudeDegrees>
<LongitudeDegrees>111.9778475</LongitudeDegrees>
</Position>
<AltitudeMeters>960.2</AltitudeMeters>
<DistanceMeters>3835.1</DistanceMeters>
<Extensions>
<ns3:TPX>
<ns3:Speed>4.932</ns3:Speed>
</ns3:TPX>
</Extensions>
</Trackpoint>
<Trackpoint>
<Time>2026-08-28T05:18:35Z</Time>
<Position>
<LatitudeDegrees>43.6540953</LatitudeDegrees>
<LongitudeDegrees>111.9782620</LongitudeDegrees>
</Position>
<AltitudeMeters>960.2</AltitudeMeters>
<DistanceMeters>3875.1</DistanceMeters>
<Extensions>
<ns3:TPX>
<ns3:Speed>4.786</ns3:Speed>
</ns3:TPX>
</Extensions>
</Trackpoint>
<Trackpoint>
<Time>2026-08-28T05:18:43Z</Time>
<Position>
<LatitudeDegrees>43.6542846</LatitudeDegrees>
<LongitudeDegrees>111.9786723</LongitudeDegrees>
</Position>
<AltitudeMeters>960.0</AltitudeMeters>
<DistanceMeters>3914.2</DistanceMeters>
<Extensions>
<ns3:TPX>
<ns3:Speed>4.976</ns3:Speed>
</ns3:TPX>
</Extensions>
</Trackpoint>
<Trackpoint>
<Time>2026-08-28T05:18:51Z</Time>
<Position>
<LatitudeDegrees>43.6544663</LatitudeDegrees>
<LongitudeDegrees>111.9790857</LongitudeDegrees>
</Position>
<AltitudeMeters>959.2</AltitudeMeters>
<DistanceMeters>3953.1</DistanceMeters>
<Extensions>
<ns3:TPX>
<ns3:Speed>4.454</ns3:Speed>
</ns3:TPX>
</Extensions>
</Trackpoint>
<Trackpoint>
<Time>2026-08-28T05:18:55Z</Time>
<Position>
<LatitudeDegrees>43.6545597</LatitudeDegrees>
<LongitudeDegrees>111.9792586</LongitudeDegrees>
</Position>
<AltitudeMeters>959.4</AltitudeMeters>
<DistanceMeters>3970.5</DistanceMeters>
<Extensions>
<ns3:TPX>
<ns3:Speed>4.219</ns3:Speed>
</ns3:TPX>
</Extensions>
</Trackpoint>
<Trackpoint>
<Time>2026-08-28T05:18:57Z</Time>
<Position>
<LatitudeDegrees>43.6546260</LatitudeDegrees>
<LongitudeDegrees>111.9793006</LongitudeDegrees>
</Position>
<AltitudeMeters>959.6</AltitudeMeters>
<DistanceMeters>3978.7</DistanceMeters>
<Extensions>
<ns3:TPX>
<ns3:Speed>3.906</ns3:Speed>
</ns3:TPX>
</Extensions>
</Trackpoint>
<Trackpoint>
<Time>2026-08-28T05:18:59Z</Time>
<Position>
<LatitudeDegrees>43.6546945</LatitudeDegrees>
<LongitudeDegrees>111.9792788</LongitudeDegrees>
</Position>
<AltitudeMeters>959.6</AltitudeMeters>
<DistanceMeters>3986.6</DistanceMeters>
<Extensions>
<ns3:TPX>
<ns3:Speed>3.413</ns3:Speed>
</ns3:TPX>
</Extensions>
</Trackpoint>
<Trackpoint>
<Time>2026-08-28T05:19:03Z</Time>
<Position>
<LatitudeDegrees>43.6547803</LatitudeDegrees>
<LongitudeDegrees>111.9792154</LongitudeDegrees>
</Position>
<AltitudeMeters>960.0</AltitudeMeters>
<DistanceMeters>3997.4</DistanceMeters>
<Extensions>
<ns3:TPX>
<ns3:Speed>2.52</ns3:Speed>
</ns3:TPX>
</Extensions>
</Trackpoint>
<Trackpoint>
<Time>2026-08-28T05:19:10Z</Time>
<Position>
<LatitudeDegrees>43.6549413</LatitudeDegrees>
<LongitudeDegrees>111.9792815</LongitudeDegrees>
</Position>
<AltitudeMeters>960.2</AltitudeMeters>
<DistanceMeters>4016.3</DistanceMeters>
<Extensions>
<ns3:TPX>
<ns3:Speed>3.199</ns3:Speed>
</ns3:TPX>
</Extensions>
</Trackpoint>
<Trackpoint>
<Time>2026-08-28T05:19:18Z</Time>
<Position>
<LatitudeDegrees>43.6551480</LatitudeDegrees>
<LongitudeDegrees>111.9792174</LongitudeDegrees>
</Position>
<AltitudeMeters>960.2</AltitudeMeters>
<DistanceMeters>4039.9</DistanceMeters>
<Extensions>
<ns3:TPX>
<ns3:Speed>3.129</ns3:Speed>
</ns3:TPX>
</Extensions>
</Trackpoint>
<Trackpoint>
<Time>2026-08-28T05:19:24Z</Time>
<Position>
<LatitudeDegrees>43.6552905</LatitudeDegrees>
<LongitudeDegrees>111.9791143</LongitudeDegrees>
</Position>
<AltitudeMeters>960.6</AltitudeMeters>
<DistanceMeters>4057.9</DistanceMeters>
<Extensions>
<ns3:TPX>
<ns3:Speed>2.912</ns3:Speed>
</ns3:TPX>
</Extensions>
</Trackpoint>
<Trackpoint>
<Time>2026-08-28T05:19:32Z</Time>
<Position>
<LatitudeDegrees>43.6554342</LatitudeDegrees>
<LongitudeDegrees>111.9789829</LongitudeDegrees>
</Position>
<AltitudeMeters>960.2</AltitudeMeters>
<DistanceMeters>4077.2</DistanceMeters>
<Extensions>
<ns3:TPX>
<ns3:Speed>1.391</ns3:Speed>
</ns3:TPX>
</Extensions>
</Trackpoint>
<Trackpoint>
<Time>2026-08-28T05:19:37Z</Time>
<Position>
<LatitudeDegrees>43.6554012</LatitudeDegrees>
<LongitudeDegrees>111.9789458</LongitudeDegrees>
</Position>
<AltitudeMeters>960.2</AltitudeMeters>
<DistanceMeters>4079.5</DistanceMeters>
<Extensions>
<ns3:TPX>
<ns3:Speed>0.0</ns3:Speed>
</ns3:TPX>
</Extensions>
</Trackpoint>
</Track>
</Lap>
</Activity>
</Activities>
</TrainingCenterDatabase>