<?xml version="1.0" encoding="UTF-8"?>
<gpx creator="IGPSPORT" xmlns:xsi="http://www.w3.org/2001/XMLSchema-instance" schemaLocation="http://www.topografix.com/GPX/1/1 http://www.topografix.com/GPX/1/1/gpx.xsd" version="1.1" xmlns="http://www.topografix.com/GPX/1/1">
  <metadata>
    <time>2026-09-18T09:56:25.000Z</time>
    <link href="https://www.igpsport.cn/">
      <text>Велоспорт на свежем воздухе</text>
    </link>
  </metadata>
  <trk>
    <name>Велоспорт на свежем воздухе</name>
    <trkseg>
      <trkpt lat="44.39293781295419" lon="131.14864189177752">
        <ele>487</ele>
        <time>2026-09-18T11:56:43.000Z</time>
      </trkpt>
      <trkpt lat="44.39162797294557" lon="131.14901547320187">
        <ele>487.4</ele>
        <time>2026-09-18T11:56:59.000Z</time>
      </trkpt>
      <trkpt lat="44.3905730266124" lon="131.14930515177548">
        <ele>487.4</ele>
        <time>2026-09-18T11:57:12.000Z</time>
      </trkpt>
      <trkpt lat="44.38933736644685" lon="131.14965048618615">
        <ele>487.4</ele>
        <time>2026-09-18T11:57:29.000Z</time>
      </trkpt>
      <trkpt lat="44.38814260996878" lon="131.14997478201985">
        <ele>487.4</ele>
        <time>2026-09-18T11:57:45.000Z</time>
      </trkpt>
      <trkpt lat="44.387092189863324" lon="131.15048725157976">
        <ele>487.8</ele>
        <time>2026-09-18T11:58:00.000Z</time>
      </trkpt>
      <trkpt lat="44.38612776808441" lon="131.15130046382546">
        <ele>488</ele>
        <time>2026-09-18T11:58:16.000Z</time>
      </trkpt>
      <trkpt lat="44.3852611631155" lon="131.15233755670488">
        <ele>487.6</ele>
        <time>2026-09-18T11:58:32.000Z</time>
      </trkpt>
      <trkpt lat="44.384409226477146" lon="131.15340515971184">
        <ele>487.4</ele>
        <time>2026-09-18T11:58:48.000Z</time>
      </trkpt>
      <trkpt lat="44.38385669142008" lon="131.15424209274352">
        <ele>487.2</ele>
        <time>2026-09-18T11:58:59.000Z</time>
      </trkpt>
      <trkpt lat="44.38318136148155" lon="131.15571554750204">
        <ele>486.6</ele>
        <time>2026-09-18T11:59:15.000Z</time>
      </trkpt>
      <trkpt lat="44.38261457718909" lon="131.15735488012433">
        <ele>485</ele>
        <time>2026-09-18T11:59:31.000Z</time>
      </trkpt>
      <trkpt lat="44.38213940709829" lon="131.1587430909276">
        <ele>483</ele>
        <time>2026-09-18T11:59:48.000Z</time>
      </trkpt>
      <trkpt lat="44.38174453563988" lon="131.15985268726945">
        <ele>481.4</ele>
        <time>2026-09-18T12:00:04.000Z</time>
      </trkpt>
      <trkpt lat="44.38137422315776" lon="131.16107242181897">
        <ele>479.8</ele>
        <time>2026-09-18T12:00:20.000Z</time>
      </trkpt>
      <trkpt lat="44.38107683323324" lon="131.1624509934336">
        <ele>478</ele>
        <time>2026-09-18T12:00:36.000Z</time>
      </trkpt>
      <trkpt lat="44.380884217098355" lon="131.16394565440714">
        <ele>476.4</ele>
        <time>2026-09-18T12:00:52.000Z</time>
      </trkpt>
      <trkpt lat="44.38082001172006" lon="131.16556436754763">
        <ele>474</ele>
        <time>2026-09-18T12:01:08.000Z</time>
      </trkpt>
      <trkpt lat="44.38086158595979" lon="131.16726882755756">
        <ele>472</ele>
        <time>2026-09-18T12:01:24.000Z</time>
      </trkpt>
      <trkpt lat="44.380905758589506" lon="131.16901167668402">
        <ele>470</ele>
        <time>2026-09-18T12:01:40.000Z</time>
      </trkpt>
      <trkpt lat="44.380935514345765" lon="131.17086206562817">
        <ele>468</ele>
        <time>2026-09-18T12:01:56.000Z</time>
      </trkpt>
      <trkpt lat="44.38098169863224" lon="131.17256535217166">
        <ele>466.2</ele>
        <time>2026-09-18T12:02:13.000Z</time>
      </trkpt>
      <trkpt lat="44.38103257678449" lon="131.17427517659962">
        <ele>464.8</ele>
        <time>2026-09-18T12:02:29.000Z</time>
      </trkpt>
      <trkpt lat="44.38107599504292" lon="131.1760165169835">
        <ele>462.6</ele>
        <time>2026-09-18T12:02:45.000Z</time>
      </trkpt>
      <trkpt lat="44.381131986156106" lon="131.17781401611865">
        <ele>460.4</ele>
        <time>2026-09-18T12:03:01.000Z</time>
      </trkpt>
      <trkpt lat="44.381185714155436" lon="131.1796551849693">
        <ele>458</ele>
        <time>2026-09-18T12:03:17.000Z</time>
      </trkpt>
      <trkpt lat="44.38122007995844" lon="131.1815276183188">
        <ele>455.6</ele>
        <time>2026-09-18T12:03:33.000Z</time>
      </trkpt>
      <trkpt lat="44.38124891370535" lon="131.182799404487">
        <ele>454</ele>
        <time>2026-09-18T12:03:44.000Z</time>
      </trkpt>
      <trkpt lat="44.38127632252872" lon="131.18437520228326">
        <ele>452</ele>
        <time>2026-09-18T12:04:00.000Z</time>
      </trkpt>
      <trkpt lat="44.381287302821875" lon="131.18546552024782">
        <ele>451</ele>
        <time>2026-09-18T12:04:13.000Z</time>
      </trkpt>
      <trkpt lat="44.38123877160251" lon="131.18656044825912">
        <ele>449.4</ele>
        <time>2026-09-18T12:04:29.000Z</time>
      </trkpt>
      <trkpt lat="44.38117649406195" lon="131.18728221394122">
        <ele>448.4</ele>
        <time>2026-09-18T12:04:46.000Z</time>
      </trkpt>
      <trkpt lat="44.38111463561654" lon="131.1875231936574">
        <ele>447.8</ele>
        <time>2026-09-18T12:06:17.000Z</time>
      </trkpt>
      <trkpt lat="44.38102159649134" lon="131.18810590356588">
        <ele>447.2</ele>
        <time>2026-09-18T12:06:33.000Z</time>
      </trkpt>
      <trkpt lat="44.38096703030169" lon="131.18875382468104">
        <ele>446.6</ele>
        <time>2026-09-18T12:06:44.000Z</time>
      </trkpt>
      <trkpt lat="44.380872482433915" lon="131.18934868834913">
        <ele>446.2</ele>
        <time>2026-09-18T12:06:53.000Z</time>
      </trkpt>
      <trkpt lat="44.37896526418626" lon="131.19867489673197">
        <ele>435.4</ele>
        <time>2026-09-18T12:08:38.000Z</time>
      </trkpt>
      <trkpt lat="44.37917330302298" lon="131.19831271469593">
        <ele>435</ele>
        <time>2026-09-18T12:08:41.000Z</time>
      </trkpt>
      <trkpt lat="44.379253182560205" lon="131.19832210242748">
        <ele>434.8</ele>
        <time>2026-09-18T12:08:43.000Z</time>
      </trkpt>
      <trkpt lat="44.379504304379225" lon="131.19920270517468">
        <ele>433.4</ele>
        <time>2026-09-18T12:08:53.000Z</time>
      </trkpt>
      <trkpt lat="44.380076536908746" lon="131.20049821212888">
        <ele>431.4</ele>
        <time>2026-09-18T12:09:09.000Z</time>
      </trkpt>
      <trkpt lat="44.380578780546784" lon="131.201352160424">
        <ele>430</ele>
        <time>2026-09-18T12:09:26.000Z</time>
      </trkpt>
      <trkpt lat="44.38092025928199" lon="131.20193285867572">
        <ele>429</ele>
        <time>2026-09-18T12:09:42.000Z</time>
      </trkpt>
      <trkpt lat="44.38111463561654" lon="131.2024280615151">
        <ele>428.6</ele>
        <time>2026-09-18T12:09:58.000Z</time>
      </trkpt>
      <trkpt lat="44.38124539330602" lon="131.20302200317383">
        <ele>428.2</ele>
        <time>2026-09-18T12:10:14.000Z</time>
      </trkpt>
      <trkpt lat="44.3813048209995" lon="131.2036929745227">
        <ele>427.8</ele>
        <time>2026-09-18T12:10:30.000Z</time>
      </trkpt>
      <trkpt lat="44.38125595450401" lon="131.20444399304688">
        <ele>427</ele>
        <time>2026-09-18T12:10:46.000Z</time>
      </trkpt>
      <trkpt lat="44.38103827647865" lon="131.2052490748465">
        <ele>426.2</ele>
        <time>2026-09-18T12:11:02.000Z</time>
      </trkpt>
      <trkpt lat="44.38061993569136" lon="131.20602440088987">
        <ele>425</ele>
        <time>2026-09-18T12:11:18.000Z</time>
      </trkpt>
      <trkpt lat="44.380132192745805" lon="131.20654391124845">
        <ele>424.2</ele>
        <time>2026-09-18T12:11:30.000Z</time>
      </trkpt>
      <trkpt lat="44.3794001173228" lon="131.20693190954626">
        <ele>422.8</ele>
        <time>2026-09-18T12:11:47.000Z</time>
      </trkpt>
      <trkpt lat="44.37865203246474" lon="131.2071609031409">
        <ele>421.6</ele>
        <time>2026-09-18T12:12:03.000Z</time>
      </trkpt>
      <trkpt lat="44.377942671999335" lon="131.20740582235157">
        <ele>421</ele>
        <time>2026-09-18T12:12:19.000Z</time>
      </trkpt>
      <trkpt lat="44.377252003178" lon="131.20771285146475">
        <ele>420.2</ele>
        <time>2026-09-18T12:12:35.000Z</time>
      </trkpt>
      <trkpt lat="44.37657809816301" lon="131.208181316033">
        <ele>419</ele>
        <time>2026-09-18T12:12:51.000Z</time>
      </trkpt>
      <trkpt lat="44.37605489976704" lon="131.20873846113682">
        <ele>418.2</ele>
        <time>2026-09-18T12:13:07.000Z</time>
      </trkpt>
      <trkpt lat="44.37587737105787" lon="131.20899419300258">
        <ele>417.6</ele>
        <time>2026-09-18T12:13:23.000Z</time>
      </trkpt>
      <trkpt lat="44.37576111406088" lon="131.20920818299055">
        <ele>417.6</ele>
        <time>2026-09-18T12:18:12.000Z</time>
      </trkpt>
      <trkpt lat="44.375542933121324" lon="131.20966558344662">
        <ele>417.8</ele>
        <time>2026-09-18T12:18:28.000Z</time>
      </trkpt>
      <trkpt lat="44.375303629785776" lon="131.21021912433207">
        <ele>417.6</ele>
        <time>2026-09-18T12:18:45.000Z</time>
      </trkpt>
      <trkpt lat="44.375056279823184" lon="131.21080585755408">
        <ele>417.4</ele>
        <time>2026-09-18T12:19:01.000Z</time>
      </trkpt>
      <trkpt lat="44.374798871576786" lon="131.21139384806156">
        <ele>417.2</ele>
        <time>2026-09-18T12:19:17.000Z</time>
      </trkpt>
      <trkpt lat="44.37454163096845" lon="131.21194755658507">
        <ele>417.4</ele>
        <time>2026-09-18T12:19:33.000Z</time>
      </trkpt>
      <trkpt lat="44.374245665967464" lon="131.21242297813296">
        <ele>417.4</ele>
        <time>2026-09-18T12:19:49.000Z</time>
      </trkpt>
      <trkpt lat="44.37394442036748" lon="131.21279949322343">
        <ele>417.2</ele>
        <time>2026-09-18T12:20:05.000Z</time>
      </trkpt>
      <trkpt lat="44.37360973097384" lon="131.21314239688218">
        <ele>417.2</ele>
        <time>2026-09-18T12:20:22.000Z</time>
      </trkpt>
      <trkpt lat="44.37322366051376" lon="131.2134448159486">
        <ele>417.2</ele>
        <time>2026-09-18T12:20:38.000Z</time>
      </trkpt>
      <trkpt lat="44.37267858535051" lon="131.2137547787279">
        <ele>416.8</ele>
        <time>2026-09-18T12:20:54.000Z</time>
      </trkpt>
      <trkpt lat="44.37188942916691" lon="131.2141033820808">
        <ele>415.8</ele>
        <time>2026-09-18T12:21:11.000Z</time>
      </trkpt>
      <trkpt lat="44.3713840842247" lon="131.21444737538695">
        <ele>414.4</ele>
        <time>2026-09-18T12:21:27.000Z</time>
      </trkpt>
      <trkpt lat="44.37099642120302" lon="131.21488415636122">
        <ele>414.4</ele>
        <time>2026-09-18T12:21:43.000Z</time>
      </trkpt>
      <trkpt lat="44.37064773403108" lon="131.21552621014416">
        <ele>414</ele>
        <time>2026-09-18T12:21:59.000Z</time>
      </trkpt>
      <trkpt lat="44.37037062831223" lon="131.21595318429172">
        <ele>413.4</ele>
        <time>2026-09-18T12:22:10.000Z</time>
      </trkpt>
      <trkpt lat="44.37037113122642" lon="131.21645626612008">
        <ele>413.2</ele>
        <time>2026-09-18T12:22:16.000Z</time>
      </trkpt>
      <trkpt lat="44.37038462609053" lon="131.21755580417812">
        <ele>412.2</ele>
        <time>2026-09-18T12:22:30.000Z</time>
      </trkpt>
      <trkpt lat="44.37062996439636" lon="131.21860144659877">
        <ele>410.6</ele>
        <time>2026-09-18T12:22:42.000Z</time>
      </trkpt>
      <trkpt lat="44.3710680026561" lon="131.21939638629556">
        <ele>409</ele>
        <time>2026-09-18T12:22:52.000Z</time>
      </trkpt>
      <trkpt lat="44.3717242218554" lon="131.21999586001039">
        <ele>407.8</ele>
        <time>2026-09-18T12:23:03.000Z</time>
      </trkpt>
      <trkpt lat="44.37247331254184" lon="131.2202614825219">
        <ele>407.6</ele>
        <time>2026-09-18T12:23:15.000Z</time>
      </trkpt>
      <trkpt lat="44.37316993251443" lon="131.22018847614527">
        <ele>407.6</ele>
        <time>2026-09-18T12:23:25.000Z</time>
      </trkpt>
      <trkpt lat="44.37391717918217" lon="131.2198156490922">
        <ele>406.4</ele>
        <time>2026-09-18T12:23:39.000Z</time>
      </trkpt>
      <trkpt lat="44.37432101927698" lon="131.21957190334797">
        <ele>405.8</ele>
        <time>2026-09-18T12:23:44.000Z</time>
      </trkpt>
      <trkpt lat="44.37487347051501" lon="131.2190492078662">
        <ele>404.8</ele>
        <time>2026-09-18T12:23:53.000Z</time>
      </trkpt>
      <trkpt lat="44.375946102663875" lon="131.2182608898729">
        <ele>403.4</ele>
        <time>2026-09-18T12:24:09.000Z</time>
      </trkpt>
      <trkpt lat="44.376826118677855" lon="131.21744046919048">
        <ele>401.8</ele>
        <time>2026-09-18T12:24:23.000Z</time>
      </trkpt>
      <trkpt lat="44.377712002024055" lon="131.21667872183025">
        <ele>400.8</ele>
        <time>2026-09-18T12:24:37.000Z</time>
      </trkpt>
      <trkpt lat="44.3788340035826" lon="131.21609098277986">
        <ele>399.2</ele>
        <time>2026-09-18T12:24:53.000Z</time>
      </trkpt>
      <trkpt lat="44.379830192774534" lon="131.21570382267237">
        <ele>398</ele>
        <time>2026-09-18T12:25:07.000Z</time>
      </trkpt>
      <trkpt lat="44.381016567349434" lon="131.2155876494944">
        <ele>396.2</ele>
        <time>2026-09-18T12:25:23.000Z</time>
      </trkpt>
      <trkpt lat="44.38210889697075" lon="131.21533191762865">
        <ele>394.6</ele>
        <time>2026-09-18T12:25:39.000Z</time>
      </trkpt>
      <trkpt lat="44.383455365896225" lon="131.21504550799727">
        <ele>393.4</ele>
        <time>2026-09-18T12:25:56.000Z</time>
      </trkpt>
      <trkpt lat="44.384589437395334" lon="131.21510141529143">
        <ele>391.8</ele>
        <time>2026-09-18T12:26:11.000Z</time>
      </trkpt>
      <trkpt lat="44.385639103129506" lon="131.2152559775859">
        <ele>390.4</ele>
        <time>2026-09-18T12:26:25.000Z</time>
      </trkpt>
      <trkpt lat="44.386782897636294" lon="131.2157515157014">
        <ele>388.8</ele>
        <time>2026-09-18T12:26:41.000Z</time>
      </trkpt>
      <trkpt lat="44.38751941546798" lon="131.216249903664">
        <ele>388</ele>
        <time>2026-09-18T12:26:52.000Z</time>
      </trkpt>
      <trkpt lat="44.38804395496845" lon="131.21699907816947">
        <ele>386.8</ele>
        <time>2026-09-18T12:27:02.000Z</time>
      </trkpt>
      <trkpt lat="44.38855315558612" lon="131.21823591180146">
        <ele>385.4</ele>
        <time>2026-09-18T12:27:16.000Z</time>
      </trkpt>
      <trkpt lat="44.388726158067584" lon="131.21920946985483">
        <ele>384.6</ele>
        <time>2026-09-18T12:27:26.000Z</time>
      </trkpt>
      <trkpt lat="44.38867351971567" lon="131.22021756134927">
        <ele>383.6</ele>
        <time>2026-09-18T12:27:36.000Z</time>
      </trkpt>
      <trkpt lat="44.388394486159086" lon="131.2211984116584">
        <ele>381.8</ele>
        <time>2026-09-18T12:27:46.000Z</time>
      </trkpt>
      <trkpt lat="44.38772611320019" lon="131.22264387086034">
        <ele>379.8</ele>
        <time>2026-09-18T12:28:02.000Z</time>
      </trkpt>
      <trkpt lat="44.38751648180187" lon="131.22353562153876">
        <ele>379</ele>
        <time>2026-09-18T12:28:10.000Z</time>
      </trkpt>
      <trkpt lat="44.3875025678426" lon="131.22450398281217">
        <ele>378.4</ele>
        <time>2026-09-18T12:28:21.000Z</time>
      </trkpt>
      <trkpt lat="44.38730416819453" lon="131.22511954978108">
        <ele>378.4</ele>
        <time>2026-09-18T12:28:28.000Z</time>
      </trkpt>
      <trkpt lat="44.387065786868334" lon="131.22546589002013">
        <ele>377.8</ele>
        <time>2026-09-18T12:28:34.000Z</time>
      </trkpt>
      <trkpt lat="44.38740123063326" lon="131.2265919148922">
        <ele>376.6</ele>
        <time>2026-09-18T12:28:43.000Z</time>
      </trkpt>
      <trkpt lat="44.38723216764629" lon="131.22716272249818">
        <ele>376.2</ele>
        <time>2026-09-18T12:28:50.000Z</time>
      </trkpt>
      <trkpt lat="44.387171398848295" lon="131.22810535132885">
        <ele>375.4</ele>
        <time>2026-09-18T12:29:00.000Z</time>
      </trkpt>
      <trkpt lat="44.38734808936715" lon="131.22921092435718">
        <ele>374.2</ele>
        <time>2026-09-18T12:29:11.000Z</time>
      </trkpt>
      <trkpt lat="44.38775167800486" lon="131.23010208830237">
        <ele>373</ele>
        <time>2026-09-18T12:29:21.000Z</time>
      </trkpt>
      <trkpt lat="44.38828971236944" lon="131.23071908019483">
        <ele>372.2</ele>
        <time>2026-09-18T12:29:31.000Z</time>
      </trkpt>
      <trkpt lat="44.3886440154165" lon="131.2309552822262">
        <ele>372.6</ele>
        <time>2026-09-18T12:29:37.000Z</time>
      </trkpt>
      <trkpt lat="44.38943803310394" lon="131.23114756308496">
        <ele>372.4</ele>
        <time>2026-09-18T12:29:50.000Z</time>
      </trkpt>
      <trkpt lat="44.390273205935955" lon="131.23129718005657">
        <ele>372.6</ele>
        <time>2026-09-18T12:30:04.000Z</time>
      </trkpt>
      <trkpt lat="44.39093277789652" lon="131.23177872039378">
        <ele>372.4</ele>
        <time>2026-09-18T12:30:16.000Z</time>
      </trkpt>
      <trkpt lat="44.39146569930017" lon="131.23255387879908">
        <ele>371.4</ele>
        <time>2026-09-18T12:30:27.000Z</time>
      </trkpt>
      <trkpt lat="44.39177021384239" lon="131.233441689983">
        <ele>370.4</ele>
        <time>2026-09-18T12:30:37.000Z</time>
      </trkpt>
      <trkpt lat="44.39195838756859" lon="131.2348215188831">
        <ele>369.2</ele>
        <time>2026-09-18T12:30:53.000Z</time>
      </trkpt>
      <trkpt lat="44.3922618124634" lon="131.23572835698724">
        <ele>368.4</ele>
        <time>2026-09-18T12:31:04.000Z</time>
      </trkpt>
      <trkpt lat="44.39289506524801" lon="131.2366804573685">
        <ele>367</ele>
        <time>2026-09-18T12:31:18.000Z</time>
      </trkpt>
      <trkpt lat="44.39335967414081" lon="131.2375013809651">
        <ele>366</ele>
        <time>2026-09-18T12:31:29.000Z</time>
      </trkpt>
      <trkpt lat="44.393611466512084" lon="131.23850687406957">
        <ele>365</ele>
        <time>2026-09-18T12:31:40.000Z</time>
      </trkpt>
      <trkpt lat="44.39362999051809" lon="131.23956232331693">
        <ele>363.8</ele>
        <time>2026-09-18T12:31:51.000Z</time>
      </trkpt>
      <trkpt lat="44.39332455396652" lon="131.24081902205944">
        <ele>362.6</ele>
        <time>2026-09-18T12:32:05.000Z</time>
      </trkpt>
      <trkpt lat="44.39320343546569" lon="131.24175729230046">
        <ele>361.6</ele>
        <time>2026-09-18T12:32:15.000Z</time>
      </trkpt>
      <trkpt lat="44.39330619759858" lon="131.2427944689989">
        <ele>360.2</ele>
        <time>2026-09-18T12:32:26.000Z</time>
      </trkpt>
      <trkpt lat="44.393674666062" lon="131.24379920773208">
        <ele>360</ele>
        <time>2026-09-18T12:32:39.000Z</time>
      </trkpt>
      <trkpt lat="44.39439257606864" lon="131.2447519786656">
        <ele>359.8</ele>
        <time>2026-09-18T12:32:54.000Z</time>
      </trkpt>
      <trkpt lat="44.39499297179282" lon="131.24563132412732">
        <ele>359</ele>
        <time>2026-09-18T12:33:08.000Z</time>
      </trkpt>
      <trkpt lat="44.39537082798779" lon="131.24675751663744">
        <ele>357.8</ele>
        <time>2026-09-18T12:33:21.000Z</time>
      </trkpt>
      <trkpt lat="44.39574742689729" lon="131.2480624113232">
        <ele>357</ele>
        <time>2026-09-18T12:33:37.000Z</time>
      </trkpt>
      <trkpt lat="44.39583057537675" lon="131.24910696409643">
        <ele>355.8</ele>
        <time>2026-09-18T12:33:49.000Z</time>
      </trkpt>
      <trkpt lat="44.395678360015154" lon="131.25034279190004">
        <ele>354.6</ele>
        <time>2026-09-18T12:34:04.000Z</time>
      </trkpt>
      <trkpt lat="44.395665200427175" lon="131.25137351453304">
        <ele>354</ele>
        <time>2026-09-18T12:34:17.000Z</time>
      </trkpt>
      <trkpt lat="44.39584172330797" lon="131.25267522409558">
        <ele>353</ele>
        <time>2026-09-18T12:34:33.000Z</time>
      </trkpt>
      <trkpt lat="44.39601732417941" lon="131.25405488535762">
        <ele>351.6</ele>
        <time>2026-09-18T12:34:49.000Z</time>
      </trkpt>
      <trkpt lat="44.39620491117239" lon="131.2554904539138">
        <ele>350.2</ele>
        <time>2026-09-18T12:35:05.000Z</time>
      </trkpt>
      <trkpt lat="44.396412782371044" lon="131.2571073230356">
        <ele>348.6</ele>
        <time>2026-09-18T12:35:21.000Z</time>
      </trkpt>
      <trkpt lat="44.39640708267689" lon="131.2581512890756">
        <ele>347.6</ele>
        <time>2026-09-18T12:35:33.000Z</time>
      </trkpt>
      <trkpt lat="44.396139616146684" lon="131.25921545550227">
        <ele>346.6</ele>
        <time>2026-09-18T12:35:45.000Z</time>
      </trkpt>
      <trkpt lat="44.39564256928861" lon="131.26006429083645">
        <ele>345.6</ele>
        <time>2026-09-18T12:35:57.000Z</time>
      </trkpt>
      <trkpt lat="44.39494175836444" lon="131.26065890304744">
        <ele>344.6</ele>
        <time>2026-09-18T12:36:10.000Z</time>
      </trkpt>
      <trkpt lat="44.39418688416481" lon="131.26089300960302">
        <ele>343.4</ele>
        <time>2026-09-18T12:36:22.000Z</time>
      </trkpt>
      <trkpt lat="44.3934724945575" lon="131.26077381893992">
        <ele>342.2</ele>
        <time>2026-09-18T12:36:33.000Z</time>
      </trkpt>
      <trkpt lat="44.392630364745855" lon="131.26024366356432">
        <ele>341</ele>
        <time>2026-09-18T12:36:47.000Z</time>
      </trkpt>
      <trkpt lat="44.391638869419694" lon="131.2595094088465">
        <ele>339.4</ele>
        <time>2026-09-18T12:37:03.000Z</time>
      </trkpt>
      <trkpt lat="44.39068626612425" lon="131.2588029820472">
        <ele>337.4</ele>
        <time>2026-09-18T12:37:17.000Z</time>
      </trkpt>
      <trkpt lat="44.38990171998739" lon="131.25840408727527">
        <ele>336.2</ele>
        <time>2026-09-18T12:37:28.000Z</time>
      </trkpt>
      <trkpt lat="44.3888755235821" lon="131.25841758213937">
        <ele>335.2</ele>
        <time>2026-09-18T12:37:41.000Z</time>
      </trkpt>
      <trkpt lat="44.38762502744794" lon="131.2585627567023">
        <ele>333.2</ele>
        <time>2026-09-18T12:37:58.000Z</time>
      </trkpt>
      <trkpt lat="44.38641233369708" lon="131.25870198011398">
        <ele>331.2</ele>
        <time>2026-09-18T12:38:14.000Z</time>
      </trkpt>
      <trkpt lat="44.38554706983268" lon="131.25896106474102">
        <ele>329.8</ele>
        <time>2026-09-18T12:38:29.000Z</time>
      </trkpt>
      <trkpt lat="44.384965701028705" lon="131.25946490094066">
        <ele>328.8</ele>
        <time>2026-09-18T12:38:45.000Z</time>
      </trkpt>
      <trkpt lat="44.38459329307079" lon="131.2600358761847">
        <ele>327.8</ele>
        <time>2026-09-18T12:39:01.000Z</time>
      </trkpt>
      <trkpt lat="44.38430570997298" lon="131.26083500683308">
        <ele>326.8</ele>
        <time>2026-09-18T12:39:17.000Z</time>
      </trkpt>
      <trkpt lat="44.38418668694794" lon="131.26176514662802">
        <ele>325.8</ele>
        <time>2026-09-18T12:39:33.000Z</time>
      </trkpt>
      <trkpt lat="44.38425240106881" lon="131.26264239661396">
        <ele>325</ele>
        <time>2026-09-18T12:39:49.000Z</time>
      </trkpt>
      <trkpt lat="44.38448667526245" lon="131.2634781561792">
        <ele>324.6</ele>
        <time>2026-09-18T12:40:05.000Z</time>
      </trkpt>
      <trkpt lat="44.38488230109215" lon="131.26419950276613">
        <ele>324</ele>
        <time>2026-09-18T12:40:22.000Z</time>
      </trkpt>
      <trkpt lat="44.385387897491455" lon="131.26474717631936">
        <ele>323</ele>
        <time>2026-09-18T12:40:37.000Z</time>
      </trkpt>
      <trkpt lat="44.386025089770555" lon="131.26514649018645">
        <ele>321.8</ele>
        <time>2026-09-18T12:40:53.000Z</time>
      </trkpt>
      <trkpt lat="44.38667728565633" lon="131.26528604887426">
        <ele>321.2</ele>
        <time>2026-09-18T12:41:09.000Z</time>
      </trkpt>
      <trkpt lat="44.38733476214111" lon="131.2651645950973">
        <ele>320.8</ele>
        <time>2026-09-18T12:41:25.000Z</time>
      </trkpt>
      <trkpt lat="44.38795586116612" lon="131.2650192528963">
        <ele>320.6</ele>
        <time>2026-09-18T12:41:41.000Z</time>
      </trkpt>
      <trkpt lat="44.38853940926492" lon="131.26498497091234">
        <ele>320.6</ele>
        <time>2026-09-18T12:41:57.000Z</time>
      </trkpt>
      <trkpt lat="44.38887091353536" lon="131.26502537168562">
        <ele>320.4</ele>
        <time>2026-09-18T12:42:13.000Z</time>
      </trkpt>
      <trkpt lat="44.39882341772318" lon="131.27593399956822">
        <ele>321.6</ele>
        <time>2026-09-18T13:03:42.000Z</time>
      </trkpt>
      <trkpt lat="44.399162884801626" lon="131.27680521458387">
        <ele>320.8</ele>
        <time>2026-09-18T13:03:55.000Z</time>
      </trkpt>
      <trkpt lat="44.39928567968309" lon="131.27786552533507">
        <ele>319.6</ele>
        <time>2026-09-18T13:04:08.000Z</time>
      </trkpt>
      <trkpt lat="44.39915969967842" lon="131.27927645109594">
        <ele>317.6</ele>
        <time>2026-09-18T13:04:25.000Z</time>
      </trkpt>
      <trkpt lat="44.399167159572244" lon="131.28042586147785">
        <ele>316.8</ele>
        <time>2026-09-18T13:04:39.000Z</time>
      </trkpt>
      <trkpt lat="44.39944988116622" lon="131.28161005675793">
        <ele>315.2</ele>
        <time>2026-09-18T13:04:55.000Z</time>
      </trkpt>
      <trkpt lat="44.399926057085395" lon="131.2825098540634">
        <ele>314.6</ele>
        <time>2026-09-18T13:05:11.000Z</time>
      </trkpt>
      <trkpt lat="44.40051496960223" lon="131.2831639777869">
        <ele>313.6</ele>
        <time>2026-09-18T13:05:26.000Z</time>
      </trkpt>
      <trkpt lat="44.401298090815544" lon="131.28379656001925">
        <ele>312.2</ele>
        <time>2026-09-18T13:05:42.000Z</time>
      </trkpt>
      <trkpt lat="44.40214952453971" lon="131.28450005315244">
        <ele>310.2</ele>
        <time>2026-09-18T13:05:58.000Z</time>
      </trkpt>
      <trkpt lat="44.4030116032809" lon="131.28521620295942">
        <ele>309</ele>
        <time>2026-09-18T13:06:14.000Z</time>
      </trkpt>
      <trkpt lat="44.40384216606617" lon="131.2859130743891">
        <ele>307.6</ele>
        <time>2026-09-18T13:06:30.000Z</time>
      </trkpt>
      <trkpt lat="44.404637860134244" lon="131.2866683676839">
        <ele>306.4</ele>
        <time>2026-09-18T13:06:46.000Z</time>
      </trkpt>
      <trkpt lat="44.405104983597994" lon="131.28755886107683">
        <ele>305.8</ele>
        <time>2026-09-18T13:07:00.000Z</time>
      </trkpt>
      <trkpt lat="44.40538787283003" lon="131.28868086263537">
        <ele>304.2</ele>
        <time>2026-09-18T13:07:15.000Z</time>
      </trkpt>
      <trkpt lat="44.40572398714721" lon="131.2898292671889">
        <ele>303.2</ele>
        <time>2026-09-18T13:07:31.000Z</time>
      </trkpt>
      <trkpt lat="44.40618432126939" lon="131.290902486071">
        <ele>302.4</ele>
        <time>2026-09-18T13:07:47.000Z</time>
      </trkpt>
      <trkpt lat="44.40669762901962" lon="131.29200001247227">
        <ele>301</ele>
        <time>2026-09-18T13:08:03.000Z</time>
      </trkpt>
      <trkpt lat="44.407230634242296" lon="131.2931335810572">
        <ele>299.4</ele>
        <time>2026-09-18T13:08:19.000Z</time>
      </trkpt>
      <trkpt lat="44.4077777210623" lon="131.29428542219102">
        <ele>298</ele>
        <time>2026-09-18T13:08:35.000Z</time>
      </trkpt>
      <trkpt lat="44.40824090503156" lon="131.29545067436993">
        <ele>296.8</ele>
        <time>2026-09-18T13:08:51.000Z</time>
      </trkpt>
      <trkpt lat="44.408419355750084" lon="131.29654057323933">
        <ele>296.2</ele>
        <time>2026-09-18T13:09:06.000Z</time>
      </trkpt>
      <trkpt lat="44.408380379900336" lon="131.2976195756346">
        <ele>295.6</ele>
        <time>2026-09-18T13:09:22.000Z</time>
      </trkpt>
      <trkpt lat="44.40815859474242" lon="131.29870838485658">
        <ele>294.4</ele>
        <time>2026-09-18T13:09:38.000Z</time>
      </trkpt>
      <trkpt lat="44.408033369109035" lon="131.29983206279576">
        <ele>293</ele>
        <time>2026-09-18T13:09:53.000Z</time>
      </trkpt>
      <trkpt lat="44.40816102549434" lon="131.30101198330522">
        <ele>291.6</ele>
        <time>2026-09-18T13:10:09.000Z</time>
      </trkpt>
      <trkpt lat="44.408467300236225" lon="131.30200414918363">
        <ele>291</ele>
        <time>2026-09-18T13:10:25.000Z</time>
      </trkpt>
      <trkpt lat="44.408699898049235" lon="131.3029203750193">
        <ele>290.6</ele>
        <time>2026-09-18T13:10:41.000Z</time>
      </trkpt>
      <trkpt lat="44.40877047367394" lon="131.3039637543261">
        <ele>290</ele>
        <time>2026-09-18T13:10:57.000Z</time>
      </trkpt>
      <trkpt lat="44.40865597687662" lon="131.3052079640329">
        <ele>288.8</ele>
        <time>2026-09-18T13:11:13.000Z</time>
      </trkpt>
      <trkpt lat="44.40863703377545" lon="131.30629492923617">
        <ele>287.6</ele>
        <time>2026-09-18T13:11:26.000Z</time>
      </trkpt>
      <trkpt lat="44.40884708426893" lon="131.30739438347518">
        <ele>286.4</ele>
        <time>2026-09-18T13:11:38.000Z</time>
      </trkpt>
      <trkpt lat="44.40935385413468" lon="131.3085258565843">
        <ele>285.2</ele>
        <time>2026-09-18T13:11:52.000Z</time>
      </trkpt>
      <trkpt lat="44.410077882930636" lon="131.30984500050545">
        <ele>283</ele>
        <time>2026-09-18T13:12:08.000Z</time>
      </trkpt>
      <trkpt lat="44.410639135167" lon="131.31097605451941">
        <ele>281.4</ele>
        <time>2026-09-18T13:12:21.000Z</time>
      </trkpt>
      <trkpt lat="44.41091565415263" lon="131.31212479434907">
        <ele>280.4</ele>
        <time>2026-09-18T13:12:33.000Z</time>
      </trkpt>
      <trkpt lat="44.41093518398702" lon="131.3133907970041">
        <ele>279</ele>
        <time>2026-09-18T13:12:46.000Z</time>
      </trkpt>
      <trkpt lat="44.41066931001842" lon="131.3148937560618">
        <ele>277</ele>
        <time>2026-09-18T13:13:02.000Z</time>
      </trkpt>
      <trkpt lat="44.41038491204381" lon="131.31637064740062">
        <ele>275.6</ele>
        <time>2026-09-18T13:13:18.000Z</time>
      </trkpt>
      <trkpt lat="44.41019288264215" lon="131.3176550064236">
        <ele>274.4</ele>
        <time>2026-09-18T13:13:32.000Z</time>
      </trkpt>
      <trkpt lat="44.41026127897203" lon="131.3188371900469">
        <ele>273</ele>
        <time>2026-09-18T13:13:45.000Z</time>
      </trkpt>
      <trkpt lat="44.410473089665174" lon="131.3202331122011">
        <ele>271.8</ele>
        <time>2026-09-18T13:14:01.000Z</time>
      </trkpt>
      <trkpt lat="44.410443333908916" lon="131.3214059919119">
        <ele>270.8</ele>
        <time>2026-09-18T13:14:15.000Z</time>
      </trkpt>
      <trkpt lat="44.410213166847825" lon="131.32269487716258">
        <ele>269.2</ele>
        <time>2026-09-18T13:14:31.000Z</time>
      </trkpt>
      <trkpt lat="44.41020076163113" lon="131.32383749820292">
        <ele>268.2</ele>
        <time>2026-09-18T13:14:45.000Z</time>
      </trkpt>
      <trkpt lat="44.410463282838464" lon="131.32501096464694">
        <ele>266.8</ele>
        <time>2026-09-18T13:15:00.000Z</time>
      </trkpt>
      <trkpt lat="44.41091297194362" lon="131.32614310830832">
        <ele>265.6</ele>
        <time>2026-09-18T13:15:16.000Z</time>
      </trkpt>
      <trkpt lat="44.411333659663796" lon="131.32726460695267">
        <ele>264.6</ele>
        <time>2026-09-18T13:15:32.000Z</time>
      </trkpt>
      <trkpt lat="44.411542201414704" lon="131.328428350389">
        <ele>263.4</ele>
        <time>2026-09-18T13:15:47.000Z</time>
      </trkpt>
      <trkpt lat="44.411492915824056" lon="131.32971178740263">
        <ele>262</ele>
        <time>2026-09-18T13:16:04.000Z</time>
      </trkpt>
      <trkpt lat="44.411370204761624" lon="131.33108105510473">
        <ele>260.8</ele>
        <time>2026-09-18T13:16:20.000Z</time>
      </trkpt>
      <trkpt lat="44.41150867380202" lon="131.33228469640017">
        <ele>259.4</ele>
        <time>2026-09-18T13:16:35.000Z</time>
      </trkpt>
      <trkpt lat="44.41184042952955" lon="131.33351985365152">
        <ele>258</ele>
        <time>2026-09-18T13:16:51.000Z</time>
      </trkpt>
      <trkpt lat="44.41211460158229" lon="131.33468762040138">
        <ele>257</ele>
        <time>2026-09-18T13:17:07.000Z</time>
      </trkpt>
      <trkpt lat="44.41217151470482" lon="131.33575656451285">
        <ele>256.4</ele>
        <time>2026-09-18T13:17:23.000Z</time>
      </trkpt>
      <trkpt lat="44.412035727873445" lon="131.3367705233395">
        <ele>256</ele>
        <time>2026-09-18T13:17:39.000Z</time>
      </trkpt>
      <trkpt lat="44.411738170310855" lon="131.33769982494414">
        <ele>255</ele>
        <time>2026-09-18T13:17:55.000Z</time>
      </trkpt>
      <trkpt lat="44.411480678245425" lon="131.33853466250002">
        <ele>254.6</ele>
        <time>2026-09-18T13:18:11.000Z</time>
      </trkpt>
      <trkpt lat="44.411363918334246" lon="131.3394051231444">
        <ele>254.8</ele>
        <time>2026-09-18T13:18:28.000Z</time>
      </trkpt>
      <trkpt lat="44.41138369962573" lon="131.3404868915677">
        <ele>254.4</ele>
        <time>2026-09-18T13:18:44.000Z</time>
      </trkpt>
      <trkpt lat="44.411433823406696" lon="131.34163160808384">
        <ele>253.6</ele>
        <time>2026-09-18T13:19:00.000Z</time>
      </trkpt>
      <trkpt lat="44.411482186987996" lon="131.34284782223403">
        <ele>252.8</ele>
        <time>2026-09-18T13:19:16.000Z</time>
      </trkpt>
      <trkpt lat="44.41153842955828" lon="131.34407342411578">
        <ele>252</ele>
        <time>2026-09-18T13:19:32.000Z</time>
      </trkpt>
      <trkpt lat="44.411586709320545" lon="131.34518989361823">
        <ele>251.4</ele>
        <time>2026-09-18T13:19:48.000Z</time>
      </trkpt>
      <trkpt lat="44.411638928577304" lon="131.34622036479414">
        <ele>251</ele>
        <time>2026-09-18T13:20:04.000Z</time>
      </trkpt>
      <trkpt lat="44.41173255443573" lon="131.34722761809826">
        <ele>250.4</ele>
        <time>2026-09-18T13:20:20.000Z</time>
      </trkpt>
      <trkpt lat="44.411922907456756" lon="131.3482441753149">
        <ele>249.6</ele>
        <time>2026-09-18T13:20:36.000Z</time>
      </trkpt>
      <trkpt lat="44.412215603515506" lon="131.3492577150464">
        <ele>249</ele>
        <time>2026-09-18T13:20:53.000Z</time>
      </trkpt>
      <trkpt lat="44.4125456828624" lon="131.35030126199126">
        <ele>248</ele>
        <time>2026-09-18T13:21:09.000Z</time>
      </trkpt>
      <trkpt lat="44.412771156057715" lon="131.35121757164598">
        <ele>247.4</ele>
        <time>2026-09-18T13:21:25.000Z</time>
      </trkpt>
      <trkpt lat="44.41291021183133" lon="131.35210555046797">
        <ele>247</ele>
        <time>2026-09-18T13:21:41.000Z</time>
      </trkpt>
      <trkpt lat="44.41297508776188" lon="131.35303124785423">
        <ele>246.6</ele>
        <time>2026-09-18T13:21:57.000Z</time>
      </trkpt>
      <trkpt lat="44.412972405552864" lon="131.35398452170193">
        <ele>246</ele>
        <time>2026-09-18T13:22:13.000Z</time>
      </trkpt>
      <trkpt lat="44.412966119125485" lon="131.35493570007384">
        <ele>245.4</ele>
        <time>2026-09-18T13:22:29.000Z</time>
      </trkpt>
      <trkpt lat="44.412983218207955" lon="131.35583692230284">
        <ele>245</ele>
        <time>2026-09-18T13:22:45.000Z</time>
      </trkpt>
      <trkpt lat="44.41294047050178" lon="131.3567864242941">
        <ele>244.6</ele>
        <time>2026-09-18T13:23:01.000Z</time>
      </trkpt>
      <trkpt lat="44.412934267893434" lon="131.3578712940216">
        <ele>243.8</ele>
        <time>2026-09-18T13:23:18.000Z</time>
      </trkpt>
      <trkpt lat="44.41291507333517" lon="131.35903847403824">
        <ele>242.8</ele>
        <time>2026-09-18T13:23:34.000Z</time>
      </trkpt>
      <trkpt lat="44.41289160400629" lon="131.3599829468876">
        <ele>242.4</ele>
        <time>2026-09-18T13:23:50.000Z</time>
      </trkpt>
      <trkpt lat="44.41285070031881" lon="131.3608003500849">
        <ele>242.4</ele>
        <time>2026-09-18T13:24:06.000Z</time>
      </trkpt>
      <trkpt lat="44.41275296732783" lon="131.36156771332026">
        <ele>242.8</ele>
        <time>2026-09-18T13:24:22.000Z</time>
      </trkpt>
      <trkpt lat="44.41267509944737" lon="131.36200952343643">
        <ele>242.6</ele>
        <time>2026-09-18T13:24:31.000Z</time>
      </trkpt>
      <trkpt lat="44.412455493584275" lon="131.3628861028701">
        <ele>242.2</ele>
        <time>2026-09-18T13:24:47.000Z</time>
      </trkpt>
      <trkpt lat="44.412117870524526" lon="131.36383392848074">
        <ele>241.2</ele>
        <time>2026-09-18T13:25:03.000Z</time>
      </trkpt>
      <trkpt lat="44.41168628633022" lon="131.36470975354314">
        <ele>240</ele>
        <time>2026-09-18T13:25:19.000Z</time>
      </trkpt>
      <trkpt lat="44.41126241348684" lon="131.36548776179552">
        <ele>239.4</ele>
        <time>2026-09-18T13:25:36.000Z</time>
      </trkpt>
      <trkpt lat="44.41081046126783" lon="131.36630021966994">
        <ele>238.8</ele>
        <time>2026-09-18T13:25:52.000Z</time>
      </trkpt>
      <trkpt lat="44.41034099087119" lon="131.36715022847056">
        <ele>238.4</ele>
        <time>2026-09-18T13:26:08.000Z</time>
      </trkpt>
      <trkpt lat="44.40990312024951" lon="131.36794877238572">
        <ele>238.2</ele>
        <time>2026-09-18T13:26:24.000Z</time>
      </trkpt>
      <trkpt lat="44.409493915736675" lon="131.36868772096932">
        <ele>238.4</ele>
        <time>2026-09-18T13:26:40.000Z</time>
      </trkpt>
      <trkpt lat="44.409089824184775" lon="131.36941267177463">
        <ele>238.4</ele>
        <time>2026-09-18T13:26:56.000Z</time>
      </trkpt>
      <trkpt lat="44.40868883393705" lon="131.3701465073973">
        <ele>238</ele>
        <time>2026-09-18T13:27:12.000Z</time>
      </trkpt>
      <trkpt lat="44.408293794840574" lon="131.37087137438357">
        <ele>238</ele>
        <time>2026-09-18T13:27:28.000Z</time>
      </trkpt>
      <trkpt lat="44.407903868705034" lon="131.37158492580056">
        <ele>238</ele>
        <time>2026-09-18T13:27:44.000Z</time>
      </trkpt>
      <trkpt lat="44.40766129642725" lon="131.37203277088702">
        <ele>238.8</ele>
        <time>2026-09-18T13:27:54.000Z</time>
      </trkpt>
      <trkpt lat="44.40743112936616" lon="131.37244876474142">
        <ele>238</ele>
        <time>2026-09-18T13:28:04.000Z</time>
      </trkpt>
      <trkpt lat="44.40715159289539" lon="131.3729619886726">
        <ele>237.6</ele>
        <time>2026-09-18T13:28:20.000Z</time>
      </trkpt>
    </trkseg>
  </trk>
</gpx>