<?xml version="1.0" encoding="UTF-8"?>
<gpx creator="IGPSPORT" xmlns:xsi="http://www.w3.org/2001/XMLSchema-instance" schemaLocation="http://www.topografix.com/GPX/1/1 http://www.topografix.com/GPX/1/1/gpx.xsd" version="1.1" xmlns="http://www.topografix.com/GPX/1/1">
  <metadata>
    <time>2026-07-10T08:19:58.000Z</time>
    <link href="https://www.igpsport.cn/">
      <text>Велоспорт на свежем воздухе</text>
    </link>
  </metadata>
  <trk>
    <name>Велоспорт на свежем воздухе</name>
    <trkseg>
      <trkpt lat="52.507158955559134" lon="71.71216727234423">
        <ele>0</ele>
        <time>2026-07-10T08:19:58.000Z</time>
      </trkpt>
      <trkpt lat="52.5071969255805" lon="71.71210365369916">
        <ele>285.8</ele>
        <time>2026-07-10T08:22:07.000Z</time>
      </trkpt>
      <trkpt lat="52.50725551508367" lon="71.71204263344407">
        <ele>285.6</ele>
        <time>2026-07-10T08:24:37.000Z</time>
      </trkpt>
      <trkpt lat="52.50731653533876" lon="71.71195009723306">
        <ele>285.6</ele>
        <time>2026-07-10T08:24:47.000Z</time>
      </trkpt>
      <trkpt lat="52.50741862691939" lon="71.71185370534658">
        <ele>285.6</ele>
        <time>2026-07-10T08:25:02.000Z</time>
      </trkpt>
      <trkpt lat="52.507478976622224" lon="71.71170341782272">
        <ele>285.8</ele>
        <time>2026-07-10T08:25:15.000Z</time>
      </trkpt>
      <trkpt lat="52.50754276290536" lon="71.71147861517966">
        <ele>285.4</ele>
        <time>2026-07-10T08:25:31.000Z</time>
      </trkpt>
      <trkpt lat="52.50765617005527" lon="71.71129245311022">
        <ele>285.2</ele>
        <time>2026-07-10T08:25:47.000Z</time>
      </trkpt>
      <trkpt lat="52.507735127583146" lon="71.71117519028485">
        <ele>284.8</ele>
        <time>2026-07-10T08:25:58.000Z</time>
      </trkpt>
      <trkpt lat="52.50775088556111" lon="71.71111769042909">
        <ele>284.8</ele>
        <time>2026-07-10T08:26:02.000Z</time>
      </trkpt>
      <trkpt lat="52.507782317698" lon="71.71100495383143">
        <ele>284.8</ele>
        <time>2026-07-10T08:26:10.000Z</time>
      </trkpt>
      <trkpt lat="52.50786781311035" lon="71.71080630272627">
        <ele>284.8</ele>
        <time>2026-07-10T08:26:26.000Z</time>
      </trkpt>
      <trkpt lat="52.5079863332212" lon="71.71071192249656">
        <ele>284.8</ele>
        <time>2026-07-10T08:26:39.000Z</time>
      </trkpt>
      <trkpt lat="52.50800209119916" lon="71.7105177976191">
        <ele>285.2</ele>
        <time>2026-07-10T08:26:53.000Z</time>
      </trkpt>
      <trkpt lat="52.508153384551406" lon="71.71047789976001">
        <ele>285.2</ele>
        <time>2026-07-10T08:27:10.000Z</time>
      </trkpt>
      <trkpt lat="52.50833007507026" lon="71.71027170494199">
        <ele>284.4</ele>
        <time>2026-07-10T08:27:42.000Z</time>
      </trkpt>
      <trkpt lat="52.50841221772134" lon="71.71013625338674">
        <ele>284.4</ele>
        <time>2026-07-10T08:28:19.000Z</time>
      </trkpt>
      <trkpt lat="52.50855311751366" lon="71.71010230667889">
        <ele>284</ele>
        <time>2026-07-10T08:28:35.000Z</time>
      </trkpt>
      <trkpt lat="52.508644899353385" lon="71.71017162501812">
        <ele>284.6</ele>
        <time>2026-07-10T08:28:48.000Z</time>
      </trkpt>
      <trkpt lat="52.508671302348375" lon="71.71029953286052">
        <ele>284.6</ele>
        <time>2026-07-10T08:29:07.000Z</time>
      </trkpt>
      <trkpt lat="52.50869393348694" lon="71.71037010848522">
        <ele>284.6</ele>
        <time>2026-07-10T08:29:09.000Z</time>
      </trkpt>
      <trkpt lat="52.50873458571732" lon="71.71048410236835">
        <ele>284.4</ele>
        <time>2026-07-10T08:29:12.000Z</time>
      </trkpt>
      <trkpt lat="52.50881312415004" lon="71.71078677289188">
        <ele>284.4</ele>
        <time>2026-07-10T08:29:19.000Z</time>
      </trkpt>
      <trkpt lat="52.50883382745087" lon="71.71087947674096">
        <ele>284.2</ele>
        <time>2026-07-10T08:29:22.000Z</time>
      </trkpt>
      <trkpt lat="52.508870707824826" lon="71.7110603582114">
        <ele>284.2</ele>
        <time>2026-07-10T08:29:26.000Z</time>
      </trkpt>
      <trkpt lat="52.508893590420485" lon="71.71116228215396">
        <ele>284.2</ele>
        <time>2026-07-10T08:29:28.000Z</time>
      </trkpt>
      <trkpt lat="52.509029461070895" lon="71.71179997734725">
        <ele>284.2</ele>
        <time>2026-07-10T08:29:40.000Z</time>
      </trkpt>
      <trkpt lat="52.50905653461814" lon="71.71191765926778">
        <ele>284.2</ele>
        <time>2026-07-10T08:29:42.000Z</time>
      </trkpt>
      <trkpt lat="52.509193075820804" lon="71.71246709302068">
        <ele>284</ele>
        <time>2026-07-10T08:29:51.000Z</time>
      </trkpt>
      <trkpt lat="52.50922333449125" lon="71.71259650960565">
        <ele>283.8</ele>
        <time>2026-07-10T08:29:53.000Z</time>
      </trkpt>
      <trkpt lat="52.50925166532397" lon="71.71273162588477">
        <ele>283.8</ele>
        <time>2026-07-10T08:29:55.000Z</time>
      </trkpt>
      <trkpt lat="52.50928083434701" lon="71.71287235803902">
        <ele>283.6</ele>
        <time>2026-07-10T08:29:57.000Z</time>
      </trkpt>
      <trkpt lat="52.509315283969045" lon="71.71302080154419">
        <ele>283.2</ele>
        <time>2026-07-10T08:29:59.000Z</time>
      </trkpt>
      <trkpt lat="52.509360294789076" lon="71.71317846514285">
        <ele>282.8</ele>
        <time>2026-07-10T08:30:01.000Z</time>
      </trkpt>
      <trkpt lat="52.50941067002714" lon="71.71334610320628">
        <ele>282.6</ele>
        <time>2026-07-10T08:30:03.000Z</time>
      </trkpt>
      <trkpt lat="52.50971761532128" lon="71.71466130763292">
        <ele>281.6</ele>
        <time>2026-07-10T08:30:19.000Z</time>
      </trkpt>
      <trkpt lat="52.509827418252826" lon="71.7151964083314">
        <ele>281.4</ele>
        <time>2026-07-10T08:30:26.000Z</time>
      </trkpt>
      <trkpt lat="52.51001559197903" lon="71.71595337800682">
        <ele>281.2</ele>
        <time>2026-07-10T08:30:35.000Z</time>
      </trkpt>
      <trkpt lat="52.51027626916766" lon="71.7170818336308">
        <ele>281.2</ele>
        <time>2026-07-10T08:30:51.000Z</time>
      </trkpt>
      <trkpt lat="52.51049998216331" lon="71.71805706806481">
        <ele>281.2</ele>
        <time>2026-07-10T08:31:07.000Z</time>
      </trkpt>
      <trkpt lat="52.510765017941594" lon="71.71911821700633">
        <ele>281</ele>
        <time>2026-07-10T08:31:23.000Z</time>
      </trkpt>
      <trkpt lat="52.51092310063541" lon="71.71992179006338">
        <ele>281</ele>
        <time>2026-07-10T08:31:39.000Z</time>
      </trkpt>
      <trkpt lat="52.51110817305744" lon="71.72073441557586">
        <ele>281</ele>
        <time>2026-07-10T08:36:03.000Z</time>
      </trkpt>
      <trkpt lat="52.51114211976528" lon="71.72160990536213">
        <ele>280.8</ele>
        <time>2026-07-10T08:36:18.000Z</time>
      </trkpt>
      <trkpt lat="52.511028964072466" lon="71.72258740291">
        <ele>281</ele>
        <time>2026-07-10T08:36:35.000Z</time>
      </trkpt>
      <trkpt lat="52.51085629686713" lon="71.72345048747957">
        <ele>281.2</ele>
        <time>2026-07-10T08:36:51.000Z</time>
      </trkpt>
      <trkpt lat="52.51066317781806" lon="71.72438498586416">
        <ele>281.6</ele>
        <time>2026-07-10T08:37:07.000Z</time>
      </trkpt>
      <trkpt lat="52.510462095960975" lon="71.72533180564642">
        <ele>282</ele>
        <time>2026-07-10T08:37:23.000Z</time>
      </trkpt>
      <trkpt lat="52.51037249341607" lon="71.72568761743605">
        <ele>282</ele>
        <time>2026-07-10T08:37:34.000Z</time>
      </trkpt>
      <trkpt lat="52.51022991724312" lon="71.72640879638493">
        <ele>282.4</ele>
        <time>2026-07-10T08:38:16.000Z</time>
      </trkpt>
      <trkpt lat="52.51005096361041" lon="71.72724799253047">
        <ele>282.8</ele>
        <time>2026-07-10T08:38:32.000Z</time>
      </trkpt>
      <trkpt lat="52.50985507853329" lon="71.7281839158386">
        <ele>282.8</ele>
        <time>2026-07-10T08:38:48.000Z</time>
      </trkpt>
      <trkpt lat="52.50964745879173" lon="71.72917440533638">
        <ele>283</ele>
        <time>2026-07-10T08:39:05.000Z</time>
      </trkpt>
      <trkpt lat="52.50944268889725" lon="71.73017570748925">
        <ele>283.4</ele>
        <time>2026-07-10T08:39:21.000Z</time>
      </trkpt>
      <trkpt lat="52.509224424138665" lon="71.73122026026249">
        <ele>283.6</ele>
        <time>2026-07-10T08:39:37.000Z</time>
      </trkpt>
      <trkpt lat="52.50900783576071" lon="71.73222349025309">
        <ele>283.8</ele>
        <time>2026-07-10T08:39:53.000Z</time>
      </trkpt>
      <trkpt lat="52.508784122765064" lon="71.73327340744436">
        <ele>284</ele>
        <time>2026-07-10T08:40:09.000Z</time>
      </trkpt>
      <trkpt lat="52.50864188186824" lon="71.73396659083664">
        <ele>284</ele>
        <time>2026-07-10T08:40:22.000Z</time>
      </trkpt>
      <trkpt lat="52.50845546834171" lon="71.73485993407667">
        <ele>284.4</ele>
        <time>2026-07-10T08:40:38.000Z</time>
      </trkpt>
      <trkpt lat="52.508248686790466" lon="71.7358111962676">
        <ele>284.6</ele>
        <time>2026-07-10T08:40:54.000Z</time>
      </trkpt>
      <trkpt lat="52.50807157717645" lon="71.73669456504285">
        <ele>285</ele>
        <time>2026-07-10T08:41:09.000Z</time>
      </trkpt>
      <trkpt lat="52.50787259079516" lon="71.73765487968922">
        <ele>285.4</ele>
        <time>2026-07-10T08:41:26.000Z</time>
      </trkpt>
      <trkpt lat="52.50767318531871" lon="71.73863405361772">
        <ele>285.8</ele>
        <time>2026-07-10T08:41:42.000Z</time>
      </trkpt>
      <trkpt lat="52.50746330246329" lon="71.7395917698741">
        <ele>286</ele>
        <time>2026-07-10T08:41:58.000Z</time>
      </trkpt>
      <trkpt lat="52.507259622216225" lon="71.74055811949074">
        <ele>286.8</ele>
        <time>2026-07-10T08:42:14.000Z</time>
      </trkpt>
      <trkpt lat="52.50701847486198" lon="71.7415535543114">
        <ele>287</ele>
        <time>2026-07-10T08:42:30.000Z</time>
      </trkpt>
      <trkpt lat="52.506707003340125" lon="71.74254002049565">
        <ele>287.2</ele>
        <time>2026-07-10T08:42:46.000Z</time>
      </trkpt>
      <trkpt lat="52.5063889939338" lon="71.74345532432199">
        <ele>287.4</ele>
        <time>2026-07-10T08:43:02.000Z</time>
      </trkpt>
      <trkpt lat="52.506062015891075" lon="71.74443525262177">
        <ele>287.6</ele>
        <time>2026-07-10T08:43:18.000Z</time>
      </trkpt>
      <trkpt lat="52.50571676529944" lon="71.74548835493624">
        <ele>287.8</ele>
        <time>2026-07-10T08:43:34.000Z</time>
      </trkpt>
      <trkpt lat="52.50541543588042" lon="71.7464333306998">
        <ele>288.2</ele>
        <time>2026-07-10T08:43:51.000Z</time>
      </trkpt>
      <trkpt lat="52.50520966015756" lon="71.74721846356988">
        <ele>289</ele>
        <time>2026-07-10T08:44:06.000Z</time>
      </trkpt>
      <trkpt lat="52.50508946366608" lon="71.7479233816266">
        <ele>289.6</ele>
        <time>2026-07-10T08:44:19.000Z</time>
      </trkpt>
      <trkpt lat="52.50502056442201" lon="71.74831490032375">
        <ele>290</ele>
        <time>2026-07-10T08:44:27.000Z</time>
      </trkpt>
      <trkpt lat="52.50500715337694" lon="71.74840668216348">
        <ele>290.2</ele>
        <time>2026-07-10T08:44:29.000Z</time>
      </trkpt>
      <trkpt lat="52.50489600934088" lon="71.7490946687758">
        <ele>291.2</ele>
        <time>2026-07-10T08:44:45.000Z</time>
      </trkpt>
      <trkpt lat="52.504777824506164" lon="71.74988759681582">
        <ele>291.8</ele>
        <time>2026-07-10T08:45:01.000Z</time>
      </trkpt>
      <trkpt lat="52.504666512832046" lon="71.75062763504684">
        <ele>292.4</ele>
        <time>2026-07-10T08:45:17.000Z</time>
      </trkpt>
      <trkpt lat="52.50454505905509" lon="71.75141360610723">
        <ele>292.4</ele>
        <time>2026-07-10T08:45:33.000Z</time>
      </trkpt>
      <trkpt lat="52.5044097751379" lon="71.75223637372255">
        <ele>292.4</ele>
        <time>2026-07-10T08:45:49.000Z</time>
      </trkpt>
      <trkpt lat="52.50427667051554" lon="71.75307255238295">
        <ele>292.4</ele>
        <time>2026-07-10T08:46:06.000Z</time>
      </trkpt>
      <trkpt lat="52.50413560308516" lon="71.7540198750794">
        <ele>292.6</ele>
        <time>2026-07-10T08:46:22.000Z</time>
      </trkpt>
      <trkpt lat="52.50402085483074" lon="71.754679530859">
        <ele>292.4</ele>
        <time>2026-07-10T08:46:32.000Z</time>
      </trkpt>
      <trkpt lat="52.5039348565042" lon="71.7552559543401">
        <ele>292.6</ele>
        <time>2026-07-10T08:46:41.000Z</time>
      </trkpt>
      <trkpt lat="52.50378951430321" lon="71.7561957333237">
        <ele>294.2</ele>
        <time>2026-07-10T08:46:57.000Z</time>
      </trkpt>
      <trkpt lat="52.50365758314729" lon="71.75701632164419">
        <ele>295.4</ele>
        <time>2026-07-10T08:47:13.000Z</time>
      </trkpt>
      <trkpt lat="52.5035016797483" lon="71.75794838927686">
        <ele>296.4</ele>
        <time>2026-07-10T08:47:29.000Z</time>
      </trkpt>
      <trkpt lat="52.5033616181463" lon="71.75878188572824">
        <ele>297.2</ele>
        <time>2026-07-10T08:47:45.000Z</time>
      </trkpt>
      <trkpt lat="52.50319741666317" lon="71.75979802384973">
        <ele>296.8</ele>
        <time>2026-07-10T08:48:01.000Z</time>
      </trkpt>
      <trkpt lat="52.50301267951727" lon="71.76092530600727">
        <ele>296.2</ele>
        <time>2026-07-10T08:48:17.000Z</time>
      </trkpt>
      <trkpt lat="52.50282718800008" lon="71.76207890734076">
        <ele>295.8</ele>
        <time>2026-07-10T08:48:34.000Z</time>
      </trkpt>
      <trkpt lat="52.502669524401426" lon="71.76304383203387">
        <ele>296</ele>
        <time>2026-07-10T08:48:50.000Z</time>
      </trkpt>
      <trkpt lat="52.50251278281212" lon="71.76402627490461">
        <ele>296</ele>
        <time>2026-07-10T08:49:06.000Z</time>
      </trkpt>
      <trkpt lat="52.5023602321744" lon="71.76497175358236">
        <ele>296.6</ele>
        <time>2026-07-10T08:49:22.000Z</time>
      </trkpt>
      <trkpt lat="52.502235090360045" lon="71.76576811820269">
        <ele>297</ele>
        <time>2026-07-10T08:49:38.000Z</time>
      </trkpt>
      <trkpt lat="52.50209201127291" lon="71.76669172011316">
        <ele>297.2</ele>
        <time>2026-07-10T08:49:54.000Z</time>
      </trkpt>
      <trkpt lat="52.50193426385522" lon="71.76761322654784">
        <ele>298</ele>
        <time>2026-07-10T08:50:10.000Z</time>
      </trkpt>
      <trkpt lat="52.501789424568415" lon="71.76854956895113">
        <ele>298.2</ele>
        <time>2026-07-10T08:50:26.000Z</time>
      </trkpt>
      <trkpt lat="52.501638885587454" lon="71.76946403458714">
        <ele>298.6</ele>
        <time>2026-07-10T08:50:42.000Z</time>
      </trkpt>
      <trkpt lat="52.50149597413838" lon="71.77036316134036">
        <ele>298.8</ele>
        <time>2026-07-10T08:50:59.000Z</time>
      </trkpt>
      <trkpt lat="52.501344764605165" lon="71.77128232084215">
        <ele>299.2</ele>
        <time>2026-07-10T08:51:15.000Z</time>
      </trkpt>
      <trkpt lat="52.501189364120364" lon="71.77221162244678">
        <ele>299.6</ele>
        <time>2026-07-10T08:51:31.000Z</time>
      </trkpt>
      <trkpt lat="52.50103371217847" lon="71.7731274291873">
        <ele>300.2</ele>
        <time>2026-07-10T08:51:47.000Z</time>
      </trkpt>
      <trkpt lat="52.50087847933173" lon="71.77409327588975">
        <ele>300.6</ele>
        <time>2026-07-10T08:52:03.000Z</time>
      </trkpt>
      <trkpt lat="52.500815112143755" lon="71.77506683394313">
        <ele>300.8</ele>
        <time>2026-07-10T08:52:19.000Z</time>
      </trkpt>
      <trkpt lat="52.500857189297676" lon="71.77604676224291">
        <ele>301.2</ele>
        <time>2026-07-10T08:52:35.000Z</time>
      </trkpt>
      <trkpt lat="52.500927010551095" lon="71.7770314682275">
        <ele>301.6</ele>
        <time>2026-07-10T08:52:51.000Z</time>
      </trkpt>
      <trkpt lat="52.50100705772638" lon="71.77800578065217">
        <ele>302</ele>
        <time>2026-07-10T08:53:07.000Z</time>
      </trkpt>
      <trkpt lat="52.501092720776796" lon="71.7789914086461">
        <ele>302.4</ele>
        <time>2026-07-10T08:53:24.000Z</time>
      </trkpt>
      <trkpt lat="52.5011704210192" lon="71.77985466085374">
        <ele>303</ele>
        <time>2026-07-10T08:53:40.000Z</time>
      </trkpt>
      <trkpt lat="52.50121107324958" lon="71.78036386147141">
        <ele>303.8</ele>
        <time>2026-07-10T08:53:51.000Z</time>
      </trkpt>
      <trkpt lat="52.501268070191145" lon="71.7809172347188">
        <ele>304.6</ele>
        <time>2026-07-10T08:54:03.000Z</time>
      </trkpt>
      <trkpt lat="52.50133336521685" lon="71.78168811835349">
        <ele>305.4</ele>
        <time>2026-07-10T08:54:19.000Z</time>
      </trkpt>
      <trkpt lat="52.50139438547194" lon="71.7825248837471">
        <ele>305.8</ele>
        <time>2026-07-10T08:54:35.000Z</time>
      </trkpt>
      <trkpt lat="52.50146655365825" lon="71.78339073434472">
        <ele>306.2</ele>
        <time>2026-07-10T08:54:51.000Z</time>
      </trkpt>
      <trkpt lat="52.501539811491966" lon="71.78425717167556">
        <ele>306.2</ele>
        <time>2026-07-10T08:55:07.000Z</time>
      </trkpt>
      <trkpt lat="52.501607118174434" lon="71.78515411913395">
        <ele>306</ele>
        <time>2026-07-10T08:55:23.000Z</time>
      </trkpt>
      <trkpt lat="52.501678531989455" lon="71.78604469634593">
        <ele>306.4</ele>
        <time>2026-07-10T08:55:40.000Z</time>
      </trkpt>
      <trkpt lat="52.50174382701516" lon="71.78686159662902">
        <ele>306.8</ele>
        <time>2026-07-10T08:55:56.000Z</time>
      </trkpt>
      <trkpt lat="52.50181281007826" lon="71.78764027543366">
        <ele>307.2</ele>
        <time>2026-07-10T08:56:12.000Z</time>
      </trkpt>
      <trkpt lat="52.5018731597811" lon="71.7883875221014">
        <ele>307.6</ele>
        <time>2026-07-10T08:56:28.000Z</time>
      </trkpt>
      <trkpt lat="52.50194197520614" lon="71.78920643404126">
        <ele>308</ele>
        <time>2026-07-10T08:56:44.000Z</time>
      </trkpt>
      <trkpt lat="52.5020111259073" lon="71.79008695296943">
        <ele>308.4</ele>
        <time>2026-07-10T08:57:00.000Z</time>
      </trkpt>
      <trkpt lat="52.50205747783184" lon="71.79090100340545">
        <ele>308.6</ele>
        <time>2026-07-10T08:57:16.000Z</time>
      </trkpt>
      <trkpt lat="52.50203736126423" lon="71.79168622009456">
        <ele>309</ele>
        <time>2026-07-10T08:57:32.000Z</time>
      </trkpt>
      <trkpt lat="52.501997128129005" lon="71.79235652089119">
        <ele>309.4</ele>
        <time>2026-07-10T08:57:48.000Z</time>
      </trkpt>
      <trkpt lat="52.50194356776774" lon="71.79303620941937">
        <ele>310</ele>
        <time>2026-07-10T08:58:05.000Z</time>
      </trkpt>
      <trkpt lat="52.50189478509128" lon="71.79375411942601">
        <ele>311</ele>
        <time>2026-07-10T08:58:21.000Z</time>
      </trkpt>
      <trkpt lat="52.50182420946658" lon="71.79466330446303">
        <ele>310.4</ele>
        <time>2026-07-10T08:58:37.000Z</time>
      </trkpt>
      <trkpt lat="52.50176670961082" lon="71.79551809094846">
        <ele>310.2</ele>
        <time>2026-07-10T08:58:53.000Z</time>
      </trkpt>
      <trkpt lat="52.50170895829797" lon="71.79629827849567">
        <ele>310.4</ele>
        <time>2026-07-10T08:59:09.000Z</time>
      </trkpt>
      <trkpt lat="52.5016522128135" lon="71.79714560508728">
        <ele>311</ele>
        <time>2026-07-10T08:59:25.000Z</time>
      </trkpt>
      <trkpt lat="52.5015882588923" lon="71.79798656143248">
        <ele>311.2</ele>
        <time>2026-07-10T08:59:41.000Z</time>
      </trkpt>
      <trkpt lat="52.5015311781317" lon="71.79889197461307">
        <ele>311.4</ele>
        <time>2026-07-10T08:59:57.000Z</time>
      </trkpt>
      <trkpt lat="52.501471331343055" lon="71.79975992068648">
        <ele>311.8</ele>
        <time>2026-07-10T09:00:13.000Z</time>
      </trkpt>
      <trkpt lat="52.50141098164022" lon="71.8006239272654">
        <ele>312</ele>
        <time>2026-07-10T09:00:30.000Z</time>
      </trkpt>
      <trkpt lat="52.501354990527034" lon="71.80141618475318">
        <ele>312</ele>
        <time>2026-07-10T09:00:46.000Z</time>
      </trkpt>
      <trkpt lat="52.501313081011176" lon="71.80213736370206">
        <ele>312.6</ele>
        <time>2026-07-10T09:01:02.000Z</time>
      </trkpt>
      <trkpt lat="52.50125952064991" lon="71.8028965126723">
        <ele>313.4</ele>
        <time>2026-07-10T09:01:18.000Z</time>
      </trkpt>
      <trkpt lat="52.50121107324958" lon="71.80372380651534">
        <ele>313.6</ele>
        <time>2026-07-10T09:01:34.000Z</time>
      </trkpt>
      <trkpt lat="52.501149298623204" lon="71.80454473011196">
        <ele>313.6</ele>
        <time>2026-07-10T09:01:50.000Z</time>
      </trkpt>
      <trkpt lat="52.50113287009299" lon="71.80524411611259">
        <ele>313.4</ele>
        <time>2026-07-10T09:02:04.000Z</time>
      </trkpt>
      <trkpt lat="52.501397989690304" lon="71.8054597824812">
        <ele>312.6</ele>
        <time>2026-07-10T09:02:15.000Z</time>
      </trkpt>
      <trkpt lat="52.501478623598814" lon="71.80539817549288">
        <ele>313.4</ele>
        <time>2026-07-10T09:02:27.000Z</time>
      </trkpt>
      <trkpt lat="52.501124404370785" lon="71.80543346330523">
        <ele>313</ele>
        <time>2026-07-10T09:06:27.000Z</time>
      </trkpt>
      <trkpt lat="52.50104511156678" lon="71.80593109689653">
        <ele>313</ele>
        <time>2026-07-10T09:06:40.000Z</time>
      </trkpt>
      <trkpt lat="52.501001274213195" lon="71.8066596519202">
        <ele>312.8</ele>
        <time>2026-07-10T09:06:56.000Z</time>
      </trkpt>
      <trkpt lat="52.50098987482488" lon="71.80746641010046">
        <ele>312.8</ele>
        <time>2026-07-10T09:07:12.000Z</time>
      </trkpt>
      <trkpt lat="52.50103589147329" lon="71.80824651382864">
        <ele>312.8</ele>
        <time>2026-07-10T09:07:29.000Z</time>
      </trkpt>
      <trkpt lat="52.50107763335109" lon="71.80902678519487">
        <ele>312.6</ele>
        <time>2026-07-10T09:07:45.000Z</time>
      </trkpt>
      <trkpt lat="52.50112842768431" lon="71.8098165281117">
        <ele>312.8</ele>
        <time>2026-07-10T09:08:01.000Z</time>
      </trkpt>
      <trkpt lat="52.50118173658848" lon="71.8106334283948">
        <ele>312.8</ele>
        <time>2026-07-10T09:08:17.000Z</time>
      </trkpt>
      <trkpt lat="52.50122917816043" lon="71.81145611219108">
        <ele>312.6</ele>
        <time>2026-07-10T09:08:33.000Z</time>
      </trkpt>
      <trkpt lat="52.501277877017856" lon="71.81237066164613">
        <ele>312.2</ele>
        <time>2026-07-10T09:08:49.000Z</time>
      </trkpt>
      <trkpt lat="52.50133621506393" lon="71.81336676701903">
        <ele>311.6</ele>
        <time>2026-07-10T09:09:05.000Z</time>
      </trkpt>
      <trkpt lat="52.50139748677611" lon="71.81435013189912">
        <ele>311.4</ele>
        <time>2026-07-10T09:09:21.000Z</time>
      </trkpt>
      <trkpt lat="52.50146001577377" lon="71.81525831110775">
        <ele>311.2</ele>
        <time>2026-07-10T09:09:37.000Z</time>
      </trkpt>
      <trkpt lat="52.50152673572302" lon="71.81593732908368">
        <ele>311.2</ele>
        <time>2026-07-10T09:09:52.000Z</time>
      </trkpt>
      <trkpt lat="52.50154349952936" lon="71.81637788191438">
        <ele>311.2</ele>
        <time>2026-07-10T09:10:35.000Z</time>
      </trkpt>
      <trkpt lat="52.50156093388796" lon="71.81713887490332">
        <ele>311.4</ele>
        <time>2026-07-10T09:10:51.000Z</time>
      </trkpt>
      <trkpt lat="52.501603765413165" lon="71.81791939772666">
        <ele>311.4</ele>
        <time>2026-07-10T09:11:07.000Z</time>
      </trkpt>
      <trkpt lat="52.50165623612702" lon="71.81878692470491">
        <ele>311.4</ele>
        <time>2026-07-10T09:11:23.000Z</time>
      </trkpt>
      <trkpt lat="52.5017071980983" lon="71.81961673311889">
        <ele>311.4</ele>
        <time>2026-07-10T09:11:39.000Z</time>
      </trkpt>
      <trkpt lat="52.501763608306646" lon="71.82040002197027">
        <ele>311.4</ele>
        <time>2026-07-10T09:11:55.000Z</time>
      </trkpt>
      <trkpt lat="52.50180937349796" lon="71.82114282622933">
        <ele>311.4</ele>
        <time>2026-07-10T09:12:12.000Z</time>
      </trkpt>
      <trkpt lat="52.50186251476407" lon="71.82170240208507">
        <ele>311.6</ele>
        <time>2026-07-10T09:12:27.000Z</time>
      </trkpt>
      <trkpt lat="52.50188707374036" lon="71.82236281223595">
        <ele>311.4</ele>
        <time>2026-07-10T09:12:43.000Z</time>
      </trkpt>
      <trkpt lat="52.501932084560394" lon="71.82325062341988">
        <ele>311.6</ele>
        <time>2026-07-10T09:12:59.000Z</time>
      </trkpt>
      <trkpt lat="52.50199201516807" lon="71.82416785508394">
        <ele>311.4</ele>
        <time>2026-07-10T09:13:15.000Z</time>
      </trkpt>
      <trkpt lat="52.502047503367066" lon="71.82501811534166">
        <ele>311.8</ele>
        <time>2026-07-10T09:13:31.000Z</time>
      </trkpt>
      <trkpt lat="52.50210936181247" lon="71.82599469088018">
        <ele>311.4</ele>
        <time>2026-07-10T09:13:47.000Z</time>
      </trkpt>
      <trkpt lat="52.50215948559344" lon="71.82689138688147">
        <ele>311.2</ele>
        <time>2026-07-10T09:14:03.000Z</time>
      </trkpt>
      <trkpt lat="52.502215476706624" lon="71.82780836708844">
        <ele>311.2</ele>
        <time>2026-07-10T09:14:19.000Z</time>
      </trkpt>
      <trkpt lat="52.50227306038141" lon="71.8287755548954">
        <ele>310.8</ele>
        <time>2026-07-10T09:14:36.000Z</time>
      </trkpt>
      <trkpt lat="52.502333326265216" lon="71.82977476157248">
        <ele>310.6</ele>
        <time>2026-07-10T09:14:52.000Z</time>
      </trkpt>
      <trkpt lat="52.502390407025814" lon="71.83083297684789">
        <ele>310</ele>
        <time>2026-07-10T09:15:08.000Z</time>
      </trkpt>
      <trkpt lat="52.50245125964284" lon="71.83190728537738">
        <ele>309.6</ele>
        <time>2026-07-10T09:15:24.000Z</time>
      </trkpt>
      <trkpt lat="52.50251512974501" lon="71.8329340685159">
        <ele>309.8</ele>
        <time>2026-07-10T09:15:40.000Z</time>
      </trkpt>
      <trkpt lat="52.502570282667875" lon="71.8338662199676">
        <ele>309.6</ele>
        <time>2026-07-10T09:15:56.000Z</time>
      </trkpt>
      <trkpt lat="52.502624010667205" lon="71.83484681881964">
        <ele>309.8</ele>
        <time>2026-07-10T09:16:12.000Z</time>
      </trkpt>
      <trkpt lat="52.502680756151676" lon="71.83571325615048">
        <ele>309.8</ele>
        <time>2026-07-10T09:16:28.000Z</time>
      </trkpt>
      <trkpt lat="52.5027381721884" lon="71.83660559356213">
        <ele>309.8</ele>
        <time>2026-07-10T09:16:44.000Z</time>
      </trkpt>
      <trkpt lat="52.50278167426586" lon="71.83741679415107">
        <ele>310</ele>
        <time>2026-07-10T09:17:01.000Z</time>
      </trkpt>
      <trkpt lat="52.5027865357697" lon="71.8381833191961">
        <ele>309.8</ele>
        <time>2026-07-10T09:17:17.000Z</time>
      </trkpt>
      <trkpt lat="52.50268570147455" lon="71.83885336853564">
        <ele>310.2</ele>
        <time>2026-07-10T09:17:33.000Z</time>
      </trkpt>
      <trkpt lat="52.50245436094701" lon="71.83956557884812">
        <ele>310.6</ele>
        <time>2026-07-10T09:17:49.000Z</time>
      </trkpt>
      <trkpt lat="52.50214850530028" lon="71.84022087603807">
        <ele>311.4</ele>
        <time>2026-07-10T09:18:05.000Z</time>
      </trkpt>
      <trkpt lat="52.5018575694412" lon="71.84084407053888">
        <ele>311.6</ele>
        <time>2026-07-10T09:18:21.000Z</time>
      </trkpt>
      <trkpt lat="52.501557832583785" lon="71.84146776795387">
        <ele>311.8</ele>
        <time>2026-07-10T09:18:37.000Z</time>
      </trkpt>
      <trkpt lat="52.50138985924423" lon="71.8418032117188">
        <ele>311.8</ele>
        <time>2026-07-10T09:18:49.000Z</time>
      </trkpt>
      <trkpt lat="52.501072604209185" lon="71.8424813915044">
        <ele>311.8</ele>
        <time>2026-07-10T09:21:16.000Z</time>
      </trkpt>
      <trkpt lat="52.50079080462456" lon="71.84305639006197">
        <ele>312</ele>
        <time>2026-07-10T09:21:30.000Z</time>
      </trkpt>
      <trkpt lat="52.500602127984166" lon="71.84344698674977">
        <ele>311.8</ele>
        <time>2026-07-10T09:21:39.000Z</time>
      </trkpt>
      <trkpt lat="52.50023826956749" lon="71.84418962337077">
        <ele>311.2</ele>
        <time>2026-07-10T09:21:56.000Z</time>
      </trkpt>
      <trkpt lat="52.50016660429537" lon="71.84433781541884">
        <ele>311</ele>
        <time>2026-07-10T09:21:59.000Z</time>
      </trkpt>
      <trkpt lat="52.49983426183462" lon="71.84502990916371">
        <ele>311</ele>
        <time>2026-07-10T09:22:15.000Z</time>
      </trkpt>
      <trkpt lat="52.49947928823531" lon="71.84577229432762">
        <ele>310</ele>
        <time>2026-07-10T09:22:31.000Z</time>
      </trkpt>
      <trkpt lat="52.499113669618964" lon="71.8465363048017">
        <ele>309.2</ele>
        <time>2026-07-10T09:22:47.000Z</time>
      </trkpt>
      <trkpt lat="52.498686695471406" lon="71.8474293127656">
        <ele>308</ele>
        <time>2026-07-10T09:23:03.000Z</time>
      </trkpt>
      <trkpt lat="52.49818202108145" lon="71.84847051277757">
        <ele>306.2</ele>
        <time>2026-07-10T09:23:19.000Z</time>
      </trkpt>
      <trkpt lat="52.497703079134226" lon="71.84945940971375">
        <ele>305.2</ele>
        <time>2026-07-10T09:23:35.000Z</time>
      </trkpt>
      <trkpt lat="52.49726613052189" lon="71.85037588700652">
        <ele>304.8</ele>
        <time>2026-07-10T09:23:51.000Z</time>
      </trkpt>
      <trkpt lat="52.49685013666749" lon="71.85132279060781">
        <ele>304.6</ele>
        <time>2026-07-10T09:24:08.000Z</time>
      </trkpt>
      <trkpt lat="52.49656146392226" lon="71.85230925679207">
        <ele>304</ele>
        <time>2026-07-10T09:24:24.000Z</time>
      </trkpt>
      <trkpt lat="52.4963332246989" lon="71.85333645902574">
        <ele>304.6</ele>
        <time>2026-07-10T09:24:40.000Z</time>
      </trkpt>
      <trkpt lat="52.49612250365317" lon="71.85430289246142">
        <ele>305</ele>
        <time>2026-07-10T09:24:56.000Z</time>
      </trkpt>
      <trkpt lat="52.49590943567455" lon="71.85526655986905">
        <ele>305.2</ele>
        <time>2026-07-10T09:25:12.000Z</time>
      </trkpt>
      <trkpt lat="52.49572838656604" lon="71.856085723266">
        <ele>305.6</ele>
        <time>2026-07-10T09:25:28.000Z</time>
      </trkpt>
      <trkpt lat="52.495522778481245" lon="71.85698099434376">
        <ele>305.8</ele>
        <time>2026-07-10T09:25:44.000Z</time>
      </trkpt>
      <trkpt lat="52.49526880681515" lon="71.85802462510765">
        <ele>304.6</ele>
        <time>2026-07-10T09:26:00.000Z</time>
      </trkpt>
      <trkpt lat="52.495048362761736" lon="71.85857146047056">
        <ele>303.4</ele>
        <time>2026-07-10T09:26:16.000Z</time>
      </trkpt>
      <trkpt lat="52.4946634657681" lon="71.85926598496735">
        <ele>302.4</ele>
        <time>2026-07-10T09:28:34.000Z</time>
      </trkpt>
      <trkpt lat="52.49418913386762" lon="71.8600211944431">
        <ele>301.2</ele>
        <time>2026-07-10T09:28:51.000Z</time>
      </trkpt>
      <trkpt lat="52.49370139092207" lon="71.86083440668881">
        <ele>300.8</ele>
        <time>2026-07-10T09:29:07.000Z</time>
      </trkpt>
      <trkpt lat="52.493166625499725" lon="71.86172029003501">
        <ele>299.4</ele>
        <time>2026-07-10T09:29:23.000Z</time>
      </trkpt>
      <trkpt lat="52.492577293887734" lon="71.86268839985132">
        <ele>297.4</ele>
        <time>2026-07-10T09:29:39.000Z</time>
      </trkpt>
      <trkpt lat="52.49205862171948" lon="71.86353706754744">
        <ele>296.8</ele>
        <time>2026-07-10T09:29:55.000Z</time>
      </trkpt>
      <trkpt lat="52.49160231091082" lon="71.86429085209966">
        <ele>297</ele>
        <time>2026-07-10T09:30:11.000Z</time>
      </trkpt>
      <trkpt lat="52.4911733251065" lon="71.86498738825321">
        <ele>297.4</ele>
        <time>2026-07-10T09:30:27.000Z</time>
      </trkpt>
      <trkpt lat="52.490817261859775" lon="71.86558191664517">
        <ele>298.2</ele>
        <time>2026-07-10T09:30:43.000Z</time>
      </trkpt>
      <trkpt lat="52.490491876378655" lon="71.86610679142177">
        <ele>298.8</ele>
        <time>2026-07-10T09:30:59.000Z</time>
      </trkpt>
      <trkpt lat="52.490172274410725" lon="71.86662596650422">
        <ele>299.6</ele>
        <time>2026-07-10T09:31:16.000Z</time>
      </trkpt>
      <trkpt lat="52.48985158279538" lon="71.8671449739486">
        <ele>300.2</ele>
        <time>2026-07-10T09:31:32.000Z</time>
      </trkpt>
      <trkpt lat="52.4895484931767" lon="71.86765233054757">
        <ele>301.2</ele>
        <time>2026-07-10T09:31:48.000Z</time>
      </trkpt>
      <trkpt lat="52.48925277963281" lon="71.86813596636057">
        <ele>302</ele>
        <time>2026-07-10T09:32:04.000Z</time>
      </trkpt>
      <trkpt lat="52.48895329423249" lon="71.86861515976489">
        <ele>303</ele>
        <time>2026-07-10T09:32:20.000Z</time>
      </trkpt>
      <trkpt lat="52.488613575696945" lon="71.86915931291878">
        <ele>304</ele>
        <time>2026-07-10T09:32:36.000Z</time>
      </trkpt>
      <trkpt lat="52.488232953473926" lon="71.8697661627084">
        <ele>304.8</ele>
        <time>2026-07-10T09:32:52.000Z</time>
      </trkpt>
      <trkpt lat="52.487870855256915" lon="71.87033495865762">
        <ele>305.2</ele>
        <time>2026-07-10T09:33:08.000Z</time>
      </trkpt>
      <trkpt lat="52.48747472651303" lon="71.87101565301418">
        <ele>305.2</ele>
        <time>2026-07-10T09:33:24.000Z</time>
      </trkpt>
      <trkpt lat="52.4870340898633" lon="71.87186398543417">
        <ele>304.6</ele>
        <time>2026-07-10T09:33:41.000Z</time>
      </trkpt>
      <trkpt lat="52.486531091853976" lon="71.87297726981342">
        <ele>303</ele>
        <time>2026-07-10T09:33:57.000Z</time>
      </trkpt>
      <trkpt lat="52.48604251071811" lon="71.87405107542872">
        <ele>302</ele>
        <time>2026-07-10T09:34:13.000Z</time>
      </trkpt>
      <trkpt lat="52.48557689599693" lon="71.8750679679215">
        <ele>302.2</ele>
        <time>2026-07-10T09:34:29.000Z</time>
      </trkpt>
      <trkpt lat="52.48519551940262" lon="71.87588838860393">
        <ele>302.2</ele>
        <time>2026-07-10T09:34:45.000Z</time>
      </trkpt>
      <trkpt lat="52.4848082754761" lon="71.87670981511474">
        <ele>302.4</ele>
        <time>2026-07-10T09:35:01.000Z</time>
      </trkpt>
      <trkpt lat="52.484351294115186" lon="71.87767088413239">
        <ele>301.6</ele>
        <time>2026-07-10T09:35:17.000Z</time>
      </trkpt>
      <trkpt lat="52.48390378430486" lon="71.87856649048626">
        <ele>301.8</ele>
        <time>2026-07-10T09:35:33.000Z</time>
      </trkpt>
      <trkpt lat="52.483385698869824" lon="71.87936218455434">
        <ele>301</ele>
        <time>2026-07-10T09:35:49.000Z</time>
      </trkpt>
      <trkpt lat="52.482851687818766" lon="71.87997615896165">
        <ele>300.6</ele>
        <time>2026-07-10T09:36:06.000Z</time>
      </trkpt>
      <trkpt lat="52.48240912333131" lon="71.88048561103642">
        <ele>300</ele>
        <time>2026-07-10T09:36:22.000Z</time>
      </trkpt>
      <trkpt lat="52.48229429125786" lon="71.88048728741705">
        <ele>299.4</ele>
        <time>2026-07-10T09:36:27.000Z</time>
      </trkpt>
      <trkpt lat="52.48220980167389" lon="71.8801184836775">
        <ele>299.2</ele>
        <time>2026-07-10T09:36:33.000Z</time>
      </trkpt>
      <trkpt lat="52.48233888298273" lon="71.8796765897423">
        <ele>299.8</ele>
        <time>2026-07-10T09:36:41.000Z</time>
      </trkpt>
      <trkpt lat="52.48247567564249" lon="71.87934307381511">
        <ele>300.6</ele>
        <time>2026-07-10T09:36:51.000Z</time>
      </trkpt>
      <trkpt lat="52.48247617855668" lon="71.8792983982712">
        <ele>300.8</ele>
        <time>2026-07-10T09:36:53.000Z</time>
      </trkpt>
      <trkpt lat="52.482479279860854" lon="71.87926495447755">
        <ele>301</ele>
        <time>2026-07-10T09:36:55.000Z</time>
      </trkpt>
      <trkpt lat="52.48248539865017" lon="71.879250286147">
        <ele>301</ele>
        <time>2026-07-10T09:37:05.000Z</time>
      </trkpt>
      <trkpt lat="52.4822592549026" lon="71.87982821837068">
        <ele>300.4</ele>
        <time>2026-07-10T09:40:20.000Z</time>
      </trkpt>
      <trkpt lat="52.4822145793587" lon="71.88029970042408">
        <ele>299.6</ele>
        <time>2026-07-10T09:40:28.000Z</time>
      </trkpt>
      <trkpt lat="52.482277527451515" lon="71.88061913475394">
        <ele>299.6</ele>
        <time>2026-07-10T09:40:34.000Z</time>
      </trkpt>
      <trkpt lat="52.48187913559377" lon="71.88110562041402">
        <ele>299.8</ele>
        <time>2026-07-10T09:40:48.000Z</time>
      </trkpt>
      <trkpt lat="52.48125351034105" lon="71.88182755373418">
        <ele>298.4</ele>
        <time>2026-07-10T09:41:04.000Z</time>
      </trkpt>
      <trkpt lat="52.480649426579475" lon="71.88251746818423">
        <ele>298.4</ele>
        <time>2026-07-10T09:41:20.000Z</time>
      </trkpt>
      <trkpt lat="52.480052299797535" lon="71.8832528963685">
        <ele>298</ele>
        <time>2026-07-10T09:41:36.000Z</time>
      </trkpt>
      <trkpt lat="52.479551900178194" lon="71.88411380164325">
        <ele>297</ele>
        <time>2026-07-10T09:41:51.000Z</time>
      </trkpt>
      <trkpt lat="52.47923313640058" lon="71.88478359952569">
        <ele>296.2</ele>
        <time>2026-07-10T09:42:00.000Z</time>
      </trkpt>
      <trkpt lat="52.478691916912794" lon="71.88593217171729">
        <ele>295.4</ele>
        <time>2026-07-10T09:42:16.000Z</time>
      </trkpt>
      <trkpt lat="52.478206688538194" lon="71.8869793228805">
        <ele>295.2</ele>
        <time>2026-07-10T09:42:32.000Z</time>
      </trkpt>
      <trkpt lat="52.47777166776359" lon="71.8879360333085">
        <ele>294.8</ele>
        <time>2026-07-10T09:42:48.000Z</time>
      </trkpt>
      <trkpt lat="52.47731225565076" lon="71.88892878592014">
        <ele>294</ele>
        <time>2026-07-10T09:43:04.000Z</time>
      </trkpt>
      <trkpt lat="52.476884527131915" lon="71.889871917665">
        <ele>294</ele>
        <time>2026-07-10T09:43:21.000Z</time>
      </trkpt>
      <trkpt lat="52.47648177668452" lon="71.89073919318616">
        <ele>294.2</ele>
        <time>2026-07-10T09:43:37.000Z</time>
      </trkpt>
      <trkpt lat="52.47605748474598" lon="71.89165416173637">
        <ele>293.8</ele>
        <time>2026-07-10T09:43:53.000Z</time>
      </trkpt>
      <trkpt lat="52.47565548866987" lon="71.89252587966621">
        <ele>293.8</ele>
        <time>2026-07-10T09:44:09.000Z</time>
      </trkpt>
      <trkpt lat="52.475194819271564" lon="71.89349382184446">
        <ele>293.6</ele>
        <time>2026-07-10T09:44:25.000Z</time>
      </trkpt>
      <trkpt lat="52.47476591728628" lon="71.89444156363606">
        <ele>293.4</ele>
        <time>2026-07-10T09:44:41.000Z</time>
      </trkpt>
      <trkpt lat="52.47429535724223" lon="71.89544739201665">
        <ele>293.2</ele>
        <time>2026-07-10T09:44:57.000Z</time>
      </trkpt>
      <trkpt lat="52.4738425668329" lon="71.89642212353647">
        <ele>293.8</ele>
        <time>2026-07-10T09:45:13.000Z</time>
      </trkpt>
      <trkpt lat="52.473437217995524" lon="71.89728688448668">
        <ele>293.4</ele>
        <time>2026-07-10T09:45:30.000Z</time>
      </trkpt>
      <trkpt lat="52.47309431433678" lon="71.8980660662055">
        <ele>293.6</ele>
        <time>2026-07-10T09:45:46.000Z</time>
      </trkpt>
      <trkpt lat="52.472814694046974" lon="71.89901531673968">
        <ele>293</ele>
        <time>2026-07-10T09:46:02.000Z</time>
      </trkpt>
      <trkpt lat="52.47257396578789" lon="71.9000022020191">
        <ele>292.8</ele>
        <time>2026-07-10T09:46:18.000Z</time>
      </trkpt>
      <trkpt lat="52.4723403621465" lon="71.90104071982205">
        <ele>292.4</ele>
        <time>2026-07-10T09:46:34.000Z</time>
      </trkpt>
      <trkpt lat="52.4721138831228" lon="71.90202936530113">
        <ele>292</ele>
        <time>2026-07-10T09:46:50.000Z</time>
      </trkpt>
      <trkpt lat="52.471879189834" lon="71.9030671287328">
        <ele>291.8</ele>
        <time>2026-07-10T09:47:06.000Z</time>
      </trkpt>
      <trkpt lat="52.47162915766239" lon="71.90414068289101">
        <ele>292</ele>
        <time>2026-07-10T09:47:22.000Z</time>
      </trkpt>
      <trkpt lat="52.471401086077094" lon="71.90512320958078">
        <ele>292.2</ele>
        <time>2026-07-10T09:47:38.000Z</time>
      </trkpt>
      <trkpt lat="52.471167566254735" lon="71.90615485422313">
        <ele>292.4</ele>
        <time>2026-07-10T09:47:55.000Z</time>
      </trkpt>
      <trkpt lat="52.470955001190305" lon="71.9070977345109">
        <ele>292.6</ele>
        <time>2026-07-10T09:48:11.000Z</time>
      </trkpt>
      <trkpt lat="52.47070228680968" lon="71.90819676965475">
        <ele>292.2</ele>
        <time>2026-07-10T09:48:27.000Z</time>
      </trkpt>
      <trkpt lat="52.470447309315205" lon="71.90930686891079">
        <ele>292.2</ele>
        <time>2026-07-10T09:48:43.000Z</time>
      </trkpt>
      <trkpt lat="52.47018093243241" lon="71.91041336394846">
        <ele>292.2</ele>
        <time>2026-07-10T09:48:59.000Z</time>
      </trkpt>
      <trkpt lat="52.46995001100004" lon="71.9114597607404">
        <ele>292.4</ele>
        <time>2026-07-10T09:49:15.000Z</time>
      </trkpt>
      <trkpt lat="52.469706013798714" lon="71.9125359132886">
        <ele>293.2</ele>
        <time>2026-07-10T09:49:31.000Z</time>
      </trkpt>
      <trkpt lat="52.46948498301208" lon="71.91349999979138">
        <ele>293.8</ele>
        <time>2026-07-10T09:49:47.000Z</time>
      </trkpt>
      <trkpt lat="52.46925682760775" lon="71.91448219120502">
        <ele>294</ele>
        <time>2026-07-10T09:50:03.000Z</time>
      </trkpt>
      <trkpt lat="52.46904669329524" lon="71.91537679173052">
        <ele>294.4</ele>
        <time>2026-07-10T09:50:20.000Z</time>
      </trkpt>
      <trkpt lat="52.46890638023615" lon="71.91620383411646">
        <ele>295</ele>
        <time>2026-07-10T09:50:36.000Z</time>
      </trkpt>
      <trkpt lat="52.46884041465819" lon="71.91627499647439">
        <ele>295.4</ele>
        <time>2026-07-10T09:51:07.000Z</time>
      </trkpt>
      <trkpt lat="52.46846825815737" lon="71.9169148709625">
        <ele>295.4</ele>
        <time>2026-07-10T09:51:23.000Z</time>
      </trkpt>
      <trkpt lat="52.46812518686056" lon="71.91769329831004">
        <ele>295.4</ele>
        <time>2026-07-10T09:51:39.000Z</time>
      </trkpt>
      <trkpt lat="52.46774649247527" lon="71.91852645948529">
        <ele>295.2</ele>
        <time>2026-07-10T09:51:55.000Z</time>
      </trkpt>
      <trkpt lat="52.46736570261419" lon="71.91934478469193">
        <ele>294.4</ele>
        <time>2026-07-10T09:52:11.000Z</time>
      </trkpt>
      <trkpt lat="52.46709119528532" lon="71.92019688896835">
        <ele>292.6</ele>
        <time>2026-07-10T09:52:22.000Z</time>
      </trkpt>
      <trkpt lat="52.4670543987304" lon="71.92112459801137">
        <ele>292.6</ele>
        <time>2026-07-10T09:52:36.000Z</time>
      </trkpt>
      <trkpt lat="52.4670092202723" lon="71.92143347114325">
        <ele>292.8</ele>
        <time>2026-07-10T09:52:48.000Z</time>
      </trkpt>
      <trkpt lat="52.46668132022023" lon="71.92208625376225">
        <ele>292.2</ele>
        <time>2026-07-10T09:55:35.000Z</time>
      </trkpt>
      <trkpt lat="52.4661597982049" lon="71.9228987954557">
        <ele>291.8</ele>
        <time>2026-07-10T09:55:51.000Z</time>
      </trkpt>
      <trkpt lat="52.465678760781884" lon="71.9236980099231">
        <ele>291.8</ele>
        <time>2026-07-10T09:56:07.000Z</time>
      </trkpt>
      <trkpt lat="52.46515179052949" lon="71.92458858713508">
        <ele>290.6</ele>
        <time>2026-07-10T09:56:23.000Z</time>
      </trkpt>
      <trkpt lat="52.46456312946975" lon="71.92553037777543">
        <ele>289.8</ele>
        <time>2026-07-10T09:56:39.000Z</time>
      </trkpt>
      <trkpt lat="52.46396700851619" lon="71.9264870043844">
        <ele>289.6</ele>
        <time>2026-07-10T09:56:55.000Z</time>
      </trkpt>
      <trkpt lat="52.46347046457231" lon="71.92722260020673">
        <ele>289.4</ele>
        <time>2026-07-10T09:57:11.000Z</time>
      </trkpt>
      <trkpt lat="52.46299118734896" lon="71.92795811221004">
        <ele>289.4</ele>
        <time>2026-07-10T09:57:28.000Z</time>
      </trkpt>
      <trkpt lat="52.46256312355399" lon="71.92864400334656">
        <ele>290</ele>
        <time>2026-07-10T09:57:44.000Z</time>
      </trkpt>
      <trkpt lat="52.462151320651174" lon="71.92938379012048">
        <ele>289.8</ele>
        <time>2026-07-10T09:58:00.000Z</time>
      </trkpt>
      <trkpt lat="52.461666679009795" lon="71.9301050528884">
        <ele>289.8</ele>
        <time>2026-07-10T09:58:16.000Z</time>
      </trkpt>
      <trkpt lat="52.46121296659112" lon="71.93075188435614">
        <ele>289.6</ele>
        <time>2026-07-10T09:58:32.000Z</time>
      </trkpt>
      <trkpt lat="52.46062363497913" lon="71.93131372332573">
        <ele>290.4</ele>
        <time>2026-07-10T09:58:48.000Z</time>
      </trkpt>
      <trkpt lat="52.460008235648274" lon="71.93182703107595">
        <ele>289.6</ele>
        <time>2026-07-10T09:59:04.000Z</time>
      </trkpt>
      <trkpt lat="52.45932963676751" lon="71.93235190585256">
        <ele>289.4</ele>
        <time>2026-07-10T09:59:20.000Z</time>
      </trkpt>
      <trkpt lat="52.45875941589475" lon="71.93276530131698">
        <ele>289</ele>
        <time>2026-07-10T09:59:36.000Z</time>
      </trkpt>
      <trkpt lat="52.45832238346338" lon="71.9331197720021">
        <ele>289</ele>
        <time>2026-07-10T09:59:53.000Z</time>
      </trkpt>
      <trkpt lat="52.45809783227742" lon="71.93343040533364">
        <ele>288.8</ele>
        <time>2026-07-10T10:00:09.000Z</time>
      </trkpt>
      <trkpt lat="52.4579260032624" lon="71.93404471501708">
        <ele>288.6</ele>
        <time>2026-07-10T10:00:23.000Z</time>
      </trkpt>
      <trkpt lat="52.45790706016123" lon="71.93469012156129">
        <ele>288</ele>
        <time>2026-07-10T10:00:34.000Z</time>
      </trkpt>
      <trkpt lat="52.45822062715888" lon="71.93549009039998">
        <ele>286.8</ele>
        <time>2026-07-10T10:00:47.000Z</time>
      </trkpt>
      <trkpt lat="52.45861650444567" lon="71.93641360849142">
        <ele>287.2</ele>
        <time>2026-07-10T10:01:03.000Z</time>
      </trkpt>
      <trkpt lat="52.459032917395234" lon="71.93733821623027">
        <ele>287.2</ele>
        <time>2026-07-10T10:01:19.000Z</time>
      </trkpt>
      <trkpt lat="52.45943969115615" lon="71.9383121933788">
        <ele>288</ele>
        <time>2026-07-10T10:01:35.000Z</time>
      </trkpt>
      <trkpt lat="52.45979047380388" lon="71.9391105696559">
        <ele>288.4</ele>
        <time>2026-07-10T10:01:51.000Z</time>
      </trkpt>
      <trkpt lat="52.4599964171648" lon="71.9397800322622">
        <ele>289</ele>
        <time>2026-07-10T10:02:04.000Z</time>
      </trkpt>
      <trkpt lat="52.459873957559466" lon="71.94045410491526">
        <ele>289.6</ele>
        <time>2026-07-10T10:02:17.000Z</time>
      </trkpt>
      <trkpt lat="52.45953842997551" lon="71.9412790518254">
        <ele>290.4</ele>
        <time>2026-07-10T10:02:33.000Z</time>
      </trkpt>
      <trkpt lat="52.45921539142728" lon="71.94207223132253">
        <ele>291.2</ele>
        <time>2026-07-10T10:02:49.000Z</time>
      </trkpt>
      <trkpt lat="52.458937615156174" lon="71.94274722598493">
        <ele>291.6</ele>
        <time>2026-07-10T10:03:05.000Z</time>
      </trkpt>
      <trkpt lat="52.458590772002935" lon="71.94360771216452">
        <ele>291.2</ele>
        <time>2026-07-10T10:03:21.000Z</time>
      </trkpt>
      <trkpt lat="52.45826940983534" lon="71.944380691275">
        <ele>291</ele>
        <time>2026-07-10T10:03:37.000Z</time>
      </trkpt>
      <trkpt lat="52.45793589390814" lon="71.9452649820596">
        <ele>291.4</ele>
        <time>2026-07-10T10:03:53.000Z</time>
      </trkpt>
      <trkpt lat="52.457599360495806" lon="71.9461215287447">
        <ele>291.4</ele>
        <time>2026-07-10T10:04:09.000Z</time>
      </trkpt>
      <trkpt lat="52.45720230974257" lon="71.94702266715467">
        <ele>291.2</ele>
        <time>2026-07-10T10:04:25.000Z</time>
      </trkpt>
      <trkpt lat="52.4568469170481" lon="71.9477965682745">
        <ele>291</ele>
        <time>2026-07-10T10:04:42.000Z</time>
      </trkpt>
      <trkpt lat="52.456509210169315" lon="71.94842956960201">
        <ele>290.8</ele>
        <time>2026-07-10T10:04:55.000Z</time>
      </trkpt>
      <trkpt lat="52.456116769462824" lon="71.9494042173028">
        <ele>289.6</ele>
        <time>2026-07-10T10:05:11.000Z</time>
      </trkpt>
      <trkpt lat="52.4557139351964" lon="71.95027300156653">
        <ele>289.8</ele>
        <time>2026-07-10T10:05:27.000Z</time>
      </trkpt>
      <trkpt lat="52.45525913313031" lon="71.9511688593775">
        <ele>290.2</ele>
        <time>2026-07-10T10:05:43.000Z</time>
      </trkpt>
      <trkpt lat="52.45483526028693" lon="71.95206362754107">
        <ele>291</ele>
        <time>2026-07-10T10:05:59.000Z</time>
      </trkpt>
      <trkpt lat="52.4544030893594" lon="71.95296099409461">
        <ele>291</ele>
        <time>2026-07-10T10:06:15.000Z</time>
      </trkpt>
      <trkpt lat="52.45395985431969" lon="71.95391083136201">
        <ele>290.4</ele>
        <time>2026-07-10T10:06:31.000Z</time>
      </trkpt>
      <trkpt lat="52.45361032895744" lon="71.95468783378601">
        <ele>291.4</ele>
        <time>2026-07-10T10:06:47.000Z</time>
      </trkpt>
      <trkpt lat="52.453229036182165" lon="71.95548998191953">
        <ele>291.8</ele>
        <time>2026-07-10T10:07:04.000Z</time>
      </trkpt>
      <trkpt lat="52.45294673368335" lon="71.95629489608109">
        <ele>292</ele>
        <time>2026-07-10T10:07:20.000Z</time>
      </trkpt>
      <trkpt lat="52.452604500576854" lon="71.9571268837899">
        <ele>291</ele>
        <time>2026-07-10T10:07:36.000Z</time>
      </trkpt>
      <trkpt lat="52.452114913612604" lon="71.9580746255815">
        <ele>289.6</ele>
        <time>2026-07-10T10:07:52.000Z</time>
      </trkpt>
      <trkpt lat="52.451983066275716" lon="71.9584218878299">
        <ele>288.6</ele>
        <time>2026-07-10T10:08:01.000Z</time>
      </trkpt>
      <trkpt lat="52.452077781781554" lon="71.95860042236745">
        <ele>288.2</ele>
        <time>2026-07-10T10:08:07.000Z</time>
      </trkpt>
      <trkpt lat="52.452278109267354" lon="71.95897039957345">
        <ele>288</ele>
        <time>2026-07-10T10:08:23.000Z</time>
      </trkpt>
      <trkpt lat="52.4522721581161" lon="71.95898272097111">
        <ele>288.2</ele>
        <time>2026-07-10T10:08:30.000Z</time>
      </trkpt>
      <trkpt lat="52.45228263549507" lon="71.95929368957877">
        <ele>288.2</ele>
        <time>2026-07-10T10:09:12.000Z</time>
      </trkpt>
      <trkpt lat="52.451909221708775" lon="71.95986642502248">
        <ele>288.6</ele>
        <time>2026-07-10T10:09:26.000Z</time>
      </trkpt>
      <trkpt lat="52.451461711898446" lon="71.96061442606151">
        <ele>288.2</ele>
        <time>2026-07-10T10:09:42.000Z</time>
      </trkpt>
      <trkpt lat="52.45115560479462" lon="71.9612777698785">
        <ele>288.4</ele>
        <time>2026-07-10T10:09:55.000Z</time>
      </trkpt>
      <trkpt lat="52.45110028423369" lon="71.9621416926384">
        <ele>288.2</ele>
        <time>2026-07-10T10:10:08.000Z</time>
      </trkpt>
      <trkpt lat="52.4511568620801" lon="71.96301206946373">
        <ele>288</ele>
        <time>2026-07-10T10:10:21.000Z</time>
      </trkpt>
      <trkpt lat="52.45117027312517" lon="71.96413449011743">
        <ele>288</ele>
        <time>2026-07-10T10:10:37.000Z</time>
      </trkpt>
      <trkpt lat="52.45136473327875" lon="71.96521206758916">
        <ele>287.2</ele>
        <time>2026-07-10T10:10:53.000Z</time>
      </trkpt>
      <trkpt lat="52.45164846070111" lon="71.96626123040915">
        <ele>287.4</ele>
        <time>2026-07-10T10:11:09.000Z</time>
      </trkpt>
      <trkpt lat="52.4519751034677" lon="71.96728566661477">
        <ele>286.4</ele>
        <time>2026-07-10T10:11:25.000Z</time>
      </trkpt>
      <trkpt lat="52.45220803655684" lon="71.96821832098067">
        <ele>286.6</ele>
        <time>2026-07-10T10:11:39.000Z</time>
      </trkpt>
      <trkpt lat="52.45239763520658" lon="71.96929656900465">
        <ele>286.4</ele>
        <time>2026-07-10T10:11:56.000Z</time>
      </trkpt>
      <trkpt lat="52.452672980725765" lon="71.9703147187829">
        <ele>286.4</ele>
        <time>2026-07-10T10:12:12.000Z</time>
      </trkpt>
      <trkpt lat="52.45299752801657" lon="71.9710536673665">
        <ele>286.6</ele>
        <time>2026-07-10T10:12:27.000Z</time>
      </trkpt>
      <trkpt lat="52.453225599601865" lon="71.9716477766633">
        <ele>286.8</ele>
        <time>2026-07-10T10:12:37.000Z</time>
      </trkpt>
      <trkpt lat="52.453202130272985" lon="71.97243911214173">
        <ele>286.6</ele>
        <time>2026-07-10T10:12:49.000Z</time>
      </trkpt>
      <trkpt lat="52.453168015927076" lon="71.9732540845871">
        <ele>286.4</ele>
        <time>2026-07-10T10:13:02.000Z</time>
      </trkpt>
      <trkpt lat="52.45332911610603" lon="71.97396931238472">
        <ele>287.2</ele>
        <time>2026-07-10T10:13:16.000Z</time>
      </trkpt>
      <trkpt lat="52.453337498009205" lon="71.9740895088762">
        <ele>287.8</ele>
        <time>2026-07-10T10:13:26.000Z</time>
      </trkpt>
      <trkpt lat="52.45356875471771" lon="71.97430299594998">
        <ele>288.2</ele>
        <time>2026-07-10T10:34:04.000Z</time>
      </trkpt>
      <trkpt lat="52.45375642552972" lon="71.9744523614645">
        <ele>288</ele>
        <time>2026-07-10T10:34:13.000Z</time>
      </trkpt>
      <trkpt lat="52.4544067773968" lon="71.97467942722142">
        <ele>287.2</ele>
        <time>2026-07-10T10:34:29.000Z</time>
      </trkpt>
      <trkpt lat="52.454980770125985" lon="71.97504026815295">
        <ele>286.8</ele>
        <time>2026-07-10T10:34:43.000Z</time>
      </trkpt>
      <trkpt lat="52.455651154741645" lon="71.97584660723805">
        <ele>285.8</ele>
        <time>2026-07-10T10:34:59.000Z</time>
      </trkpt>
      <trkpt lat="52.456320533528924" lon="71.9767474103719">
        <ele>284.2</ele>
        <time>2026-07-10T10:35:15.000Z</time>
      </trkpt>
      <trkpt lat="52.457073563709855" lon="71.9774826709181">
        <ele>283.2</ele>
        <time>2026-07-10T10:35:31.000Z</time>
      </trkpt>
      <trkpt lat="52.45787478983402" lon="71.97791417129338">
        <ele>283.6</ele>
        <time>2026-07-10T10:35:47.000Z</time>
      </trkpt>
      <trkpt lat="52.458667466416955" lon="71.9782583322376">
        <ele>283.4</ele>
        <time>2026-07-10T10:36:03.000Z</time>
      </trkpt>
      <trkpt lat="52.4593972787261" lon="71.97851490229368">
        <ele>283.2</ele>
        <time>2026-07-10T10:36:19.000Z</time>
      </trkpt>
      <trkpt lat="52.46005291119218" lon="71.97882763110101">
        <ele>283.8</ele>
        <time>2026-07-10T10:36:35.000Z</time>
      </trkpt>
      <trkpt lat="52.46063796803355" lon="71.97909627109766">
        <ele>284.2</ele>
        <time>2026-07-10T10:36:51.000Z</time>
      </trkpt>
      <trkpt lat="52.461266024038196" lon="71.97936750948429">
        <ele>284.4</ele>
        <time>2026-07-10T10:37:08.000Z</time>
      </trkpt>
      <trkpt lat="52.4618287011981" lon="71.97958862408996">
        <ele>284.2</ele>
        <time>2026-07-10T10:37:24.000Z</time>
      </trkpt>
      <trkpt lat="52.46233589015901" lon="71.97980739176273">
        <ele>284.2</ele>
        <time>2026-07-10T10:37:40.000Z</time>
      </trkpt>
      <trkpt lat="52.46289596892893" lon="71.980114672333">
        <ele>284.2</ele>
        <time>2026-07-10T10:37:56.000Z</time>
      </trkpt>
      <trkpt lat="52.46327977627516" lon="71.98028817772865">
        <ele>283.6</ele>
        <time>2026-07-10T10:38:10.000Z</time>
      </trkpt>
      <trkpt lat="52.4637077562511" lon="71.9805293250829">
        <ele>283.6</ele>
        <time>2026-07-10T10:38:24.000Z</time>
      </trkpt>
      <trkpt lat="52.46424528770149" lon="71.98098052293062">
        <ele>283.4</ele>
        <time>2026-07-10T10:38:39.000Z</time>
      </trkpt>
      <trkpt lat="52.46473797596991" lon="71.98187001049519">
        <ele>282.8</ele>
        <time>2026-07-10T10:38:54.000Z</time>
      </trkpt>
      <trkpt lat="52.4650664627552" lon="71.98260007426143">
        <ele>282.4</ele>
        <time>2026-07-10T10:39:10.000Z</time>
      </trkpt>
      <trkpt lat="52.46535739861429" lon="71.98293182998896">
        <ele>280.8</ele>
        <time>2026-07-10T10:39:25.000Z</time>
      </trkpt>
      <trkpt lat="52.465641712769866" lon="71.98297885246575">
        <ele>279.4</ele>
        <time>2026-07-10T10:39:30.000Z</time>
      </trkpt>
      <trkpt lat="52.46617807075381" lon="71.98283300735056">
        <ele>278.2</ele>
        <time>2026-07-10T10:39:39.000Z</time>
      </trkpt>
      <trkpt lat="52.46696446090937" lon="71.98258087970316">
        <ele>277.8</ele>
        <time>2026-07-10T10:39:55.000Z</time>
      </trkpt>
      <trkpt lat="52.46768488548696" lon="71.98218441568315">
        <ele>279</ele>
        <time>2026-07-10T10:40:11.000Z</time>
      </trkpt>
      <trkpt lat="52.468145890161395" lon="71.9818726927042">
        <ele>280.4</ele>
        <time>2026-07-10T10:40:27.000Z</time>
      </trkpt>
      <trkpt lat="52.468444872647524" lon="71.98179633356631">
        <ele>281.6</ele>
        <time>2026-07-10T10:40:39.000Z</time>
      </trkpt>
      <trkpt lat="52.46872910298407" lon="71.98205340653658">
        <ele>282.2</ele>
        <time>2026-07-10T10:40:51.000Z</time>
      </trkpt>
      <trkpt lat="52.46896471828222" lon="71.98259487748146">
        <ele>282.8</ele>
        <time>2026-07-10T10:41:07.000Z</time>
      </trkpt>
      <trkpt lat="52.46921877376735" lon="71.98286175727844">
        <ele>282.8</ele>
        <time>2026-07-10T10:41:16.000Z</time>
      </trkpt>
      <trkpt lat="52.46941767632961" lon="71.98279528878629">
        <ele>283.2</ele>
        <time>2026-07-10T10:41:27.000Z</time>
      </trkpt>
      <trkpt lat="52.469408959150314" lon="71.98252840898931">
        <ele>283.8</ele>
        <time>2026-07-10T10:41:41.000Z</time>
      </trkpt>
      <trkpt lat="52.46951390057802" lon="71.9826356973499">
        <ele>283.6</ele>
        <time>2026-07-10T10:42:36.000Z</time>
      </trkpt>
      <trkpt lat="52.46962998993695" lon="71.98344002477825">
        <ele>283.4</ele>
        <time>2026-07-10T10:42:50.000Z</time>
      </trkpt>
      <trkpt lat="52.469783294945955" lon="71.98428148403764">
        <ele>283</ele>
        <time>2026-07-10T10:43:03.000Z</time>
      </trkpt>
      <trkpt lat="52.469972893595695" lon="71.98531312867999">
        <ele>282.4</ele>
        <time>2026-07-10T10:43:19.000Z</time>
      </trkpt>
      <trkpt lat="52.470119912177324" lon="71.98616858571768">
        <ele>281.6</ele>
        <time>2026-07-10T10:43:32.000Z</time>
      </trkpt>
      <trkpt lat="52.470097029581666" lon="71.9865576736629">
        <ele>281.4</ele>
        <time>2026-07-10T10:45:27.000Z</time>
      </trkpt>
      <trkpt lat="52.469922015443444" lon="71.98763751424849">
        <ele>280.6</ele>
        <time>2026-07-10T10:45:43.000Z</time>
      </trkpt>
      <trkpt lat="52.46965890750289" lon="71.98880192823708">
        <ele>279.8</ele>
        <time>2026-07-10T10:45:59.000Z</time>
      </trkpt>
      <trkpt lat="52.46928960084915" lon="71.98944582603872">
        <ele>279</ele>
        <time>2026-07-10T10:46:11.000Z</time>
      </trkpt>
      <trkpt lat="52.469185162335634" lon="71.99027781374753">
        <ele>278.2</ele>
        <time>2026-07-10T10:46:22.000Z</time>
      </trkpt>
      <trkpt lat="52.4691176880151" lon="71.99119018390775">
        <ele>277.2</ele>
        <time>2026-07-10T10:46:38.000Z</time>
      </trkpt>
      <trkpt lat="52.46905507519841" lon="71.99180985800922">
        <ele>277</ele>
        <time>2026-07-10T10:47:00.000Z</time>
      </trkpt>
      <trkpt lat="52.469000928103924" lon="71.99308449402452">
        <ele>275.8</ele>
        <time>2026-07-10T10:47:16.000Z</time>
      </trkpt>
      <trkpt lat="52.46896270662546" lon="71.99416265822947">
        <ele>274.8</ele>
        <time>2026-07-10T10:47:29.000Z</time>
      </trkpt>
      <trkpt lat="52.46868803165853" lon="71.99504745192826">
        <ele>274.2</ele>
        <time>2026-07-10T10:47:42.000Z</time>
      </trkpt>
      <trkpt lat="52.46821948327124" lon="71.99607239104807">
        <ele>273.8</ele>
        <time>2026-07-10T10:47:58.000Z</time>
      </trkpt>
      <trkpt lat="52.467690920457244" lon="71.99719950556755">
        <ele>273.4</ele>
        <time>2026-07-10T10:48:14.000Z</time>
      </trkpt>
      <trkpt lat="52.46723737567663" lon="71.99817038141191">
        <ele>273.6</ele>
        <time>2026-07-10T10:48:30.000Z</time>
      </trkpt>
      <trkpt lat="52.466740161180496" lon="71.99922147206962">
        <ele>273.4</ele>
        <time>2026-07-10T10:48:46.000Z</time>
      </trkpt>
      <trkpt lat="52.46632852591574" lon="72.00011741369963">
        <ele>273.6</ele>
        <time>2026-07-10T10:49:03.000Z</time>
      </trkpt>
      <trkpt lat="52.46599190868437" lon="72.00081017799675">
        <ele>274</ele>
        <time>2026-07-10T10:49:19.000Z</time>
      </trkpt>
      <trkpt lat="52.4656158965081" lon="72.00161199085414">
        <ele>274.4</ele>
        <time>2026-07-10T10:49:35.000Z</time>
      </trkpt>
      <trkpt lat="52.46521322987974" lon="72.00244875624776">
        <ele>274.2</ele>
        <time>2026-07-10T10:49:51.000Z</time>
      </trkpt>
      <trkpt lat="52.46495297178626" lon="72.00300087220967">
        <ele>274</ele>
        <time>2026-07-10T10:50:03.000Z</time>
      </trkpt>
      <trkpt lat="52.4650873336941" lon="72.00355810113251">
        <ele>273.2</ele>
        <time>2026-07-10T10:50:13.000Z</time>
      </trkpt>
      <trkpt lat="52.465102253481746" lon="72.00383629649878">
        <ele>273.2</ele>
        <time>2026-07-10T10:50:25.000Z</time>
      </trkpt>
      <trkpt lat="52.46492061764002" lon="72.00411985628307">
        <ele>273.2</ele>
        <time>2026-07-10T10:50:48.000Z</time>
      </trkpt>
      <trkpt lat="52.46480595320463" lon="72.00431440025568">
        <ele>273</ele>
        <time>2026-07-10T10:51:03.000Z</time>
      </trkpt>
      <trkpt lat="52.464739233255386" lon="72.00455747544765">
        <ele>273.4</ele>
        <time>2026-07-10T10:54:28.000Z</time>
      </trkpt>
      <trkpt lat="52.46483453549445" lon="72.00447181239724">
        <ele>274</ele>
        <time>2026-07-10T11:21:59.000Z</time>
      </trkpt>
      <trkpt lat="52.46479706838727" lon="72.00428925454617">
        <ele>273.8</ele>
        <time>2026-07-10T11:22:05.000Z</time>
      </trkpt>
      <trkpt lat="52.46448928490281" lon="72.00414022430778">
        <ele>274</ele>
        <time>2026-07-10T11:22:18.000Z</time>
      </trkpt>
      <trkpt lat="52.464313516393304" lon="72.00427668169141">
        <ele>274.2</ele>
        <time>2026-07-10T11:22:29.000Z</time>
      </trkpt>
      <trkpt lat="52.464111763983965" lon="72.00478320010006">
        <ele>274.4</ele>
        <time>2026-07-10T11:23:03.000Z</time>
      </trkpt>
      <trkpt lat="52.463830299675465" lon="72.0053649879992">
        <ele>274.2</ele>
        <time>2026-07-10T11:23:19.000Z</time>
      </trkpt>
      <trkpt lat="52.46362972073257" lon="72.00574971735477">
        <ele>274.4</ele>
        <time>2026-07-10T11:23:34.000Z</time>
      </trkpt>
      <trkpt lat="52.46331196278334" lon="72.00648170895875">
        <ele>274</ele>
        <time>2026-07-10T11:24:32.000Z</time>
      </trkpt>
      <trkpt lat="52.462941482663155" lon="72.00725669972599">
        <ele>274.2</ele>
        <time>2026-07-10T11:24:48.000Z</time>
      </trkpt>
      <trkpt lat="52.462540408596396" lon="72.00810469686985">
        <ele>274.2</ele>
        <time>2026-07-10T11:25:04.000Z</time>
      </trkpt>
      <trkpt lat="52.462188033387065" lon="72.00883467681706">
        <ele>274.8</ele>
        <time>2026-07-10T11:25:20.000Z</time>
      </trkpt>
      <trkpt lat="52.46188033372164" lon="72.00950338505208">
        <ele>275</ele>
        <time>2026-07-10T11:25:36.000Z</time>
      </trkpt>
      <trkpt lat="52.46151546947658" lon="72.01029220595956">
        <ele>275.4</ele>
        <time>2026-07-10T11:25:52.000Z</time>
      </trkpt>
      <trkpt lat="52.461088160052896" lon="72.01121161691844">
        <ele>275.2</ele>
        <time>2026-07-10T11:26:08.000Z</time>
      </trkpt>
      <trkpt lat="52.460630759596825" lon="72.01217008754611">
        <ele>274.6</ele>
        <time>2026-07-10T11:26:25.000Z</time>
      </trkpt>
      <trkpt lat="52.46027763001621" lon="72.01292085461318">
        <ele>273.2</ele>
        <time>2026-07-10T11:26:35.000Z</time>
      </trkpt>
      <trkpt lat="52.46019951067865" lon="72.01308388262987">
        <ele>272.8</ele>
        <time>2026-07-10T11:26:37.000Z</time>
      </trkpt>
      <trkpt lat="52.46011879295111" lon="72.01325378380716">
        <ele>272.4</ele>
        <time>2026-07-10T11:26:39.000Z</time>
      </trkpt>
      <trkpt lat="52.459523510187864" lon="72.01451408676803">
        <ele>271.4</ele>
        <time>2026-07-10T11:26:55.000Z</time>
      </trkpt>
      <trkpt lat="52.459190832450986" lon="72.01526083052158">
        <ele>270.4</ele>
        <time>2026-07-10T11:27:11.000Z</time>
      </trkpt>
      <trkpt lat="52.45899276807904" lon="72.01582208275795">
        <ele>269.4</ele>
        <time>2026-07-10T11:27:24.000Z</time>
      </trkpt>
      <trkpt lat="52.458675764501095" lon="72.01633061282337">
        <ele>269.2</ele>
        <time>2026-07-10T11:27:52.000Z</time>
      </trkpt>
      <trkpt lat="52.45827427133918" lon="72.01716712675989">
        <ele>269.2</ele>
        <time>2026-07-10T11:28:08.000Z</time>
      </trkpt>
      <trkpt lat="52.45789071545005" lon="72.01799752190709">
        <ele>269.2</ele>
        <time>2026-07-10T11:28:24.000Z</time>
      </trkpt>
      <trkpt lat="52.45743499137461" lon="72.0189656317234">
        <ele>269.2</ele>
        <time>2026-07-10T11:28:41.000Z</time>
      </trkpt>
      <trkpt lat="52.45699108578265" lon="72.01991622336209">
        <ele>269.2</ele>
        <time>2026-07-10T11:28:57.000Z</time>
      </trkpt>
      <trkpt lat="52.456561932340264" lon="72.02083261683583">
        <ele>269.4</ele>
        <time>2026-07-10T11:29:13.000Z</time>
      </trkpt>
      <trkpt lat="52.45617016218603" lon="72.02167281880975">
        <ele>269.6</ele>
        <time>2026-07-10T11:29:29.000Z</time>
      </trkpt>
      <trkpt lat="52.455811500549316" lon="72.022439930588">
        <ele>270</ele>
        <time>2026-07-10T11:29:45.000Z</time>
      </trkpt>
      <trkpt lat="52.45546507649124" lon="72.02318960800767">
        <ele>270.6</ele>
        <time>2026-07-10T11:30:01.000Z</time>
      </trkpt>
      <trkpt lat="52.45510700158775" lon="72.02399251051247">
        <ele>271.2</ele>
        <time>2026-07-10T11:30:17.000Z</time>
      </trkpt>
      <trkpt lat="52.4547709710896" lon="72.02470321208239">
        <ele>271.4</ele>
        <time>2026-07-10T11:30:33.000Z</time>
      </trkpt>
      <trkpt lat="52.45451549068093" lon="72.0250716805458">
        <ele>271.8</ele>
        <time>2026-07-10T11:30:49.000Z</time>
      </trkpt>
      <trkpt lat="52.45425338856876" lon="72.02568800188601">
        <ele>272.4</ele>
        <time>2026-07-10T11:31:06.000Z</time>
      </trkpt>
      <trkpt lat="52.45410377159715" lon="72.02603425830603">
        <ele>272.8</ele>
        <time>2026-07-10T11:31:17.000Z</time>
      </trkpt>
      <trkpt lat="52.45407108217478" lon="72.02634598128498">
        <ele>272.6</ele>
        <time>2026-07-10T11:31:31.000Z</time>
      </trkpt>
      <trkpt lat="52.453847201541066" lon="72.02684101648629">
        <ele>272.6</ele>
        <time>2026-07-10T11:33:44.000Z</time>
      </trkpt>
      <trkpt lat="52.45358878746629" lon="72.02717109583318">
        <ele>273</ele>
        <time>2026-07-10T11:33:57.000Z</time>
      </trkpt>
      <trkpt lat="52.453254014253616" lon="72.02787525951862">
        <ele>273.4</ele>
        <time>2026-07-10T11:34:13.000Z</time>
      </trkpt>
      <trkpt lat="52.45291605591774" lon="72.0286017190665">
        <ele>273.6</ele>
        <time>2026-07-10T11:34:29.000Z</time>
      </trkpt>
      <trkpt lat="52.4526019860059" lon="72.02927201986313">
        <ele>274.6</ele>
        <time>2026-07-10T11:34:45.000Z</time>
      </trkpt>
      <trkpt lat="52.45235161855817" lon="72.0297970622778">
        <ele>275.6</ele>
        <time>2026-07-10T11:35:01.000Z</time>
      </trkpt>
      <trkpt lat="52.452058754861355" lon="72.03039452433586">
        <ele>276.6</ele>
        <time>2026-07-10T11:35:17.000Z</time>
      </trkpt>
      <trkpt lat="52.451765555888414" lon="72.03103582374752">
        <ele>278</ele>
        <time>2026-07-10T11:35:33.000Z</time>
      </trkpt>
      <trkpt lat="52.45148601941764" lon="72.03165893442929">
        <ele>279.2</ele>
        <time>2026-07-10T11:35:50.000Z</time>
      </trkpt>
      <trkpt lat="52.45125895366073" lon="72.03213611617684">
        <ele>280.6</ele>
        <time>2026-07-10T11:36:05.000Z</time>
      </trkpt>
      <trkpt lat="52.45104161091149" lon="72.03261313028634">
        <ele>281.6</ele>
        <time>2026-07-10T11:36:21.000Z</time>
      </trkpt>
      <trkpt lat="52.45085050351918" lon="72.0330382604152">
        <ele>283</ele>
        <time>2026-07-10T11:36:37.000Z</time>
      </trkpt>
      <trkpt lat="52.45060189627111" lon="72.03354578465223">
        <ele>283.4</ele>
        <time>2026-07-10T11:36:53.000Z</time>
      </trkpt>
      <trkpt lat="52.45033082552254" lon="72.03412371687591">
        <ele>283.6</ele>
        <time>2026-07-10T11:37:09.000Z</time>
      </trkpt>
      <trkpt lat="52.450009966269135" lon="72.03471053391695">
        <ele>284</ele>
        <time>2026-07-10T11:37:25.000Z</time>
      </trkpt>
      <trkpt lat="52.44960671290755" lon="72.03526449389756">
        <ele>283.8</ele>
        <time>2026-07-10T11:37:41.000Z</time>
      </trkpt>
      <trkpt lat="52.449129363521934" lon="72.03588400036097">
        <ele>283.8</ele>
        <time>2026-07-10T11:37:57.000Z</time>
      </trkpt>
      <trkpt lat="52.44870322756469" lon="72.03645430505276">
        <ele>283.6</ele>
        <time>2026-07-10T11:38:14.000Z</time>
      </trkpt>
      <trkpt lat="52.448291927576065" lon="72.03696048818529">
        <ele>283.4</ele>
        <time>2026-07-10T11:38:30.000Z</time>
      </trkpt>
      <trkpt lat="52.44789496064186" lon="72.03747362829745">
        <ele>283.2</ele>
        <time>2026-07-10T11:38:46.000Z</time>
      </trkpt>
      <trkpt lat="52.447489108890295" lon="72.0379923004657">
        <ele>283.4</ele>
        <time>2026-07-10T11:39:02.000Z</time>
      </trkpt>
      <trkpt lat="52.44710630737245" lon="72.03847493045032">
        <ele>283.8</ele>
        <time>2026-07-10T11:39:18.000Z</time>
      </trkpt>
      <trkpt lat="52.446732223033905" lon="72.03896258957684">
        <ele>284.2</ele>
        <time>2026-07-10T11:39:34.000Z</time>
      </trkpt>
      <trkpt lat="52.44639870710671" lon="72.03939165920019">
        <ele>285.2</ele>
        <time>2026-07-10T11:39:50.000Z</time>
      </trkpt>
      <trkpt lat="52.44608321227133" lon="72.03980622813106">
        <ele>286</ele>
        <time>2026-07-10T11:40:06.000Z</time>
      </trkpt>
      <trkpt lat="52.445776015520096" lon="72.04020545817912">
        <ele>287</ele>
        <time>2026-07-10T11:40:22.000Z</time>
      </trkpt>
      <trkpt lat="52.44548105634749" lon="72.04060569405556">
        <ele>288</ele>
        <time>2026-07-10T11:40:39.000Z</time>
      </trkpt>
      <trkpt lat="52.44517276994884" lon="72.0410387031734">
        <ele>288.8</ele>
        <time>2026-07-10T11:40:55.000Z</time>
      </trkpt>
      <trkpt lat="52.44485425762832" lon="72.04155318439007">
        <ele>289.4</ele>
        <time>2026-07-10T11:41:11.000Z</time>
      </trkpt>
      <trkpt lat="52.44454982690513" lon="72.04213656485081">
        <ele>289.8</ele>
        <time>2026-07-10T11:41:27.000Z</time>
      </trkpt>
      <trkpt lat="52.444231398403645" lon="72.04279881902039">
        <ele>290</ele>
        <time>2026-07-10T11:41:43.000Z</time>
      </trkpt>
      <trkpt lat="52.444029059261084" lon="72.0432055927813">
        <ele>289.6</ele>
        <time>2026-07-10T11:47:40.000Z</time>
      </trkpt>
      <trkpt lat="52.44372689165175" lon="72.04390162602067">
        <ele>288.8</ele>
        <time>2026-07-10T11:47:57.000Z</time>
      </trkpt>
      <trkpt lat="52.44329287670553" lon="72.04492069780827">
        <ele>285.8</ele>
        <time>2026-07-10T11:48:13.000Z</time>
      </trkpt>
      <trkpt lat="52.44280052371323" lon="72.0461396779865">
        <ele>284</ele>
        <time>2026-07-10T11:48:29.000Z</time>
      </trkpt>
      <trkpt lat="52.442491482943296" lon="72.04693017527461">
        <ele>283.2</ele>
        <time>2026-07-10T11:48:45.000Z</time>
      </trkpt>
      <trkpt lat="52.442217310890555" lon="72.04758421517909">
        <ele>283.6</ele>
        <time>2026-07-10T11:49:01.000Z</time>
      </trkpt>
      <trkpt lat="52.44193911552429" lon="72.04824948683381">
        <ele>283.8</ele>
        <time>2026-07-10T11:49:17.000Z</time>
      </trkpt>
      <trkpt lat="52.44169126264751" lon="72.04883890226483">
        <ele>284.6</ele>
        <time>2026-07-10T11:49:33.000Z</time>
      </trkpt>
      <trkpt lat="52.44141457602382" lon="72.04948917031288">
        <ele>285</ele>
        <time>2026-07-10T11:49:49.000Z</time>
      </trkpt>
      <trkpt lat="52.441326482221484" lon="72.04971347004175">
        <ele>285</ele>
        <time>2026-07-10T11:50:02.000Z</time>
      </trkpt>
      <trkpt lat="52.44101257994771" lon="72.0504464674741">
        <ele>286</ele>
        <time>2026-07-10T11:55:52.000Z</time>
      </trkpt>
      <trkpt lat="52.44075760245323" lon="72.05110302194953">
        <ele>286.4</ele>
        <time>2026-07-10T11:56:08.000Z</time>
      </trkpt>
      <trkpt lat="52.44048091582954" lon="72.05179209820926">
        <ele>287</ele>
        <time>2026-07-10T11:56:24.000Z</time>
      </trkpt>
      <trkpt lat="52.440202217549086" lon="72.05246801488101">
        <ele>287.4</ele>
        <time>2026-07-10T11:56:40.000Z</time>
      </trkpt>
      <trkpt lat="52.43990491144359" lon="72.05317075364292">
        <ele>287.2</ele>
        <time>2026-07-10T11:56:56.000Z</time>
      </trkpt>
      <trkpt lat="52.43949729949236" lon="72.05418127588928">
        <ele>286.2</ele>
        <time>2026-07-10T11:57:14.000Z</time>
      </trkpt>
      <trkpt lat="52.43911047466099" lon="72.05511032603681">
        <ele>285.8</ele>
        <time>2026-07-10T11:57:30.000Z</time>
      </trkpt>
      <trkpt lat="52.43869070895016" lon="72.0561248715967">
        <ele>284.2</ele>
        <time>2026-07-10T11:57:46.000Z</time>
      </trkpt>
      <trkpt lat="52.4382483959198" lon="72.05718727782369">
        <ele>283.2</ele>
        <time>2026-07-10T11:58:02.000Z</time>
      </trkpt>
      <trkpt lat="52.4377856310457" lon="72.05830668099225">
        <ele>282.4</ele>
        <time>2026-07-10T11:58:18.000Z</time>
      </trkpt>
      <trkpt lat="52.43733367882669" lon="72.05941686406732">
        <ele>281.8</ele>
        <time>2026-07-10T11:58:34.000Z</time>
      </trkpt>
      <trkpt lat="52.436936628073454" lon="72.06036301329732">
        <ele>281.8</ele>
        <time>2026-07-10T11:58:50.000Z</time>
      </trkpt>
      <trkpt lat="52.436528429389" lon="72.06136238761246">
        <ele>281.6</ele>
        <time>2026-07-10T11:59:06.000Z</time>
      </trkpt>
      <trkpt lat="52.43614537641406" lon="72.06228942610323">
        <ele>281.4</ele>
        <time>2026-07-10T11:59:22.000Z</time>
      </trkpt>
      <trkpt lat="52.43577640503645" lon="72.06320011988282">
        <ele>281.8</ele>
        <time>2026-07-10T11:59:39.000Z</time>
      </trkpt>
      <trkpt lat="52.43543241173029" lon="72.06404685974121">
        <ele>282</ele>
        <time>2026-07-10T11:59:55.000Z</time>
      </trkpt>
      <trkpt lat="52.43510250002146" lon="72.06486476585269">
        <ele>282.8</ele>
        <time>2026-07-10T12:00:11.000Z</time>
      </trkpt>
      <trkpt lat="52.434835033491254" lon="72.06550128757954">
        <ele>283.8</ele>
        <time>2026-07-10T12:00:27.000Z</time>
      </trkpt>
      <trkpt lat="52.4345875158906" lon="72.06610159948468">
        <ele>284.6</ele>
        <time>2026-07-10T12:00:43.000Z</time>
      </trkpt>
      <trkpt lat="52.434379728510976" lon="72.06659856252372">
        <ele>285.6</ele>
        <time>2026-07-10T12:00:59.000Z</time>
      </trkpt>
      <trkpt lat="52.43431309238076" lon="72.06677148118615">
        <ele>286.4</ele>
        <time>2026-07-10T12:01:05.000Z</time>
      </trkpt>
      <trkpt lat="52.434289287775755" lon="72.06683208234608">
        <ele>286.6</ele>
        <time>2026-07-10T12:01:07.000Z</time>
      </trkpt>
      <trkpt lat="52.434119805693626" lon="72.06729208119214">
        <ele>287.8</ele>
        <time>2026-07-10T12:01:23.000Z</time>
      </trkpt>
      <trkpt lat="52.43397228419781" lon="72.06790580414236">
        <ele>287.4</ele>
        <time>2026-07-10T12:01:39.000Z</time>
      </trkpt>
      <trkpt lat="52.43387212045491" lon="72.0687130652368">
        <ele>286.2</ele>
        <time>2026-07-10T12:01:55.000Z</time>
      </trkpt>
      <trkpt lat="52.43387019261718" lon="72.06912646070123">
        <ele>285.8</ele>
        <time>2026-07-10T12:05:09.000Z</time>
      </trkpt>
      <trkpt lat="52.433825097978115" lon="72.07015743479133">
        <ele>284</ele>
        <time>2026-07-10T12:05:25.000Z</time>
      </trkpt>
      <trkpt lat="52.43378427810967" lon="72.07115697674453">
        <ele>283.4</ele>
        <time>2026-07-10T12:05:41.000Z</time>
      </trkpt>
      <trkpt lat="52.433745972812176" lon="72.0722949039191">
        <ele>282.8</ele>
        <time>2026-07-10T12:05:57.000Z</time>
      </trkpt>
      <trkpt lat="52.4337169714272" lon="72.07333945669234">
        <ele>283.4</ele>
        <time>2026-07-10T12:06:13.000Z</time>
      </trkpt>
      <trkpt lat="52.43368671275675" lon="72.0743462909013">
        <ele>283</ele>
        <time>2026-07-10T12:06:29.000Z</time>
      </trkpt>
      <trkpt lat="52.43363960646093" lon="72.07569401711226">
        <ele>281.8</ele>
        <time>2026-07-10T12:06:46.000Z</time>
      </trkpt>
      <trkpt lat="52.43359317071736" lon="72.07688827067614">
        <ele>281.8</ele>
        <time>2026-07-10T12:07:02.000Z</time>
      </trkpt>
      <trkpt lat="52.433553356677294" lon="72.07804170437157">
        <ele>281.2</ele>
        <time>2026-07-10T12:07:18.000Z</time>
      </trkpt>
      <trkpt lat="52.43351555429399" lon="72.07927920855582">
        <ele>279.2</ele>
        <time>2026-07-10T12:07:34.000Z</time>
      </trkpt>
      <trkpt lat="52.433488899841905" lon="72.08061687648296">
        <ele>278</ele>
        <time>2026-07-10T12:07:50.000Z</time>
      </trkpt>
      <trkpt lat="52.43345201946795" lon="72.08189503289759">
        <ele>277</ele>
        <time>2026-07-10T12:08:06.000Z</time>
      </trkpt>
      <trkpt lat="52.433418491855264" lon="72.08323052152991">
        <ele>275.8</ele>
        <time>2026-07-10T12:08:22.000Z</time>
      </trkpt>
      <trkpt lat="52.43336912244558" lon="72.08454413339496">
        <ele>274.8</ele>
        <time>2026-07-10T12:08:38.000Z</time>
      </trkpt>
      <trkpt lat="52.433326710015535" lon="72.08572606556118">
        <ele>274.2</ele>
        <time>2026-07-10T12:08:54.000Z</time>
      </trkpt>
      <trkpt lat="52.43329016491771" lon="72.08696189336479">
        <ele>274</ele>
        <time>2026-07-10T12:09:11.000Z</time>
      </trkpt>
      <trkpt lat="52.4332542065531" lon="72.08815262652934">
        <ele>274</ele>
        <time>2026-07-10T12:09:27.000Z</time>
      </trkpt>
      <trkpt lat="52.43322235532105" lon="72.089330451563">
        <ele>273.2</ele>
        <time>2026-07-10T12:09:43.000Z</time>
      </trkpt>
      <trkpt lat="52.43319503031671" lon="72.09041037596762">
        <ele>272.6</ele>
        <time>2026-07-10T12:09:59.000Z</time>
      </trkpt>
      <trkpt lat="52.43315647356212" lon="72.09158920682967">
        <ele>271.4</ele>
        <time>2026-07-10T12:10:15.000Z</time>
      </trkpt>
      <trkpt lat="52.433115653693676" lon="72.09267667494714">
        <ele>271</ele>
        <time>2026-07-10T12:10:31.000Z</time>
      </trkpt>
      <trkpt lat="52.43306150659919" lon="72.09363162517548">
        <ele>271</ele>
        <time>2026-07-10T12:10:47.000Z</time>
      </trkpt>
      <trkpt lat="52.43304776027799" lon="72.09462496452034">
        <ele>270.2</ele>
        <time>2026-07-10T12:11:01.000Z</time>
      </trkpt>
      <trkpt lat="52.43294759653509" lon="72.09504908882082">
        <ele>270</ele>
        <time>2026-07-10T12:11:09.000Z</time>
      </trkpt>
      <trkpt lat="52.43255733512342" lon="72.09550095722079">
        <ele>269.4</ele>
        <time>2026-07-10T12:11:25.000Z</time>
      </trkpt>
      <trkpt lat="52.43260066956282" lon="72.09555812180042">
        <ele>269.2</ele>
        <time>2026-07-10T12:11:53.000Z</time>
      </trkpt>
      <trkpt lat="52.432869309559464" lon="72.09534212015569">
        <ele>269.4</ele>
        <time>2026-07-10T12:12:05.000Z</time>
      </trkpt>
      <trkpt lat="52.43299663066864" lon="72.09535838104784">
        <ele>269.8</ele>
        <time>2026-07-10T12:12:10.000Z</time>
      </trkpt>
      <trkpt lat="52.43299319408834" lon="72.09596020169556">
        <ele>270.2</ele>
        <time>2026-07-10T12:12:21.000Z</time>
      </trkpt>
      <trkpt lat="52.432952458038926" lon="72.09721606224775">
        <ele>268.4</ele>
        <time>2026-07-10T12:12:37.000Z</time>
      </trkpt>
      <trkpt lat="52.432909458875656" lon="72.09875263273716">
        <ele>267.6</ele>
        <time>2026-07-10T12:12:53.000Z</time>
      </trkpt>
      <trkpt lat="52.432865453884006" lon="72.10008502006531">
        <ele>267.6</ele>
        <time>2026-07-10T12:13:09.000Z</time>
      </trkpt>
      <trkpt lat="52.43283670395613" lon="72.10119101218879">
        <ele>267.2</ele>
        <time>2026-07-10T12:13:25.000Z</time>
      </trkpt>
      <trkpt lat="52.432804768905044" lon="72.10231167264283">
        <ele>265.8</ele>
        <time>2026-07-10T12:13:41.000Z</time>
      </trkpt>
      <trkpt lat="52.432775096967816" lon="72.1033425629139">
        <ele>264.8</ele>
        <time>2026-07-10T12:13:58.000Z</time>
      </trkpt>
      <trkpt lat="52.432775013148785" lon="72.10405359975994">
        <ele>264</ele>
        <time>2026-07-10T12:14:57.000Z</time>
      </trkpt>
      <trkpt lat="52.432737881317735" lon="72.10513117723167">
        <ele>261.6</ele>
        <time>2026-07-10T12:15:13.000Z</time>
      </trkpt>
    </trkseg>
  </trk>
</gpx>