<?xml version="1.0" encoding="UTF-8"?>
<gpx creator="IGPSPORT" xmlns:xsi="http://www.w3.org/2001/XMLSchema-instance" schemaLocation="http://www.topografix.com/GPX/1/1 http://www.topografix.com/GPX/1/1/gpx.xsd" version="1.1" xmlns="http://www.topografix.com/GPX/1/1">
  <metadata>
    <time>2026-09-16T13:37:06.000Z</time>
    <link href="https://www.igpsport.cn/">
      <text>Велоспорт на свежем воздухе</text>
    </link>
  </metadata>
  <trk>
    <name>Велоспорт на свежем воздухе</name>
    <trkseg>
      <trkpt lat="44.67921568080783" lon="130.51388639956713">
        <ele>357.4</ele>
        <time>2026-09-16T13:37:06.000Z</time>
      </trkpt>
      <trkpt lat="44.67920830473304" lon="130.51398346200585">
        <ele>357.6</ele>
        <time>2026-09-16T13:37:09.000Z</time>
      </trkpt>
      <trkpt lat="44.67918986454606" lon="130.5140662752092">
        <ele>357.6</ele>
        <time>2026-09-16T13:37:11.000Z</time>
      </trkpt>
      <trkpt lat="44.67917435802519" lon="130.51414179615676">
        <ele>357.8</ele>
        <time>2026-09-16T13:37:13.000Z</time>
      </trkpt>
      <trkpt lat="44.67916203662753" lon="130.51425436511636">
        <ele>357.8</ele>
        <time>2026-09-16T13:37:16.000Z</time>
      </trkpt>
      <trkpt lat="44.679130520671606" lon="130.51461000926793">
        <ele>358</ele>
        <time>2026-09-16T13:37:32.000Z</time>
      </trkpt>
      <trkpt lat="44.679082157090306" lon="130.5150354746729">
        <ele>358</ele>
        <time>2026-09-16T13:37:48.000Z</time>
      </trkpt>
      <trkpt lat="44.67898023314774" lon="130.5156002473086">
        <ele>358</ele>
        <time>2026-09-16T13:38:04.000Z</time>
      </trkpt>
      <trkpt lat="44.67892709188163" lon="130.51596486009657">
        <ele>357.8</ele>
        <time>2026-09-16T13:38:14.000Z</time>
      </trkpt>
      <trkpt lat="44.67891627922654" lon="130.51604490727186">
        <ele>357.6</ele>
        <time>2026-09-16T13:38:16.000Z</time>
      </trkpt>
      <trkpt lat="44.678902281448245" lon="130.5161277204752">
        <ele>357.6</ele>
        <time>2026-09-16T13:38:18.000Z</time>
      </trkpt>
      <trkpt lat="44.6788873616606" lon="130.51621355116367">
        <ele>357.4</ele>
        <time>2026-09-16T13:38:20.000Z</time>
      </trkpt>
      <trkpt lat="44.67883941717446" lon="130.51643206737936">
        <ele>357.2</ele>
        <time>2026-09-16T13:38:25.000Z</time>
      </trkpt>
      <trkpt lat="44.678825587034225" lon="130.51652586087584">
        <ele>357</ele>
        <time>2026-09-16T13:38:27.000Z</time>
      </trkpt>
      <trkpt lat="44.678812930360436" lon="130.5166245996952">
        <ele>357</ele>
        <time>2026-09-16T13:38:29.000Z</time>
      </trkpt>
      <trkpt lat="44.67879465781152" lon="130.5167257692665">
        <ele>356.8</ele>
        <time>2026-09-16T13:38:31.000Z</time>
      </trkpt>
      <trkpt lat="44.67871008440852" lon="130.5171893723309">
        <ele>355.8</ele>
        <time>2026-09-16T13:38:41.000Z</time>
      </trkpt>
      <trkpt lat="44.678665325045586" lon="130.51739615388215">
        <ele>355.4</ele>
        <time>2026-09-16T13:38:45.000Z</time>
      </trkpt>
      <trkpt lat="44.67863900586963" lon="130.51750637590885">
        <ele>355</ele>
        <time>2026-09-16T13:38:47.000Z</time>
      </trkpt>
      <trkpt lat="44.67858142219484" lon="130.51779320463538">
        <ele>354.6</ele>
        <time>2026-09-16T13:38:52.000Z</time>
      </trkpt>
      <trkpt lat="44.678559210151434" lon="130.51791365258396">
        <ele>354.2</ele>
        <time>2026-09-16T13:38:54.000Z</time>
      </trkpt>
      <trkpt lat="44.678389225155115" lon="130.51870800554752">
        <ele>353</ele>
        <time>2026-09-16T13:39:10.000Z</time>
      </trkpt>
      <trkpt lat="44.678213289007545" lon="130.51940571516752">
        <ele>351.8</ele>
        <time>2026-09-16T13:39:23.000Z</time>
      </trkpt>
      <trkpt lat="44.678171295672655" lon="130.51956019364297">
        <ele>351.4</ele>
        <time>2026-09-16T13:39:25.000Z</time>
      </trkpt>
      <trkpt lat="44.678131230175495" lon="130.51972288638353">
        <ele>351.4</ele>
        <time>2026-09-16T13:39:27.000Z</time>
      </trkpt>
      <trkpt lat="44.67809535562992" lon="130.5198621097952">
        <ele>351</ele>
        <time>2026-09-16T13:39:29.000Z</time>
      </trkpt>
      <trkpt lat="44.67805721797049" lon="130.51999244838953">
        <ele>351</ele>
        <time>2026-09-16T13:39:31.000Z</time>
      </trkpt>
      <trkpt lat="44.67802000232041" lon="130.52012630738318">
        <ele>350.8</ele>
        <time>2026-09-16T13:39:33.000Z</time>
      </trkpt>
      <trkpt lat="44.67798488214612" lon="130.52026611752808">
        <ele>350.8</ele>
        <time>2026-09-16T13:39:35.000Z</time>
      </trkpt>
      <trkpt lat="44.677943559363484" lon="130.52040827460587">
        <ele>350.4</ele>
        <time>2026-09-16T13:39:37.000Z</time>
      </trkpt>
      <trkpt lat="44.67790097929537" lon="130.52055562846363">
        <ele>350</ele>
        <time>2026-09-16T13:39:39.000Z</time>
      </trkpt>
      <trkpt lat="44.67781540006399" lon="130.52085695788264">
        <ele>349.6</ele>
        <time>2026-09-16T13:39:43.000Z</time>
      </trkpt>
      <trkpt lat="44.67774541117251" lon="130.52108377218246">
        <ele>349.2</ele>
        <time>2026-09-16T13:39:46.000Z</time>
      </trkpt>
      <trkpt lat="44.67767500318587" lon="130.52131385542452">
        <ele>348.8</ele>
        <time>2026-09-16T13:39:49.000Z</time>
      </trkpt>
      <trkpt lat="44.67733830213547" lon="130.52244189195335">
        <ele>347.6</ele>
        <time>2026-09-16T13:40:05.000Z</time>
      </trkpt>
      <trkpt lat="44.67726948671043" lon="130.52268681116402">
        <ele>348.2</ele>
        <time>2026-09-16T13:40:10.000Z</time>
      </trkpt>
      <trkpt lat="44.67717535793781" lon="130.52299777977169">
        <ele>348.8</ele>
        <time>2026-09-16T13:40:18.000Z</time>
      </trkpt>
      <trkpt lat="44.677145183086395" lon="130.5230588838458">
        <ele>349</ele>
        <time>2026-09-16T13:40:20.000Z</time>
      </trkpt>
      <trkpt lat="44.67711693607271" lon="130.5231505818665">
        <ele>349.2</ele>
        <time>2026-09-16T13:40:23.000Z</time>
      </trkpt>
      <trkpt lat="44.67707402072847" lon="130.52328201010823">
        <ele>349.6</ele>
        <time>2026-09-16T13:40:28.000Z</time>
      </trkpt>
      <trkpt lat="44.677017694339156" lon="130.52352961152792">
        <ele>350.4</ele>
        <time>2026-09-16T13:40:38.000Z</time>
      </trkpt>
      <trkpt lat="44.676964385434985" lon="130.52370605058968">
        <ele>351</ele>
        <time>2026-09-16T13:40:46.000Z</time>
      </trkpt>
      <trkpt lat="44.67692465521395" lon="130.523886596784">
        <ele>351.6</ele>
        <time>2026-09-16T13:40:54.000Z</time>
      </trkpt>
      <trkpt lat="44.676814433187246" lon="130.52425338886678">
        <ele>353</ele>
        <time>2026-09-16T13:41:11.000Z</time>
      </trkpt>
      <trkpt lat="44.67671108432114" lon="130.52461012266576">
        <ele>354.4</ele>
        <time>2026-09-16T13:41:27.000Z</time>
      </trkpt>
      <trkpt lat="44.6765939053148" lon="130.52499359473586">
        <ele>355.8</ele>
        <time>2026-09-16T13:41:43.000Z</time>
      </trkpt>
      <trkpt lat="44.6764905564487" lon="130.52534295246005">
        <ele>356.8</ele>
        <time>2026-09-16T13:41:59.000Z</time>
      </trkpt>
      <trkpt lat="44.67638419009745" lon="130.52569289691746">
        <ele>358.2</ele>
        <time>2026-09-16T13:42:15.000Z</time>
      </trkpt>
      <trkpt lat="44.676277907565236" lon="130.52604275755584">
        <ele>359.4</ele>
        <time>2026-09-16T13:42:31.000Z</time>
      </trkpt>
      <trkpt lat="44.6761744748801" lon="130.52638079971075">
        <ele>360.6</ele>
        <time>2026-09-16T13:42:47.000Z</time>
      </trkpt>
      <trkpt lat="44.676117058843374" lon="130.52657509222627">
        <ele>361.4</ele>
        <time>2026-09-16T13:42:59.000Z</time>
      </trkpt>
      <trkpt lat="44.67603726312518" lon="130.52685278467834">
        <ele>362.4</ele>
        <time>2026-09-16T13:43:55.000Z</time>
      </trkpt>
      <trkpt lat="44.67592569999397" lon="130.52723038941622">
        <ele>363.6</ele>
        <time>2026-09-16T13:44:11.000Z</time>
      </trkpt>
      <trkpt lat="44.67581598088145" lon="130.52756189368665">
        <ele>365</ele>
        <time>2026-09-16T13:44:26.000Z</time>
      </trkpt>
      <trkpt lat="44.67570726759732" lon="130.527906389907">
        <ele>366.2</ele>
        <time>2026-09-16T13:44:42.000Z</time>
      </trkpt>
      <trkpt lat="44.67559352517128" lon="130.52824560552835">
        <ele>367.6</ele>
        <time>2026-09-16T13:44:58.000Z</time>
      </trkpt>
      <trkpt lat="44.67547978274524" lon="130.52858205512166">
        <ele>368.8</ele>
        <time>2026-09-16T13:45:14.000Z</time>
      </trkpt>
      <trkpt lat="44.67536880634725" lon="130.52891029044986">
        <ele>370</ele>
        <time>2026-09-16T13:45:30.000Z</time>
      </trkpt>
      <trkpt lat="44.67524458654225" lon="130.52922746166587">
        <ele>371.2</ele>
        <time>2026-09-16T13:45:47.000Z</time>
      </trkpt>
      <trkpt lat="44.67513729818165" lon="130.5295330658555">
        <ele>372.4</ele>
        <time>2026-09-16T13:46:02.000Z</time>
      </trkpt>
      <trkpt lat="44.67500603757799" lon="130.52984604611993">
        <ele>373.6</ele>
        <time>2026-09-16T13:46:18.000Z</time>
      </trkpt>
      <trkpt lat="44.674880895763636" lon="130.53020680323243">
        <ele>375</ele>
        <time>2026-09-16T13:46:35.000Z</time>
      </trkpt>
      <trkpt lat="44.67475005425513" lon="130.53052011877298">
        <ele>376.4</ele>
        <time>2026-09-16T13:46:51.000Z</time>
      </trkpt>
      <trkpt lat="44.6746186260134" lon="130.53083745762706">
        <ele>377.4</ele>
        <time>2026-09-16T13:47:07.000Z</time>
      </trkpt>
      <trkpt lat="44.674476301297545" lon="130.531151778996">
        <ele>378.8</ele>
        <time>2026-09-16T13:47:23.000Z</time>
      </trkpt>
      <trkpt lat="44.674336574971676" lon="130.531458389014">
        <ele>380.2</ele>
        <time>2026-09-16T13:47:39.000Z</time>
      </trkpt>
      <trkpt lat="44.67420011758804" lon="130.53177748806775">
        <ele>381.6</ele>
        <time>2026-09-16T13:47:56.000Z</time>
      </trkpt>
      <trkpt lat="44.674048237502575" lon="130.5320971738547">
        <ele>382.8</ele>
        <time>2026-09-16T13:48:12.000Z</time>
      </trkpt>
      <trkpt lat="44.67390591278672" lon="130.53240906447172">
        <ele>384</ele>
        <time>2026-09-16T13:48:28.000Z</time>
      </trkpt>
      <trkpt lat="44.67376166023314" lon="130.53271550685167">
        <ele>385.2</ele>
        <time>2026-09-16T13:48:44.000Z</time>
      </trkpt>
      <trkpt lat="44.673604080453515" lon="130.53304491564631">
        <ele>386.4</ele>
        <time>2026-09-16T13:49:00.000Z</time>
      </trkpt>
      <trkpt lat="44.6734615880996" lon="130.53336275741458">
        <ele>387.8</ele>
        <time>2026-09-16T13:49:16.000Z</time>
      </trkpt>
      <trkpt lat="44.67332370579243" lon="130.53366919979453">
        <ele>389</ele>
        <time>2026-09-16T13:49:32.000Z</time>
      </trkpt>
      <trkpt lat="44.67318993061781" lon="130.53396315313876">
        <ele>390.2</ele>
        <time>2026-09-16T13:49:48.000Z</time>
      </trkpt>
      <trkpt lat="44.673056825995445" lon="130.53425366990268">
        <ele>391.6</ele>
        <time>2026-09-16T13:50:04.000Z</time>
      </trkpt>
      <trkpt lat="44.67292028479278" lon="130.53454041481018">
        <ele>392.8</ele>
        <time>2026-09-16T13:50:21.000Z</time>
      </trkpt>
      <trkpt lat="44.672786593437195" lon="130.53482422605157">
        <ele>394.2</ele>
        <time>2026-09-16T13:50:37.000Z</time>
      </trkpt>
      <trkpt lat="44.672650219872594" lon="130.53511097095907">
        <ele>395.4</ele>
        <time>2026-09-16T13:50:53.000Z</time>
      </trkpt>
      <trkpt lat="44.67253555543721" lon="130.53537575528026">
        <ele>396.6</ele>
        <time>2026-09-16T13:51:06.000Z</time>
      </trkpt>
      <trkpt lat="44.672387363389134" lon="130.53567825816572">
        <ele>398</ele>
        <time>2026-09-16T13:51:22.000Z</time>
      </trkpt>
      <trkpt lat="44.672253085300326" lon="130.53596978075802">
        <ele>399.4</ele>
        <time>2026-09-16T13:51:38.000Z</time>
      </trkpt>
      <trkpt lat="44.672125931829214" lon="130.53624529391527">
        <ele>400.8</ele>
        <time>2026-09-16T13:51:54.000Z</time>
      </trkpt>
      <trkpt lat="44.67203138396144" lon="130.53645341657102">
        <ele>401.8</ele>
        <time>2026-09-16T13:52:06.000Z</time>
      </trkpt>
      <trkpt lat="44.67190012335777" lon="130.53673764690757">
        <ele>403.2</ele>
        <time>2026-09-16T13:52:22.000Z</time>
      </trkpt>
      <trkpt lat="44.67181705869734" lon="130.53689581342041">
        <ele>404.2</ele>
        <time>2026-09-16T13:52:32.000Z</time>
      </trkpt>
      <trkpt lat="44.671686636283994" lon="130.53718046285212">
        <ele>405.6</ele>
        <time>2026-09-16T13:52:49.000Z</time>
      </trkpt>
      <trkpt lat="44.67156199738383" lon="130.53745966404676">
        <ele>407</ele>
        <time>2026-09-16T13:53:06.000Z</time>
      </trkpt>
      <trkpt lat="44.67144548892975" lon="130.53771807812154">
        <ele>408.4</ele>
        <time>2026-09-16T13:53:22.000Z</time>
      </trkpt>
      <trkpt lat="44.6713150665164" lon="130.53799401037395">
        <ele>409.8</ele>
        <time>2026-09-16T13:53:38.000Z</time>
      </trkpt>
      <trkpt lat="44.67119788751006" lon="130.5382457189262">
        <ele>411</ele>
        <time>2026-09-16T13:53:54.000Z</time>
      </trkpt>
      <trkpt lat="44.67108892276883" lon="130.53847840055823">
        <ele>412.4</ele>
        <time>2026-09-16T13:54:09.000Z</time>
      </trkpt>
      <trkpt lat="44.67095120809972" lon="130.53876564837992">
        <ele>413.8</ele>
        <time>2026-09-16T13:54:25.000Z</time>
      </trkpt>
      <trkpt lat="44.67082941904664" lon="130.53903395310044">
        <ele>415.2</ele>
        <time>2026-09-16T13:54:41.000Z</time>
      </trkpt>
      <trkpt lat="44.67069840990007" lon="130.5393071193248">
        <ele>416.6</ele>
        <time>2026-09-16T13:54:57.000Z</time>
      </trkpt>
      <trkpt lat="44.67056597582996" lon="130.53957911208272">
        <ele>418.2</ele>
        <time>2026-09-16T13:55:14.000Z</time>
      </trkpt>
      <trkpt lat="44.6704410854727" lon="130.5398604925722">
        <ele>419.6</ele>
        <time>2026-09-16T13:55:30.000Z</time>
      </trkpt>
      <trkpt lat="44.67032122425735" lon="130.5401308927685">
        <ele>421</ele>
        <time>2026-09-16T13:55:46.000Z</time>
      </trkpt>
      <trkpt lat="44.670176384970546" lon="130.5403924919665">
        <ele>422.4</ele>
        <time>2026-09-16T13:56:02.000Z</time>
      </trkpt>
      <trkpt lat="44.670033724978566" lon="130.5406610481441">
        <ele>423.6</ele>
        <time>2026-09-16T13:56:18.000Z</time>
      </trkpt>
      <trkpt lat="44.6698850300163" lon="130.54093069396913">
        <ele>424.6</ele>
        <time>2026-09-16T13:56:34.000Z</time>
      </trkpt>
      <trkpt lat="44.66971487738192" lon="130.54120184853673">
        <ele>425.6</ele>
        <time>2026-09-16T13:56:50.000Z</time>
      </trkpt>
      <trkpt lat="44.669530894607306" lon="130.54147518239915">
        <ele>426.6</ele>
        <time>2026-09-16T13:57:06.000Z</time>
      </trkpt>
      <trkpt lat="44.66932947747409" lon="130.54173502139747">
        <ele>427.2</ele>
        <time>2026-09-16T13:57:22.000Z</time>
      </trkpt>
      <trkpt lat="44.669098472222686" lon="130.54201581515372">
        <ele>427.8</ele>
        <time>2026-09-16T13:57:39.000Z</time>
      </trkpt>
      <trkpt lat="44.668868305161595" lon="130.54225428029895">
        <ele>428</ele>
        <time>2026-09-16T13:57:55.000Z</time>
      </trkpt>
      <trkpt lat="44.66860645450652" lon="130.54249341599643">
        <ele>428</ele>
        <time>2026-09-16T13:58:11.000Z</time>
      </trkpt>
      <trkpt lat="44.66826883144677" lon="130.54275912232697">
        <ele>427.8</ele>
        <time>2026-09-16T13:58:27.000Z</time>
      </trkpt>
      <trkpt lat="44.6678354870528" lon="130.5430528242141">
        <ele>427</ele>
        <time>2026-09-16T13:58:43.000Z</time>
      </trkpt>
      <trkpt lat="44.667257219552994" lon="130.5433813109994">
        <ele>425</ele>
        <time>2026-09-16T13:58:59.000Z</time>
      </trkpt>
      <trkpt lat="44.66661650687456" lon="130.5437285732478">
        <ele>421.6</ele>
        <time>2026-09-16T13:59:15.000Z</time>
      </trkpt>
      <trkpt lat="44.665921898558736" lon="130.5441091954708">
        <ele>418.4</ele>
        <time>2026-09-16T13:59:31.000Z</time>
      </trkpt>
      <trkpt lat="44.66522930189967" lon="130.5444754846394">
        <ele>414.4</ele>
        <time>2026-09-16T13:59:47.000Z</time>
      </trkpt>
      <trkpt lat="44.66444777324796" lon="130.54489265196025">
        <ele>410.6</ele>
        <time>2026-09-16T14:00:04.000Z</time>
      </trkpt>
      <trkpt lat="44.663671692833304" lon="130.54532549344003">
        <ele>406.8</ele>
        <time>2026-09-16T14:00:20.000Z</time>
      </trkpt>
      <trkpt lat="44.66298940591514" lon="130.54588020779192">
        <ele>403.2</ele>
        <time>2026-09-16T14:00:36.000Z</time>
      </trkpt>
      <trkpt lat="44.66244198381901" lon="130.54661798290908">
        <ele>399.6</ele>
        <time>2026-09-16T14:00:52.000Z</time>
      </trkpt>
      <trkpt lat="44.66206781566143" lon="130.54739221930504">
        <ele>396</ele>
        <time>2026-09-16T14:01:08.000Z</time>
      </trkpt>
      <trkpt lat="44.66181359253824" lon="130.54824952036142">
        <ele>391.8</ele>
        <time>2026-09-16T14:01:24.000Z</time>
      </trkpt>
      <trkpt lat="44.661690881475806" lon="130.54914847947657">
        <ele>387.8</ele>
        <time>2026-09-16T14:01:40.000Z</time>
      </trkpt>
      <trkpt lat="44.661685936152935" lon="130.55008205585182">
        <ele>384.2</ele>
        <time>2026-09-16T14:01:56.000Z</time>
      </trkpt>
      <trkpt lat="44.66182876378298" lon="130.55106760002673">
        <ele>379.8</ele>
        <time>2026-09-16T14:02:13.000Z</time>
      </trkpt>
      <trkpt lat="44.66205130331218" lon="130.55204786360264">
        <ele>375.8</ele>
        <time>2026-09-16T14:02:29.000Z</time>
      </trkpt>
      <trkpt lat="44.66228918172419" lon="130.55302024818957">
        <ele>371.2</ele>
        <time>2026-09-16T14:02:45.000Z</time>
      </trkpt>
      <trkpt lat="44.662459501996636" lon="130.55398819036782">
        <ele>366.4</ele>
        <time>2026-09-16T14:03:01.000Z</time>
      </trkpt>
      <trkpt lat="44.662559581920505" lon="130.55498496629298">
        <ele>362.4</ele>
        <time>2026-09-16T14:03:17.000Z</time>
      </trkpt>
      <trkpt lat="44.662580117583275" lon="130.5559829995036">
        <ele>359.2</ele>
        <time>2026-09-16T14:03:33.000Z</time>
      </trkpt>
      <trkpt lat="44.66253636404872" lon="130.557004166767">
        <ele>355.6</ele>
        <time>2026-09-16T14:03:49.000Z</time>
      </trkpt>
      <trkpt lat="44.66238599270582" lon="130.558103621006">
        <ele>353</ele>
        <time>2026-09-16T14:04:05.000Z</time>
      </trkpt>
      <trkpt lat="44.662166722118855" lon="130.55910064838827">
        <ele>351</ele>
        <time>2026-09-16T14:04:21.000Z</time>
      </trkpt>
      <trkpt lat="44.66187561862171" lon="130.56009801104665">
        <ele>349</ele>
        <time>2026-09-16T14:04:38.000Z</time>
      </trkpt>
      <trkpt lat="44.66145023703575" lon="130.5611066892743">
        <ele>347.2</ele>
        <time>2026-09-16T14:04:54.000Z</time>
      </trkpt>
      <trkpt lat="44.660991663113236" lon="130.56197178550065">
        <ele>346.6</ele>
        <time>2026-09-16T14:05:10.000Z</time>
      </trkpt>
      <trkpt lat="44.66058807447553" lon="130.5626318603754">
        <ele>346.6</ele>
        <time>2026-09-16T14:05:26.000Z</time>
      </trkpt>
      <trkpt lat="44.66024659574032" lon="130.56312505155802">
        <ele>346.8</ele>
        <time>2026-09-16T14:05:42.000Z</time>
      </trkpt>
      <trkpt lat="44.65988541953266" lon="130.56360005401075">
        <ele>346.8</ele>
        <time>2026-09-16T14:05:58.000Z</time>
      </trkpt>
      <trkpt lat="44.659510999917984" lon="130.56403876282275">
        <ele>347</ele>
        <time>2026-09-16T14:06:14.000Z</time>
      </trkpt>
      <trkpt lat="44.65912467800081" lon="130.56445190683007">
        <ele>347.2</ele>
        <time>2026-09-16T14:06:30.000Z</time>
      </trkpt>
      <trkpt lat="44.65872460976243" lon="130.5648420844227">
        <ele>347.6</ele>
        <time>2026-09-16T14:06:46.000Z</time>
      </trkpt>
      <trkpt lat="44.65829570777714" lon="130.56521030142903">
        <ele>347.8</ele>
        <time>2026-09-16T14:07:03.000Z</time>
      </trkpt>
      <trkpt lat="44.65787476859987" lon="130.56552571244538">
        <ele>348.6</ele>
        <time>2026-09-16T14:07:19.000Z</time>
      </trkpt>
      <trkpt lat="44.65769807808101" lon="130.56563216261566">
        <ele>349.2</ele>
        <time>2026-09-16T14:23:06.000Z</time>
      </trkpt>
      <trkpt lat="44.657527673989534" lon="130.56574682705104">
        <ele>349.6</ele>
        <time>2026-09-16T14:23:22.000Z</time>
      </trkpt>
      <trkpt lat="44.65737319551408" lon="130.56584640406072">
        <ele>350</ele>
        <time>2026-09-16T14:23:39.000Z</time>
      </trkpt>
      <trkpt lat="44.657197929918766" lon="130.56595159694552">
        <ele>350.4</ele>
        <time>2026-09-16T14:23:55.000Z</time>
      </trkpt>
      <trkpt lat="44.657015120610595" lon="130.56605821475387">
        <ele>351</ele>
        <time>2026-09-16T14:24:11.000Z</time>
      </trkpt>
      <trkpt lat="44.6568161342293" lon="130.56616265326738">
        <ele>351.8</ele>
        <time>2026-09-16T14:24:27.000Z</time>
      </trkpt>
      <trkpt lat="44.65663416311145" lon="130.56625074706972">
        <ele>352.4</ele>
        <time>2026-09-16T14:24:43.000Z</time>
      </trkpt>
      <trkpt lat="44.65645588003099" lon="130.56633875705302">
        <ele>353.2</ele>
        <time>2026-09-16T14:24:59.000Z</time>
      </trkpt>
      <trkpt lat="44.65627348981798" lon="130.56642400100827">
        <ele>354</ele>
        <time>2026-09-16T14:25:15.000Z</time>
      </trkpt>
      <trkpt lat="44.65609143488109" lon="130.5664951633662">
        <ele>354.8</ele>
        <time>2026-09-16T14:25:31.000Z</time>
      </trkpt>
      <trkpt lat="44.655921617522836" lon="130.5665572732687">
        <ele>355.6</ele>
        <time>2026-09-16T14:25:47.000Z</time>
      </trkpt>
      <trkpt lat="44.655753979459405" lon="130.56662156246603">
        <ele>356.2</ele>
        <time>2026-09-16T14:26:04.000Z</time>
      </trkpt>
      <trkpt lat="44.65558030642569" lon="130.56669297628105">
        <ele>356.8</ele>
        <time>2026-09-16T14:26:20.000Z</time>
      </trkpt>
      <trkpt lat="44.655411411076784" lon="130.5667541641742">
        <ele>357.4</ele>
        <time>2026-09-16T14:26:36.000Z</time>
      </trkpt>
      <trkpt lat="44.65527939610183" lon="130.56679372675717">
        <ele>357.6</ele>
        <time>2026-09-16T14:26:52.000Z</time>
      </trkpt>
      <trkpt lat="44.65510580688715" lon="130.56685508228838">
        <ele>358</ele>
        <time>2026-09-16T14:27:08.000Z</time>
      </trkpt>
      <trkpt lat="44.65494747273624" lon="130.56689405813813">
        <ele>358.4</ele>
        <time>2026-09-16T14:27:24.000Z</time>
      </trkpt>
      <trkpt lat="44.65479710139334" lon="130.56694082915783">
        <ele>358.6</ele>
        <time>2026-09-16T14:27:40.000Z</time>
      </trkpt>
      <trkpt lat="44.65473943389952" lon="130.5669751111418">
        <ele>359.8</ele>
        <time>2026-09-16T14:41:56.000Z</time>
      </trkpt>
    </trkseg>
  </trk>
</gpx>