<?xml version="1.0" encoding="UTF-8"?>
<gpx creator="IGPSPORT" xmlns:xsi="http://www.w3.org/2001/XMLSchema-instance" schemaLocation="http://www.topografix.com/GPX/1/1 http://www.topografix.com/GPX/1/1/gpx.xsd" version="1.1" xmlns="http://www.topografix.com/GPX/1/1">
  <metadata>
    <time>2026-09-16T09:29:06.000Z</time>
    <link href="https://www.igpsport.cn/">
      <text>Велоспорт на свежем воздухе</text>
    </link>
  </metadata>
  <trk>
    <name>Велоспорт на свежем воздухе</name>
    <trkseg>
      <trkpt lat="44.57910256460309" lon="129.6078092046082">
        <ele>241</ele>
        <time>2026-09-16T09:29:06.000Z</time>
      </trkpt>
      <trkpt lat="44.5791488327086" lon="129.6077037602663">
        <ele>241</ele>
        <time>2026-09-16T09:29:15.000Z</time>
      </trkpt>
      <trkpt lat="44.57931647077203" lon="129.60759429261088">
        <ele>241</ele>
        <time>2026-09-16T09:29:31.000Z</time>
      </trkpt>
      <trkpt lat="44.57939626649022" lon="129.60772521793842">
        <ele>241</ele>
        <time>2026-09-16T09:29:50.000Z</time>
      </trkpt>
      <trkpt lat="44.57948662340641" lon="129.60780752822757">
        <ele>240.8</ele>
        <time>2026-09-16T09:30:01.000Z</time>
      </trkpt>
      <trkpt lat="44.57965233363211" lon="129.60767777636647">
        <ele>240.8</ele>
        <time>2026-09-16T09:30:17.000Z</time>
      </trkpt>
      <trkpt lat="44.57977873273194" lon="129.60765648633242">
        <ele>240.6</ele>
        <time>2026-09-16T09:30:31.000Z</time>
      </trkpt>
      <trkpt lat="44.579902617260814" lon="129.60761700756848">
        <ele>240.4</ele>
        <time>2026-09-16T09:30:46.000Z</time>
      </trkpt>
      <trkpt lat="44.579944694414735" lon="129.60758490487933">
        <ele>240.4</ele>
        <time>2026-09-16T09:30:48.000Z</time>
      </trkpt>
      <trkpt lat="44.57999196834862" lon="129.60754777304828">
        <ele>240.4</ele>
        <time>2026-09-16T09:30:50.000Z</time>
      </trkpt>
      <trkpt lat="44.580095736309886" lon="129.60747107863426">
        <ele>240.6</ele>
        <time>2026-09-16T09:30:54.000Z</time>
      </trkpt>
      <trkpt lat="44.580149967223406" lon="129.6074347011745">
        <ele>240.6</ele>
        <time>2026-09-16T09:30:56.000Z</time>
      </trkpt>
      <trkpt lat="44.580430928617716" lon="129.6072373073548">
        <ele>240.4</ele>
        <time>2026-09-16T09:31:09.000Z</time>
      </trkpt>
      <trkpt lat="44.58034920506179" lon="129.6067317109555">
        <ele>240.2</ele>
        <time>2026-09-16T09:31:22.000Z</time>
      </trkpt>
      <trkpt lat="44.580159271135926" lon="129.60609007626772">
        <ele>240</ele>
        <time>2026-09-16T09:31:38.000Z</time>
      </trkpt>
      <trkpt lat="44.58019137382507" lon="129.60593668743968">
        <ele>240</ele>
        <time>2026-09-16T09:31:44.000Z</time>
      </trkpt>
      <trkpt lat="44.58008433692157" lon="129.605842391029">
        <ele>240</ele>
        <time>2026-09-16T09:32:11.000Z</time>
      </trkpt>
      <trkpt lat="44.5799152739346" lon="129.6053170133382">
        <ele>240</ele>
        <time>2026-09-16T09:32:25.000Z</time>
      </trkpt>
      <trkpt lat="44.57978460006416" lon="129.60488710552454">
        <ele>239.8</ele>
        <time>2026-09-16T09:32:36.000Z</time>
      </trkpt>
      <trkpt lat="44.57976372912526" lon="129.60466272197664">
        <ele>239.6</ele>
        <time>2026-09-16T09:32:47.000Z</time>
      </trkpt>
      <trkpt lat="44.58005332387984" lon="129.60448888130486">
        <ele>239.6</ele>
        <time>2026-09-16T09:32:58.000Z</time>
      </trkpt>
      <trkpt lat="44.580376613885164" lon="129.60428872145712">
        <ele>239.8</ele>
        <time>2026-09-16T09:33:26.000Z</time>
      </trkpt>
      <trkpt lat="44.58081683143973" lon="129.60398915223777">
        <ele>240</ele>
        <time>2026-09-16T09:33:42.000Z</time>
      </trkpt>
      <trkpt lat="44.58130968734622" lon="129.6037384495139">
        <ele>240.2</ele>
        <time>2026-09-16T09:33:58.000Z</time>
      </trkpt>
      <trkpt lat="44.58132921718061" lon="129.60359352640808">
        <ele>240.4</ele>
        <time>2026-09-16T09:34:04.000Z</time>
      </trkpt>
      <trkpt lat="44.58137079142034" lon="129.60347249172628">
        <ele>240.6</ele>
        <time>2026-09-16T09:34:20.000Z</time>
      </trkpt>
      <trkpt lat="44.58146215416491" lon="129.60339738987386">
        <ele>240.6</ele>
        <time>2026-09-16T09:34:30.000Z</time>
      </trkpt>
      <trkpt lat="44.581497609615326" lon="129.6033190190792">
        <ele>240.8</ele>
        <time>2026-09-16T09:34:42.000Z</time>
      </trkpt>
      <trkpt lat="44.581664660945535" lon="129.6032544784248">
        <ele>240.8</ele>
        <time>2026-09-16T10:23:55.000Z</time>
      </trkpt>
      <trkpt lat="44.581833304837346" lon="129.6031694021076">
        <ele>240.8</ele>
        <time>2026-09-16T10:24:11.000Z</time>
      </trkpt>
      <trkpt lat="44.582000859081745" lon="129.60306672379375">
        <ele>240.6</ele>
        <time>2026-09-16T10:24:27.000Z</time>
      </trkpt>
      <trkpt lat="44.5821032859385" lon="129.603025149554">
        <ele>240.4</ele>
        <time>2026-09-16T10:24:38.000Z</time>
      </trkpt>
      <trkpt lat="44.582311660051346" lon="129.60283169522882">
        <ele>240.6</ele>
        <time>2026-09-16T10:25:07.000Z</time>
      </trkpt>
      <trkpt lat="44.58240092732012" lon="129.60283119231462">
        <ele>240.8</ele>
        <time>2026-09-16T10:25:17.000Z</time>
      </trkpt>
      <trkpt lat="44.582546101883054" lon="129.60275961086154">
        <ele>240.8</ele>
        <time>2026-09-16T10:25:43.000Z</time>
      </trkpt>
      <trkpt lat="44.58266520872712" lon="129.60266866721213">
        <ele>240.8</ele>
        <time>2026-09-16T10:25:57.000Z</time>
      </trkpt>
      <trkpt lat="44.58288221620023" lon="129.60258065722883">
        <ele>241</ele>
        <time>2026-09-16T10:27:28.000Z</time>
      </trkpt>
      <trkpt lat="44.58327205851674" lon="129.60235099308193">
        <ele>241.2</ele>
        <time>2026-09-16T10:27:48.000Z</time>
      </trkpt>
      <trkpt lat="44.58350406959653" lon="129.60236012935638">
        <ele>241</ele>
        <time>2026-09-16T10:27:59.000Z</time>
      </trkpt>
      <trkpt lat="44.583963230252266" lon="129.60208168253303">
        <ele>240.8</ele>
        <time>2026-09-16T10:28:15.000Z</time>
      </trkpt>
      <trkpt lat="44.58436036482453" lon="129.60186450742185">
        <ele>241</ele>
        <time>2026-09-16T10:28:31.000Z</time>
      </trkpt>
      <trkpt lat="44.58477459847927" lon="129.60157239809632">
        <ele>241</ele>
        <time>2026-09-16T10:28:47.000Z</time>
      </trkpt>
      <trkpt lat="44.58523342385888" lon="129.60130711086094">
        <ele>241.4</ele>
        <time>2026-09-16T10:29:03.000Z</time>
      </trkpt>
      <trkpt lat="44.58553827367723" lon="129.6011404786259">
        <ele>241.4</ele>
        <time>2026-09-16T10:29:14.000Z</time>
      </trkpt>
      <trkpt lat="44.58567657507956" lon="129.60133929736912">
        <ele>241.4</ele>
        <time>2026-09-16T10:29:21.000Z</time>
      </trkpt>
      <trkpt lat="44.585888888686895" lon="129.6020676009357">
        <ele>241.6</ele>
        <time>2026-09-16T10:29:37.000Z</time>
      </trkpt>
      <trkpt lat="44.58610153757036" lon="129.6027425955981">
        <ele>241.4</ele>
        <time>2026-09-16T10:29:54.000Z</time>
      </trkpt>
      <trkpt lat="44.58631820976734" lon="129.6033999044448">
        <ele>241.4</ele>
        <time>2026-09-16T10:30:10.000Z</time>
      </trkpt>
      <trkpt lat="44.58653655834496" lon="129.60404061712325">
        <ele>241.4</ele>
        <time>2026-09-16T10:30:26.000Z</time>
      </trkpt>
      <trkpt lat="44.58673428744078" lon="129.60452592931688">
        <ele>241.2</ele>
        <time>2026-09-16T10:30:42.000Z</time>
      </trkpt>
      <trkpt lat="44.586870577186346" lon="129.60513370111585">
        <ele>241.2</ele>
        <time>2026-09-16T10:30:56.000Z</time>
      </trkpt>
      <trkpt lat="44.58706227131188" lon="129.60573225282133">
        <ele>241.2</ele>
        <time>2026-09-16T10:31:12.000Z</time>
      </trkpt>
      <trkpt lat="44.58714877255261" lon="129.60605847649276">
        <ele>241.2</ele>
        <time>2026-09-16T10:31:25.000Z</time>
      </trkpt>
      <trkpt lat="44.58741322159767" lon="129.60673766210675">
        <ele>241.4</ele>
        <time>2026-09-16T10:32:37.000Z</time>
      </trkpt>
      <trkpt lat="44.58761212415993" lon="129.6073768660426">
        <ele>241.2</ele>
        <time>2026-09-16T10:32:52.000Z</time>
      </trkpt>
      <trkpt lat="44.587736930698156" lon="129.60777961649">
        <ele>241</ele>
        <time>2026-09-16T10:33:01.000Z</time>
      </trkpt>
      <trkpt lat="44.58795100450516" lon="129.608456203714">
        <ele>241.2</ele>
        <time>2026-09-16T10:33:17.000Z</time>
      </trkpt>
      <trkpt lat="44.588151667267084" lon="129.6091078966856">
        <ele>241.2</ele>
        <time>2026-09-16T10:33:33.000Z</time>
      </trkpt>
      <trkpt lat="44.58831058815122" lon="129.6096446737647">
        <ele>240.8</ele>
        <time>2026-09-16T10:33:46.000Z</time>
      </trkpt>
      <trkpt lat="44.58852918818593" lon="129.61033836007118">
        <ele>240.6</ele>
        <time>2026-09-16T10:34:02.000Z</time>
      </trkpt>
      <trkpt lat="44.588770754635334" lon="129.61105995811522">
        <ele>240</ele>
        <time>2026-09-16T10:34:18.000Z</time>
      </trkpt>
      <trkpt lat="44.58900712430477" lon="129.611852215603">
        <ele>239.2</ele>
        <time>2026-09-16T10:34:36.000Z</time>
      </trkpt>
      <trkpt lat="44.5892284065485" lon="129.6125544514507">
        <ele>238.2</ele>
        <time>2026-09-16T10:34:52.000Z</time>
      </trkpt>
      <trkpt lat="44.589470475912094" lon="129.6133121754974">
        <ele>237.2</ele>
        <time>2026-09-16T10:35:08.000Z</time>
      </trkpt>
      <trkpt lat="44.58965445868671" lon="129.61384736001492">
        <ele>237.2</ele>
        <time>2026-09-16T10:35:24.000Z</time>
      </trkpt>
      <trkpt lat="44.58978236652911" lon="129.61406872607768">
        <ele>237.4</ele>
        <time>2026-09-16T10:36:15.000Z</time>
      </trkpt>
      <trkpt lat="44.58987892605364" lon="129.6144036669284">
        <ele>237.8</ele>
        <time>2026-09-16T10:36:24.000Z</time>
      </trkpt>
      <trkpt lat="44.58991982974112" lon="129.61453266441822">
        <ele>238.2</ele>
        <time>2026-09-16T10:36:28.000Z</time>
      </trkpt>
      <trkpt lat="44.58993919193745" lon="129.6145962830633">
        <ele>238.4</ele>
        <time>2026-09-16T10:36:30.000Z</time>
      </trkpt>
      <trkpt lat="44.58997749723494" lon="129.6147194970399">
        <ele>238.8</ele>
        <time>2026-09-16T10:36:34.000Z</time>
      </trkpt>
      <trkpt lat="44.590179584920406" lon="129.6152168791741">
        <ele>239.8</ele>
        <time>2026-09-16T10:36:50.000Z</time>
      </trkpt>
      <trkpt lat="44.59026340395212" lon="129.6153767220676">
        <ele>240.4</ele>
        <time>2026-09-16T10:36:57.000Z</time>
      </trkpt>
      <trkpt lat="44.5905442815274" lon="129.61579254828393">
        <ele>241.6</ele>
        <time>2026-09-16T10:37:14.000Z</time>
      </trkpt>
      <trkpt lat="44.59078308194876" lon="129.61622262373567">
        <ele>242.8</ele>
        <time>2026-09-16T10:37:30.000Z</time>
      </trkpt>
      <trkpt lat="44.59098072722554" lon="129.61676065810025">
        <ele>243.2</ele>
        <time>2026-09-16T10:37:46.000Z</time>
      </trkpt>
      <trkpt lat="44.591094302013516" lon="129.61751016788185">
        <ele>242</ele>
        <time>2026-09-16T10:38:02.000Z</time>
      </trkpt>
      <trkpt lat="44.59110620431602" lon="129.6176218148321">
        <ele>241.8</ele>
        <time>2026-09-16T10:38:04.000Z</time>
      </trkpt>
      <trkpt lat="44.59111458621919" lon="129.61773849092424">
        <ele>241.8</ele>
        <time>2026-09-16T10:38:06.000Z</time>
      </trkpt>
      <trkpt lat="44.591117687523365" lon="129.61786187253892">
        <ele>241.6</ele>
        <time>2026-09-16T10:38:08.000Z</time>
      </trkpt>
      <trkpt lat="44.59114082157612" lon="129.61830862797797">
        <ele>240.8</ele>
        <time>2026-09-16T10:38:15.000Z</time>
      </trkpt>
      <trkpt lat="44.59116177633405" lon="129.61843829602003">
        <ele>240.6</ele>
        <time>2026-09-16T10:38:17.000Z</time>
      </trkpt>
      <trkpt lat="44.59124601446092" lon="129.61881975643337">
        <ele>239.6</ele>
        <time>2026-09-16T10:38:23.000Z</time>
      </trkpt>
      <trkpt lat="44.59128742106259" lon="129.61894925683737">
        <ele>239.2</ele>
        <time>2026-09-16T10:38:25.000Z</time>
      </trkpt>
      <trkpt lat="44.59147031418979" lon="129.61953875608742">
        <ele>237.8</ele>
        <time>2026-09-16T10:38:34.000Z</time>
      </trkpt>
      <trkpt lat="44.591729985550046" lon="129.6205141581595">
        <ele>235.8</ele>
        <time>2026-09-16T10:38:50.000Z</time>
      </trkpt>
      <trkpt lat="44.5919777546078" lon="129.62134120054543">
        <ele>235.6</ele>
        <time>2026-09-16T10:39:06.000Z</time>
      </trkpt>
      <trkpt lat="44.592177579179406" lon="129.62196858599782">
        <ele>235.8</ele>
        <time>2026-09-16T10:39:23.000Z</time>
      </trkpt>
      <trkpt lat="44.59239416755736" lon="129.62266646325588">
        <ele>236.2</ele>
        <time>2026-09-16T10:39:39.000Z</time>
      </trkpt>
      <trkpt lat="44.59262257441878" lon="129.6234453935176">
        <ele>236</ele>
        <time>2026-09-16T10:39:55.000Z</time>
      </trkpt>
      <trkpt lat="44.59284570068121" lon="129.62419892661273">
        <ele>236</ele>
        <time>2026-09-16T10:40:11.000Z</time>
      </trkpt>
      <trkpt lat="44.59303680807352" lon="129.6247932035476">
        <ele>236.2</ele>
        <time>2026-09-16T10:40:24.000Z</time>
      </trkpt>
      <trkpt lat="44.59325825795531" lon="129.62548362091184">
        <ele>236.4</ele>
        <time>2026-09-16T10:40:40.000Z</time>
      </trkpt>
      <trkpt lat="44.59346889518201" lon="129.6261656563729">
        <ele>236.6</ele>
        <time>2026-09-16T10:40:56.000Z</time>
      </trkpt>
      <trkpt lat="44.59368749521673" lon="129.6268683951348">
        <ele>236.8</ele>
        <time>2026-09-16T10:41:12.000Z</time>
      </trkpt>
      <trkpt lat="44.593944400548935" lon="129.6276641730219">
        <ele>236.4</ele>
        <time>2026-09-16T10:41:28.000Z</time>
      </trkpt>
      <trkpt lat="44.59416660480201" lon="129.6283809095621">
        <ele>236.4</ele>
        <time>2026-09-16T10:41:45.000Z</time>
      </trkpt>
      <trkpt lat="44.59436869248748" lon="129.6290656272322">
        <ele>236.2</ele>
        <time>2026-09-16T10:42:01.000Z</time>
      </trkpt>
      <trkpt lat="44.5944485720247" lon="129.62929219007492">
        <ele>236</ele>
        <time>2026-09-16T10:42:50.000Z</time>
      </trkpt>
      <trkpt lat="44.59466666914523" lon="129.63001110590994">
        <ele>235.8</ele>
        <time>2026-09-16T10:43:06.000Z</time>
      </trkpt>
      <trkpt lat="44.59490572102368" lon="129.63076539337635">
        <ele>235.6</ele>
        <time>2026-09-16T10:43:22.000Z</time>
      </trkpt>
      <trkpt lat="44.59513429552317" lon="129.63150568306446">
        <ele>235.4</ele>
        <time>2026-09-16T10:43:38.000Z</time>
      </trkpt>
      <trkpt lat="44.59537971764803" lon="129.63229634799063">
        <ele>235</ele>
        <time>2026-09-16T10:43:54.000Z</time>
      </trkpt>
      <trkpt lat="44.59559270180762" lon="129.63296446949244">
        <ele>235.2</ele>
        <time>2026-09-16T10:44:11.000Z</time>
      </trkpt>
      <trkpt lat="44.59579646587372" lon="129.63360987603664">
        <ele>235</ele>
        <time>2026-09-16T10:44:27.000Z</time>
      </trkpt>
      <trkpt lat="44.595979610458016" lon="129.6342231798917">
        <ele>235.2</ele>
        <time>2026-09-16T10:44:43.000Z</time>
      </trkpt>
      <trkpt lat="44.59609913639724" lon="129.63461335748434">
        <ele>235</ele>
        <time>2026-09-16T10:45:03.000Z</time>
      </trkpt>
      <trkpt lat="44.59630801342428" lon="129.6352953929454">
        <ele>235.2</ele>
        <time>2026-09-16T10:45:19.000Z</time>
      </trkpt>
      <trkpt lat="44.59652669727802" lon="129.63601087220013">
        <ele>235.2</ele>
        <time>2026-09-16T10:45:35.000Z</time>
      </trkpt>
      <trkpt lat="44.596733562648296" lon="129.6367116831243">
        <ele>235.2</ele>
        <time>2026-09-16T10:45:51.000Z</time>
      </trkpt>
      <trkpt lat="44.59692081436515" lon="129.637395394966">
        <ele>235.4</ele>
        <time>2026-09-16T10:46:07.000Z</time>
      </trkpt>
      <trkpt lat="44.5970752928406" lon="129.63796980679035">
        <ele>235.4</ele>
        <time>2026-09-16T10:46:24.000Z</time>
      </trkpt>
      <trkpt lat="44.59723211824894" lon="129.63860381394625">
        <ele>235</ele>
        <time>2026-09-16T10:46:40.000Z</time>
      </trkpt>
      <trkpt lat="44.59731141105294" lon="129.63898074813187">
        <ele>234.8</ele>
        <time>2026-09-16T10:46:55.000Z</time>
      </trkpt>
      <trkpt lat="44.59747217595577" lon="129.6396177727729">
        <ele>234.6</ele>
        <time>2026-09-16T10:47:40.000Z</time>
      </trkpt>
      <trkpt lat="44.597611567005515" lon="129.64024297893047">
        <ele>234.4</ele>
        <time>2026-09-16T10:47:56.000Z</time>
      </trkpt>
      <trkpt lat="44.59773771464825" lon="129.6408887207508">
        <ele>234.6</ele>
        <time>2026-09-16T10:48:12.000Z</time>
      </trkpt>
      <trkpt lat="44.59785497747362" lon="129.64153571985662">
        <ele>234.6</ele>
        <time>2026-09-16T10:48:26.000Z</time>
      </trkpt>
      <trkpt lat="44.59798573516309" lon="129.64227466844022">
        <ele>235.2</ele>
        <time>2026-09-16T10:48:42.000Z</time>
      </trkpt>
      <trkpt lat="44.59810107015073" lon="129.6429699473083">
        <ele>235.8</ele>
        <time>2026-09-16T10:48:59.000Z</time>
      </trkpt>
      <trkpt lat="44.598219925537705" lon="129.64367536827922">
        <ele>236</ele>
        <time>2026-09-16T10:49:15.000Z</time>
      </trkpt>
      <trkpt lat="44.59830701351166" lon="129.64439059607685">
        <ele>235.8</ele>
        <time>2026-09-16T10:49:31.000Z</time>
      </trkpt>
      <trkpt lat="44.598389407619834" lon="129.64504622854292">
        <ele>235.6</ele>
        <time>2026-09-16T10:49:47.000Z</time>
      </trkpt>
      <trkpt lat="44.5984635874629" lon="129.6457570977509">
        <ele>235.2</ele>
        <time>2026-09-16T10:50:03.000Z</time>
      </trkpt>
      <trkpt lat="44.59853332489729" lon="129.64649965055287">
        <ele>235.2</ele>
        <time>2026-09-16T10:50:19.000Z</time>
      </trkpt>
      <trkpt lat="44.598593674600124" lon="129.64725276455283">
        <ele>235</ele>
        <time>2026-09-16T10:50:35.000Z</time>
      </trkpt>
      <trkpt lat="44.59864086471498" lon="129.64800202287734">
        <ele>234.8</ele>
        <time>2026-09-16T10:50:51.000Z</time>
      </trkpt>
      <trkpt lat="44.598683193325996" lon="129.648571992293">
        <ele>234.8</ele>
        <time>2026-09-16T10:51:08.000Z</time>
      </trkpt>
      <trkpt lat="44.59877019748092" lon="129.64933281764388">
        <ele>234.4</ele>
        <time>2026-09-16T10:51:24.000Z</time>
      </trkpt>
      <trkpt lat="44.59877707064152" lon="129.65010990388691">
        <ele>234.4</ele>
        <time>2026-09-16T10:51:40.000Z</time>
      </trkpt>
      <trkpt lat="44.59880062378943" lon="129.65084767900407">
        <ele>234.4</ele>
        <time>2026-09-16T10:51:56.000Z</time>
      </trkpt>
      <trkpt lat="44.59881152026355" lon="129.65156860649586">
        <ele>234.6</ele>
        <time>2026-09-16T10:52:12.000Z</time>
      </trkpt>
      <trkpt lat="44.59883876144886" lon="129.6521109994501">
        <ele>234.2</ele>
        <time>2026-09-16T10:52:26.000Z</time>
      </trkpt>
      <trkpt lat="44.59884278476238" lon="129.6527825575322">
        <ele>233.8</ele>
        <time>2026-09-16T10:52:42.000Z</time>
      </trkpt>
      <trkpt lat="44.598887376487255" lon="129.65347481891513">
        <ele>234</ele>
        <time>2026-09-16T10:52:58.000Z</time>
      </trkpt>
      <trkpt lat="44.59892576560378" lon="129.6541896276176">
        <ele>234.4</ele>
        <time>2026-09-16T10:53:14.000Z</time>
      </trkpt>
      <trkpt lat="44.598941188305616" lon="129.65492765419185">
        <ele>235.6</ele>
        <time>2026-09-16T10:53:31.000Z</time>
      </trkpt>
      <trkpt lat="44.59895602427423" lon="129.6555644273758">
        <ele>236.6</ele>
        <time>2026-09-16T10:53:47.000Z</time>
      </trkpt>
      <trkpt lat="44.5989646576345" lon="129.65617245063186">
        <ele>238</ele>
        <time>2026-09-16T10:54:03.000Z</time>
      </trkpt>
      <trkpt lat="44.59895711392164" lon="129.65681676752865">
        <ele>238.8</ele>
        <time>2026-09-16T10:54:19.000Z</time>
      </trkpt>
      <trkpt lat="44.598913276568055" lon="129.65747960843146">
        <ele>239.4</ele>
        <time>2026-09-16T10:54:35.000Z</time>
      </trkpt>
      <trkpt lat="44.59884312003851" lon="129.65818050317466">
        <ele>239.6</ele>
        <time>2026-09-16T10:54:51.000Z</time>
      </trkpt>
      <trkpt lat="44.59876298904419" lon="129.6589208766818">
        <ele>239.4</ele>
        <time>2026-09-16T10:55:07.000Z</time>
      </trkpt>
      <trkpt lat="44.598682187497616" lon="129.65963669121265">
        <ele>239.6</ele>
        <time>2026-09-16T10:55:23.000Z</time>
      </trkpt>
      <trkpt lat="44.598602559417486" lon="129.66036767698824">
        <ele>239.6</ele>
        <time>2026-09-16T10:55:39.000Z</time>
      </trkpt>
      <trkpt lat="44.59851480089128" lon="129.66116379015148">
        <ele>239.6</ele>
        <time>2026-09-16T10:55:56.000Z</time>
      </trkpt>
      <trkpt lat="44.59842972457409" lon="129.66193257831037">
        <ele>239.8</ele>
        <time>2026-09-16T10:56:12.000Z</time>
      </trkpt>
      <trkpt lat="44.598349425941706" lon="129.66269759461284">
        <ele>239.8</ele>
        <time>2026-09-16T10:56:28.000Z</time>
      </trkpt>
      <trkpt lat="44.59826066158712" lon="129.66348364949226">
        <ele>239.6</ele>
        <time>2026-09-16T10:56:44.000Z</time>
      </trkpt>
      <trkpt lat="44.59817432798445" lon="129.66427138075233">
        <ele>239.6</ele>
        <time>2026-09-16T10:57:00.000Z</time>
      </trkpt>
      <trkpt lat="44.59810710512102" lon="129.6648789010942">
        <ele>239.6</ele>
        <time>2026-09-16T10:57:16.000Z</time>
      </trkpt>
      <trkpt lat="44.598078690469265" lon="129.66514469124377">
        <ele>239.8</ele>
        <time>2026-09-16T10:59:11.000Z</time>
      </trkpt>
      <trkpt lat="44.59800509735942" lon="129.6657700650394">
        <ele>239.8</ele>
        <time>2026-09-16T10:59:27.000Z</time>
      </trkpt>
      <trkpt lat="44.597840309143066" lon="129.66645151376724">
        <ele>239.4</ele>
        <time>2026-09-16T10:59:42.000Z</time>
      </trkpt>
      <trkpt lat="44.59762397222221" lon="129.66692785732448">
        <ele>238.4</ele>
        <time>2026-09-16T10:59:53.000Z</time>
      </trkpt>
      <trkpt lat="44.59719272330403" lon="129.66755440458655">
        <ele>237.2</ele>
        <time>2026-09-16T11:00:09.000Z</time>
      </trkpt>
      <trkpt lat="44.59666189737618" lon="129.66798632405698">
        <ele>236</ele>
        <time>2026-09-16T11:00:23.000Z</time>
      </trkpt>
      <trkpt lat="44.59605437703431" lon="129.66839251108468">
        <ele>235.2</ele>
        <time>2026-09-16T11:00:40.000Z</time>
      </trkpt>
      <trkpt lat="44.59556881338358" lon="129.66870012693107">
        <ele>235.4</ele>
        <time>2026-09-16T11:00:56.000Z</time>
      </trkpt>
      <trkpt lat="44.595159189775586" lon="129.6689639892429">
        <ele>236.4</ele>
        <time>2026-09-16T11:01:12.000Z</time>
      </trkpt>
      <trkpt lat="44.59475853480399" lon="129.6692264266312">
        <ele>237.6</ele>
        <time>2026-09-16T11:01:28.000Z</time>
      </trkpt>
      <trkpt lat="44.59442392922938" lon="129.66944351792336">
        <ele>238.8</ele>
        <time>2026-09-16T11:01:44.000Z</time>
      </trkpt>
      <trkpt lat="44.59408395923674" lon="129.66965968720615">
        <ele>239.8</ele>
        <time>2026-09-16T11:02:00.000Z</time>
      </trkpt>
      <trkpt lat="44.59375698119402" lon="129.6698746830225">
        <ele>241.2</ele>
        <time>2026-09-16T11:02:16.000Z</time>
      </trkpt>
      <trkpt lat="44.59342371672392" lon="129.67009755782783">
        <ele>242</ele>
        <time>2026-09-16T11:02:32.000Z</time>
      </trkpt>
      <trkpt lat="44.593098582699895" lon="129.67032127082348">
        <ele>243.2</ele>
        <time>2026-09-16T11:02:48.000Z</time>
      </trkpt>
      <trkpt lat="44.59275961853564" lon="129.67052545398474">
        <ele>243.8</ele>
        <time>2026-09-16T11:03:05.000Z</time>
      </trkpt>
      <trkpt lat="44.592409590259194" lon="129.67074355110526">
        <ele>244.6</ele>
        <time>2026-09-16T11:03:21.000Z</time>
      </trkpt>
      <trkpt lat="44.5920657645911" lon="129.67096650972962">
        <ele>245.2</ele>
        <time>2026-09-16T11:03:37.000Z</time>
      </trkpt>
      <trkpt lat="44.591793436557055" lon="129.67132475227118">
        <ele>246</ele>
        <time>2026-09-16T11:03:53.000Z</time>
      </trkpt>
      <trkpt lat="44.591645831242204" lon="129.67184300534427">
        <ele>246.4</ele>
        <time>2026-09-16T11:04:09.000Z</time>
      </trkpt>
      <trkpt lat="44.59150048904121" lon="129.67240425758064">
        <ele>246.8</ele>
        <time>2026-09-16T11:04:25.000Z</time>
      </trkpt>
      <trkpt lat="44.59132413379848" lon="129.67302242293954">
        <ele>246.6</ele>
        <time>2026-09-16T11:04:41.000Z</time>
      </trkpt>
      <trkpt lat="44.59110243245959" lon="129.67380235902965">
        <ele>246.4</ele>
        <time>2026-09-16T11:04:57.000Z</time>
      </trkpt>
      <trkpt lat="44.59085935726762" lon="129.67462697066367">
        <ele>246</ele>
        <time>2026-09-16T11:05:13.000Z</time>
      </trkpt>
      <trkpt lat="44.59050857461989" lon="129.67547630891204">
        <ele>245.4</ele>
        <time>2026-09-16T11:05:30.000Z</time>
      </trkpt>
      <trkpt lat="44.59023557603359" lon="129.67604770325124">
        <ele>244.2</ele>
        <time>2026-09-16T11:05:45.000Z</time>
      </trkpt>
      <trkpt lat="44.59009920246899" lon="129.67629346065223">
        <ele>243.4</ele>
        <time>2026-09-16T11:05:57.000Z</time>
      </trkpt>
      <trkpt lat="44.589849757030606" lon="129.6769387833774">
        <ele>242.4</ele>
        <time>2026-09-16T11:06:31.000Z</time>
      </trkpt>
      <trkpt lat="44.58948547951877" lon="129.67771570198238">
        <ele>241.8</ele>
        <time>2026-09-16T11:06:47.000Z</time>
      </trkpt>
      <trkpt lat="44.58911600522697" lon="129.67849236913025">
        <ele>241.4</ele>
        <time>2026-09-16T11:07:03.000Z</time>
      </trkpt>
      <trkpt lat="44.58871618844569" lon="129.67925696633756">
        <ele>241</ele>
        <time>2026-09-16T11:07:19.000Z</time>
      </trkpt>
      <trkpt lat="44.58830597810447" lon="129.67990446835756">
        <ele>240.8</ele>
        <time>2026-09-16T11:07:34.000Z</time>
      </trkpt>
      <trkpt lat="44.587865928187966" lon="129.680613912642">
        <ele>240.4</ele>
        <time>2026-09-16T11:07:51.000Z</time>
      </trkpt>
      <trkpt lat="44.58746686577797" lon="129.68125261366367">
        <ele>240.4</ele>
        <time>2026-09-16T11:08:07.000Z</time>
      </trkpt>
      <trkpt lat="44.587139803916216" lon="129.6817686036229">
        <ele>240.6</ele>
        <time>2026-09-16T11:08:23.000Z</time>
      </trkpt>
      <trkpt lat="44.58674459718168" lon="129.6823914628476">
        <ele>241</ele>
        <time>2026-09-16T11:08:39.000Z</time>
      </trkpt>
      <trkpt lat="44.58634385839105" lon="129.68300736509264">
        <ele>241.2</ele>
        <time>2026-09-16T11:08:55.000Z</time>
      </trkpt>
      <trkpt lat="44.58595988340676" lon="129.68362402170897">
        <ele>241.4</ele>
        <time>2026-09-16T11:09:11.000Z</time>
      </trkpt>
      <trkpt lat="44.58557146601379" lon="129.6842330507934">
        <ele>241.8</ele>
        <time>2026-09-16T11:09:27.000Z</time>
      </trkpt>
      <trkpt lat="44.58520048297942" lon="129.68481592833996">
        <ele>242.2</ele>
        <time>2026-09-16T11:09:43.000Z</time>
      </trkpt>
      <trkpt lat="44.58484643138945" lon="129.68539997935295">
        <ele>242.6</ele>
        <time>2026-09-16T11:09:59.000Z</time>
      </trkpt>
      <trkpt lat="44.58443990908563" lon="129.68600196763873">
        <ele>242.8</ele>
        <time>2026-09-16T11:10:16.000Z</time>
      </trkpt>
      <trkpt lat="44.584078062325716" lon="129.686586773023">
        <ele>243.2</ele>
        <time>2026-09-16T11:10:32.000Z</time>
      </trkpt>
      <trkpt lat="44.583724178373814" lon="129.6871647052467">
        <ele>243.4</ele>
        <time>2026-09-16T11:10:48.000Z</time>
      </trkpt>
      <trkpt lat="44.5833932608366" lon="129.6876964531839">
        <ele>243.8</ele>
        <time>2026-09-16T11:11:04.000Z</time>
      </trkpt>
      <trkpt lat="44.583039209246635" lon="129.68828461132944">
        <ele>244</ele>
        <time>2026-09-16T11:11:20.000Z</time>
      </trkpt>
      <trkpt lat="44.58267099224031" lon="129.68886396847665">
        <ele>244</ele>
        <time>2026-09-16T11:11:36.000Z</time>
      </trkpt>
      <trkpt lat="44.58230260759592" lon="129.68945338390768">
        <ele>244.2</ele>
        <time>2026-09-16T11:11:52.000Z</time>
      </trkpt>
      <trkpt lat="44.58193900063634" lon="129.69004397280514">
        <ele>244.2</ele>
        <time>2026-09-16T11:12:08.000Z</time>
      </trkpt>
      <trkpt lat="44.581540022045374" lon="129.69060447067022">
        <ele>244.4</ele>
        <time>2026-09-16T11:12:24.000Z</time>
      </trkpt>
      <trkpt lat="44.58105219528079" lon="129.69113068655133">
        <ele>244.6</ele>
        <time>2026-09-16T11:12:41.000Z</time>
      </trkpt>
      <trkpt lat="44.580531511455774" lon="129.69157576560974">
        <ele>244.6</ele>
        <time>2026-09-16T11:12:57.000Z</time>
      </trkpt>
      <trkpt lat="44.58000261336565" lon="129.69200307503343">
        <ele>244.8</ele>
        <time>2026-09-16T11:13:13.000Z</time>
      </trkpt>
      <trkpt lat="44.579501962289214" lon="129.69241630285978">
        <ele>245</ele>
        <time>2026-09-16T11:13:29.000Z</time>
      </trkpt>
      <trkpt lat="44.57900399342179" lon="129.69281871803105">
        <ele>245.2</ele>
        <time>2026-09-16T11:13:45.000Z</time>
      </trkpt>
      <trkpt lat="44.578521782532334" lon="129.69323211349547">
        <ele>245.4</ele>
        <time>2026-09-16T11:14:01.000Z</time>
      </trkpt>
      <trkpt lat="44.578077625483274" lon="129.69368901103735">
        <ele>245.8</ele>
        <time>2026-09-16T11:14:17.000Z</time>
      </trkpt>
      <trkpt lat="44.57767923362553" lon="129.69422201626003">
        <ele>245.8</ele>
        <time>2026-09-16T11:14:33.000Z</time>
      </trkpt>
      <trkpt lat="44.57731403410435" lon="129.6948281954974">
        <ele>245.8</ele>
        <time>2026-09-16T11:14:49.000Z</time>
      </trkpt>
      <trkpt lat="44.576966017484665" lon="129.69556622207165">
        <ele>245.8</ele>
        <time>2026-09-16T11:15:06.000Z</time>
      </trkpt>
      <trkpt lat="44.576657228171825" lon="129.69629150815308">
        <ele>246</ele>
        <time>2026-09-16T11:15:22.000Z</time>
      </trkpt>
      <trkpt lat="44.576350785791874" lon="129.6969797462225">
        <ele>246.2</ele>
        <time>2026-09-16T11:15:38.000Z</time>
      </trkpt>
      <trkpt lat="44.57605389878154" lon="129.69765692017972">
        <ele>246.2</ele>
        <time>2026-09-16T11:15:54.000Z</time>
      </trkpt>
      <trkpt lat="44.57577587105334" lon="129.69830869697034">
        <ele>246.8</ele>
        <time>2026-09-16T11:16:10.000Z</time>
      </trkpt>
      <trkpt lat="44.57552541978657" lon="129.69878914766014">
        <ele>246.6</ele>
        <time>2026-09-16T11:16:26.000Z</time>
      </trkpt>
      <trkpt lat="44.57519466988742" lon="129.69935760833323">
        <ele>247</ele>
        <time>2026-09-16T11:16:42.000Z</time>
      </trkpt>
      <trkpt lat="44.574799966067076" lon="129.699922548607">
        <ele>247.2</ele>
        <time>2026-09-16T11:16:58.000Z</time>
      </trkpt>
      <trkpt lat="44.57435639575124" lon="129.70044088549912">
        <ele>247.2</ele>
        <time>2026-09-16T11:17:14.000Z</time>
      </trkpt>
      <trkpt lat="44.573899833485484" lon="129.7009411174804">
        <ele>247.6</ele>
        <time>2026-09-16T11:17:31.000Z</time>
      </trkpt>
      <trkpt lat="44.57345341332257" lon="129.7014321293682">
        <ele>248</ele>
        <time>2026-09-16T11:17:47.000Z</time>
      </trkpt>
      <trkpt lat="44.57304211333394" lon="129.70188232138753">
        <ele>248.6</ele>
        <time>2026-09-16T11:18:03.000Z</time>
      </trkpt>
      <trkpt lat="44.5726540312171" lon="129.70230577513576">
        <ele>249.2</ele>
        <time>2026-09-16T11:18:19.000Z</time>
      </trkpt>
      <trkpt lat="44.57227550446987" lon="129.70270902849734">
        <ele>249.8</ele>
        <time>2026-09-16T11:18:35.000Z</time>
      </trkpt>
      <trkpt lat="44.571936121210456" lon="129.70308638177812">
        <ele>250.8</ele>
        <time>2026-09-16T11:18:51.000Z</time>
      </trkpt>
      <trkpt lat="44.5715694129467" lon="129.70348418690264">
        <ele>251.8</ele>
        <time>2026-09-16T11:19:07.000Z</time>
      </trkpt>
      <trkpt lat="44.571208572015166" lon="129.70389171503484">
        <ele>252.2</ele>
        <time>2026-09-16T11:19:23.000Z</time>
      </trkpt>
      <trkpt lat="44.57086172886193" lon="129.70430938526988">
        <ele>253.2</ele>
        <time>2026-09-16T11:19:39.000Z</time>
      </trkpt>
      <trkpt lat="44.57049937918782" lon="129.70476502552629">
        <ele>254.2</ele>
        <time>2026-09-16T11:19:56.000Z</time>
      </trkpt>
      <trkpt lat="44.570156559348106" lon="129.70521102659404">
        <ele>255.2</ele>
        <time>2026-09-16T11:20:12.000Z</time>
      </trkpt>
      <trkpt lat="44.56980879418552" lon="129.70568359829485">
        <ele>255.4</ele>
        <time>2026-09-16T11:20:28.000Z</time>
      </trkpt>
      <trkpt lat="44.56944711506367" lon="129.70620218664408">
        <ele>255.4</ele>
        <time>2026-09-16T11:20:44.000Z</time>
      </trkpt>
      <trkpt lat="44.569071773439646" lon="129.70675111748278">
        <ele>255.4</ele>
        <time>2026-09-16T11:21:00.000Z</time>
      </trkpt>
      <trkpt lat="44.568685200065374" lon="129.7073204163462">
        <ele>255.2</ele>
        <time>2026-09-16T11:21:16.000Z</time>
      </trkpt>
      <trkpt lat="44.568312875926495" lon="129.70786901190877">
        <ele>255</ele>
        <time>2026-09-16T11:21:32.000Z</time>
      </trkpt>
      <trkpt lat="44.567955220118165" lon="129.70840495079756">
        <ele>254.6</ele>
        <time>2026-09-16T11:21:48.000Z</time>
      </trkpt>
      <trkpt lat="44.567585829645395" lon="129.70896041952074">
        <ele>254.4</ele>
        <time>2026-09-16T11:22:05.000Z</time>
      </trkpt>
      <trkpt lat="44.56718048080802" lon="129.709553103894">
        <ele>254.2</ele>
        <time>2026-09-16T11:22:21.000Z</time>
      </trkpt>
      <trkpt lat="44.56681075505912" lon="129.7101073153317">
        <ele>254</ele>
        <time>2026-09-16T11:22:37.000Z</time>
      </trkpt>
      <trkpt lat="44.566425858065486" lon="129.71068021841347">
        <ele>253.6</ele>
        <time>2026-09-16T11:22:53.000Z</time>
      </trkpt>
      <trkpt lat="44.56603425554931" lon="129.71125002019107">
        <ele>253.4</ele>
        <time>2026-09-16T11:23:09.000Z</time>
      </trkpt>
      <trkpt lat="44.56563343293965" lon="129.7118465602398">
        <ele>253.2</ele>
        <time>2026-09-16T11:23:25.000Z</time>
      </trkpt>
      <trkpt lat="44.565201262012124" lon="129.71244854852557">
        <ele>253</ele>
        <time>2026-09-16T11:23:41.000Z</time>
      </trkpt>
      <trkpt lat="44.564737156033516" lon="129.71305179409683">
        <ele>252.8</ele>
        <time>2026-09-16T11:23:57.000Z</time>
      </trkpt>
      <trkpt lat="44.56426190212369" lon="129.71366199664772">
        <ele>252.8</ele>
        <time>2026-09-16T11:24:13.000Z</time>
      </trkpt>
      <trkpt lat="44.563794108107686" lon="129.71422232687473">
        <ele>252.8</ele>
        <time>2026-09-16T11:24:30.000Z</time>
      </trkpt>
      <trkpt lat="44.56330326385796" lon="129.71477050334215">
        <ele>252.8</ele>
        <time>2026-09-16T11:24:46.000Z</time>
      </trkpt>
      <trkpt lat="44.562843516469" lon="129.7152630239725">
        <ele>253</ele>
        <time>2026-09-16T11:25:02.000Z</time>
      </trkpt>
      <trkpt lat="44.562364825978875" lon="129.71574699506164">
        <ele>253.2</ele>
        <time>2026-09-16T11:25:18.000Z</time>
      </trkpt>
      <trkpt lat="44.561920166015625" lon="129.71619366668165">
        <ele>253.4</ele>
        <time>2026-09-16T11:25:34.000Z</time>
      </trkpt>
      <trkpt lat="44.561485731974244" lon="129.7166198026389">
        <ele>253.6</ele>
        <time>2026-09-16T11:25:50.000Z</time>
      </trkpt>
      <trkpt lat="44.561035204678774" lon="129.71706680953503">
        <ele>253.8</ele>
        <time>2026-09-16T11:26:06.000Z</time>
      </trkpt>
      <trkpt lat="44.56059037707746" lon="129.71751012839377">
        <ele>254</ele>
        <time>2026-09-16T11:26:22.000Z</time>
      </trkpt>
      <trkpt lat="44.56013708375394" lon="129.71795981749892">
        <ele>254.2</ele>
        <time>2026-09-16T11:26:38.000Z</time>
      </trkpt>
      <trkpt lat="44.55968052148819" lon="129.71841629594564">
        <ele>254.4</ele>
        <time>2026-09-16T11:26:55.000Z</time>
      </trkpt>
      <trkpt lat="44.55920057371259" lon="129.71889431588352">
        <ele>254.8</ele>
        <time>2026-09-16T11:27:11.000Z</time>
      </trkpt>
      <trkpt lat="44.55874149687588" lon="129.7193470224738">
        <ele>254.8</ele>
        <time>2026-09-16T11:27:27.000Z</time>
      </trkpt>
      <trkpt lat="44.558268170803785" lon="129.7198086977005">
        <ele>255.2</ele>
        <time>2026-09-16T11:27:43.000Z</time>
      </trkpt>
      <trkpt lat="44.5578096807003" lon="129.72026769071817">
        <ele>255</ele>
        <time>2026-09-16T11:27:59.000Z</time>
      </trkpt>
      <trkpt lat="44.55735429190099" lon="129.72072240896523">
        <ele>255.6</ele>
        <time>2026-09-16T11:28:15.000Z</time>
      </trkpt>
      <trkpt lat="44.55691600218415" lon="129.72116488963366">
        <ele>255.6</ele>
        <time>2026-09-16T11:28:31.000Z</time>
      </trkpt>
      <trkpt lat="44.55649456009269" lon="129.72162924706936">
        <ele>256.2</ele>
        <time>2026-09-16T11:28:47.000Z</time>
      </trkpt>
      <trkpt lat="44.556082002818584" lon="129.72213350236416">
        <ele>256.4</ele>
        <time>2026-09-16T11:29:03.000Z</time>
      </trkpt>
      <trkpt lat="44.555676402524114" lon="129.72270959056914">
        <ele>256.6</ele>
        <time>2026-09-16T11:29:20.000Z</time>
      </trkpt>
      <trkpt lat="44.55525998957455" lon="129.72337746061385">
        <ele>257</ele>
        <time>2026-09-16T11:29:36.000Z</time>
      </trkpt>
      <trkpt lat="44.554896634072065" lon="129.7240325063467">
        <ele>257</ele>
        <time>2026-09-16T11:29:52.000Z</time>
      </trkpt>
      <trkpt lat="44.554558005183935" lon="129.72466777078807">
        <ele>257.4</ele>
        <time>2026-09-16T11:30:08.000Z</time>
      </trkpt>
      <trkpt lat="44.55423655919731" lon="129.72527076490223">
        <ele>257.4</ele>
        <time>2026-09-16T11:30:24.000Z</time>
      </trkpt>
      <trkpt lat="44.55391000024974" lon="129.72588281147182">
        <ele>257.6</ele>
        <time>2026-09-16T11:30:40.000Z</time>
      </trkpt>
      <trkpt lat="44.55357170663774" lon="129.7265173215419">
        <ele>258</ele>
        <time>2026-09-16T11:30:56.000Z</time>
      </trkpt>
      <trkpt lat="44.55323877744377" lon="129.7271389234811">
        <ele>258.2</ele>
        <time>2026-09-16T11:31:12.000Z</time>
      </trkpt>
      <trkpt lat="44.5529174990952" lon="129.72774929367006">
        <ele>258.4</ele>
        <time>2026-09-16T11:31:28.000Z</time>
      </trkpt>
      <trkpt lat="44.552577529102564" lon="129.72837827168405">
        <ele>258.6</ele>
        <time>2026-09-16T11:31:45.000Z</time>
      </trkpt>
      <trkpt lat="44.552237559109926" lon="129.7290221694857">
        <ele>259</ele>
        <time>2026-09-16T11:32:01.000Z</time>
      </trkpt>
      <trkpt lat="44.55189851112664" lon="129.72965550608933">
        <ele>259.4</ele>
        <time>2026-09-16T11:32:17.000Z</time>
      </trkpt>
      <trkpt lat="44.551559295505285" lon="129.73029848188162">
        <ele>259.8</ele>
        <time>2026-09-16T11:32:33.000Z</time>
      </trkpt>
      <trkpt lat="44.55123516730964" lon="129.73093500360847">
        <ele>260.2</ele>
        <time>2026-09-16T11:32:49.000Z</time>
      </trkpt>
      <trkpt lat="44.55093417316675" lon="129.73159960471094">
        <ele>260.6</ele>
        <time>2026-09-16T11:33:05.000Z</time>
      </trkpt>
      <trkpt lat="44.55067131668329" lon="129.7322942968458">
        <ele>260.8</ele>
        <time>2026-09-16T11:33:21.000Z</time>
      </trkpt>
      <trkpt lat="44.55044877715409" lon="129.73299644887447">
        <ele>261.2</ele>
        <time>2026-09-16T11:33:37.000Z</time>
      </trkpt>
      <trkpt lat="44.55026211217046" lon="129.73373690620065">
        <ele>261.4</ele>
        <time>2026-09-16T11:33:53.000Z</time>
      </trkpt>
      <trkpt lat="44.55016597174108" lon="129.73420780152082">
        <ele>261.6</ele>
        <time>2026-09-16T11:34:04.000Z</time>
      </trkpt>
      <trkpt lat="44.55004787072539" lon="129.73497851751745">
        <ele>262</ele>
        <time>2026-09-16T11:34:20.000Z</time>
      </trkpt>
      <trkpt lat="44.54997478052974" lon="129.73572358489037">
        <ele>260.8</ele>
        <time>2026-09-16T11:34:36.000Z</time>
      </trkpt>
      <trkpt lat="44.54990697093308" lon="129.73651240579784">
        <ele>260.8</ele>
        <time>2026-09-16T11:34:52.000Z</time>
      </trkpt>
      <trkpt lat="44.549837317317724" lon="129.73732000216842">
        <ele>261.6</ele>
        <time>2026-09-16T11:35:08.000Z</time>
      </trkpt>
      <trkpt lat="44.54976883716881" lon="129.738146122545">
        <ele>261.6</ele>
        <time>2026-09-16T11:35:24.000Z</time>
      </trkpt>
      <trkpt lat="44.54970312304795" lon="129.73896419629455">
        <ele>262</ele>
        <time>2026-09-16T11:35:40.000Z</time>
      </trkpt>
      <trkpt lat="44.549636067822576" lon="129.73978939466178">
        <ele>261.6</ele>
        <time>2026-09-16T11:35:56.000Z</time>
      </trkpt>
      <trkpt lat="44.54956800676882" lon="129.7406005114317">
        <ele>261.4</ele>
        <time>2026-09-16T11:36:12.000Z</time>
      </trkpt>
      <trkpt lat="44.54949650913477" lon="129.74143635481596">
        <ele>261.6</ele>
        <time>2026-09-16T11:36:29.000Z</time>
      </trkpt>
      <trkpt lat="44.5494207367301" lon="129.74226096644998">
        <ele>261.8</ele>
        <time>2026-09-16T11:36:45.000Z</time>
      </trkpt>
      <trkpt lat="44.549300372600555" lon="129.74305238574743">
        <ele>261.8</ele>
        <time>2026-09-16T11:37:01.000Z</time>
      </trkpt>
      <trkpt lat="44.54909970983863" lon="129.74377389997244">
        <ele>262.4</ele>
        <time>2026-09-16T11:37:17.000Z</time>
      </trkpt>
      <trkpt lat="44.54886878840625" lon="129.74435585550964">
        <ele>263.2</ele>
        <time>2026-09-16T11:37:33.000Z</time>
      </trkpt>
      <trkpt lat="44.548612302169204" lon="129.74484225735068">
        <ele>264.2</ele>
        <time>2026-09-16T11:37:49.000Z</time>
      </trkpt>
      <trkpt lat="44.548347014933825" lon="129.74524777382612">
        <ele>265.4</ele>
        <time>2026-09-16T11:38:05.000Z</time>
      </trkpt>
      <trkpt lat="44.54806672409177" lon="129.7455833852291">
        <ele>266.4</ele>
        <time>2026-09-16T11:38:21.000Z</time>
      </trkpt>
      <trkpt lat="44.547776626423" lon="129.7458796016872">
        <ele>267.4</ele>
        <time>2026-09-16T11:38:37.000Z</time>
      </trkpt>
      <trkpt lat="44.547463562339544" lon="129.74616617895663">
        <ele>268.4</ele>
        <time>2026-09-16T11:38:54.000Z</time>
      </trkpt>
      <trkpt lat="44.54716231673956" lon="129.7464443743229">
        <ele>269.2</ele>
        <time>2026-09-16T11:39:10.000Z</time>
      </trkpt>
      <trkpt lat="44.54687146469951" lon="129.74671594798565">
        <ele>270.4</ele>
        <time>2026-09-16T11:39:26.000Z</time>
      </trkpt>
      <trkpt lat="44.54657558351755" lon="129.74698919802904">
        <ele>271.2</ele>
        <time>2026-09-16T11:39:42.000Z</time>
      </trkpt>
      <trkpt lat="44.546263106167316" lon="129.74727124907076">
        <ele>272</ele>
        <time>2026-09-16T11:39:58.000Z</time>
      </trkpt>
      <trkpt lat="44.54594166018069" lon="129.74756545387208">
        <ele>272.6</ele>
        <time>2026-09-16T11:40:14.000Z</time>
      </trkpt>
      <trkpt lat="44.54562448896468" lon="129.74785001948476">
        <ele>273.2</ele>
        <time>2026-09-16T11:40:30.000Z</time>
      </trkpt>
      <trkpt lat="44.54529466107488" lon="129.74814388900995">
        <ele>273.6</ele>
        <time>2026-09-16T11:40:46.000Z</time>
      </trkpt>
      <trkpt lat="44.54497120343149" lon="129.74843650124967">
        <ele>274</ele>
        <time>2026-09-16T11:41:02.000Z</time>
      </trkpt>
      <trkpt lat="44.54463953152299" lon="129.7487457934767">
        <ele>274.8</ele>
        <time>2026-09-16T11:41:19.000Z</time>
      </trkpt>
      <trkpt lat="44.54433761537075" lon="129.74907830357552">
        <ele>275.4</ele>
        <time>2026-09-16T11:41:35.000Z</time>
      </trkpt>
      <trkpt lat="44.54404232092202" lon="129.74947107955813">
        <ele>276</ele>
        <time>2026-09-16T11:41:51.000Z</time>
      </trkpt>
      <trkpt lat="44.543773932382464" lon="129.7499242052436">
        <ele>276.6</ele>
        <time>2026-09-16T11:42:07.000Z</time>
      </trkpt>
      <trkpt lat="44.54353152774274" lon="129.75045234896243">
        <ele>277.2</ele>
        <time>2026-09-16T11:42:23.000Z</time>
      </trkpt>
      <trkpt lat="44.543331284075975" lon="129.751035310328">
        <ele>277.4</ele>
        <time>2026-09-16T11:42:39.000Z</time>
      </trkpt>
      <trkpt lat="44.543184684589505" lon="129.75162355229259">
        <ele>278.2</ele>
        <time>2026-09-16T11:42:55.000Z</time>
      </trkpt>
      <trkpt lat="44.54309516586363" lon="129.75226116366684">
        <ele>278.2</ele>
        <time>2026-09-16T11:43:11.000Z</time>
      </trkpt>
      <trkpt lat="44.54304177314043" lon="129.75291956216097">
        <ele>278.2</ele>
        <time>2026-09-16T11:43:27.000Z</time>
      </trkpt>
      <trkpt lat="44.54298745840788" lon="129.75375339388847">
        <ele>278.2</ele>
        <time>2026-09-16T11:43:44.000Z</time>
      </trkpt>
      <trkpt lat="44.542932054027915" lon="129.75454858504236">
        <ele>278.4</ele>
        <time>2026-09-16T11:44:00.000Z</time>
      </trkpt>
      <trkpt lat="44.542876398190856" lon="129.75531904958189">
        <ele>278.4</ele>
        <time>2026-09-16T11:44:16.000Z</time>
      </trkpt>
      <trkpt lat="44.542828034609556" lon="129.7560895141214">
        <ele>278.4</ele>
        <time>2026-09-16T11:44:32.000Z</time>
      </trkpt>
      <trkpt lat="44.5427758153528" lon="129.7568730544299">
        <ele>278.6</ele>
        <time>2026-09-16T11:44:48.000Z</time>
      </trkpt>
      <trkpt lat="44.54272208735347" lon="129.75765097886324">
        <ele>278.6</ele>
        <time>2026-09-16T11:45:04.000Z</time>
      </trkpt>
      <trkpt lat="44.542675064876676" lon="129.75843301042914">
        <ele>278.6</ele>
        <time>2026-09-16T11:45:20.000Z</time>
      </trkpt>
      <trkpt lat="44.54261949285865" lon="129.75922401063144">
        <ele>278.2</ele>
        <time>2026-09-16T11:45:36.000Z</time>
      </trkpt>
      <trkpt lat="44.54256475903094" lon="129.76004409603775">
        <ele>278.2</ele>
        <time>2026-09-16T11:45:53.000Z</time>
      </trkpt>
      <trkpt lat="44.54250415787101" lon="129.76092277094722">
        <ele>278</ele>
        <time>2026-09-16T11:46:09.000Z</time>
      </trkpt>
      <trkpt lat="44.54244967550039" lon="129.76175702176988">
        <ele>277.8</ele>
        <time>2026-09-16T11:46:25.000Z</time>
      </trkpt>
      <trkpt lat="44.54239469021559" lon="129.76261239498854">
        <ele>277.6</ele>
        <time>2026-09-16T11:46:41.000Z</time>
      </trkpt>
      <trkpt lat="44.54233769327402" lon="129.7634727973491">
        <ele>277.6</ele>
        <time>2026-09-16T11:46:57.000Z</time>
      </trkpt>
      <trkpt lat="44.542283210903406" lon="129.76432850584388">
        <ele>277.4</ele>
        <time>2026-09-16T11:47:13.000Z</time>
      </trkpt>
      <trkpt lat="44.54222378320992" lon="129.76518790237606">
        <ele>277.2</ele>
        <time>2026-09-16T11:47:29.000Z</time>
      </trkpt>
      <trkpt lat="44.54216469079256" lon="129.76605551317334">
        <ele>277.2</ele>
        <time>2026-09-16T11:47:45.000Z</time>
      </trkpt>
      <trkpt lat="44.54210610128939" lon="129.76693318225443">
        <ele>277.4</ele>
        <time>2026-09-16T11:48:01.000Z</time>
      </trkpt>
      <trkpt lat="44.54205078072846" lon="129.76775561459363">
        <ele>277.6</ele>
        <time>2026-09-16T11:48:18.000Z</time>
      </trkpt>
      <trkpt lat="44.54200007021427" lon="129.76850227452815">
        <ele>278.2</ele>
        <time>2026-09-16T11:48:34.000Z</time>
      </trkpt>
      <trkpt lat="44.541956735774875" lon="129.76919780485332">
        <ele>278.6</ele>
        <time>2026-09-16T11:48:50.000Z</time>
      </trkpt>
      <trkpt lat="44.54191197641194" lon="129.7698790859431">
        <ele>279.2</ele>
        <time>2026-09-16T11:49:06.000Z</time>
      </trkpt>
      <trkpt lat="44.54186545684934" lon="129.77055902592838">
        <ele>279.8</ele>
        <time>2026-09-16T11:49:22.000Z</time>
      </trkpt>
      <trkpt lat="44.54182815738022" lon="129.77120225317776">
        <ele>280</ele>
        <time>2026-09-16T11:49:38.000Z</time>
      </trkpt>
      <trkpt lat="44.541786666959524" lon="129.7718506772071">
        <ele>280.6</ele>
        <time>2026-09-16T11:49:54.000Z</time>
      </trkpt>
      <trkpt lat="44.541763197630644" lon="129.77252231910825">
        <ele>281.2</ele>
        <time>2026-09-16T11:50:10.000Z</time>
      </trkpt>
      <trkpt lat="44.54175087623298" lon="129.77318348363042">
        <ele>281.6</ele>
        <time>2026-09-16T11:50:26.000Z</time>
      </trkpt>
      <trkpt lat="44.541753055527806" lon="129.7735838033259">
        <ele>282</ele>
        <time>2026-09-16T11:50:57.000Z</time>
      </trkpt>
      <trkpt lat="44.541773507371545" lon="129.7743447124958">
        <ele>281.8</ele>
        <time>2026-09-16T11:51:13.000Z</time>
      </trkpt>
      <trkpt lat="44.54181709326804" lon="129.77514216676354">
        <ele>281.4</ele>
        <time>2026-09-16T11:51:29.000Z</time>
      </trkpt>
      <trkpt lat="44.54188942909241" lon="129.77599368430674">
        <ele>281.2</ele>
        <time>2026-09-16T11:51:45.000Z</time>
      </trkpt>
      <trkpt lat="44.54199990257621" lon="129.77693279273808">
        <ele>280.4</ele>
        <time>2026-09-16T11:52:01.000Z</time>
      </trkpt>
      <trkpt lat="44.54215488396585" lon="129.77790148928761">
        <ele>279.6</ele>
        <time>2026-09-16T11:52:17.000Z</time>
      </trkpt>
      <trkpt lat="44.54235378652811" lon="129.77888049557805">
        <ele>278.4</ele>
        <time>2026-09-16T11:52:33.000Z</time>
      </trkpt>
      <trkpt lat="44.54258889891207" lon="129.7799319215119">
        <ele>277</ele>
        <time>2026-09-16T11:52:49.000Z</time>
      </trkpt>
      <trkpt lat="44.54282820224762" lon="129.78096457198262">
        <ele>276.2</ele>
        <time>2026-09-16T11:53:06.000Z</time>
      </trkpt>
      <trkpt lat="44.543044958263636" lon="129.7819286584854">
        <ele>276</ele>
        <time>2026-09-16T11:53:22.000Z</time>
      </trkpt>
      <trkpt lat="44.543255008757114" lon="129.78284790180624">
        <ele>276.4</ele>
        <time>2026-09-16T11:53:38.000Z</time>
      </trkpt>
      <trkpt lat="44.54345516860485" lon="129.7837075497955">
        <ele>276.8</ele>
        <time>2026-09-16T11:53:54.000Z</time>
      </trkpt>
      <trkpt lat="44.54365356825292" lon="129.7845698799938">
        <ele>277.2</ele>
        <time>2026-09-16T11:54:10.000Z</time>
      </trkpt>
      <trkpt lat="44.543847274035215" lon="129.78540622629225">
        <ele>277.4</ele>
        <time>2026-09-16T11:54:26.000Z</time>
      </trkpt>
      <trkpt lat="44.544036872684956" lon="129.78622706606984">
        <ele>278</ele>
        <time>2026-09-16T11:54:42.000Z</time>
      </trkpt>
      <trkpt lat="44.544234769418836" lon="129.78708386421204">
        <ele>278.4</ele>
        <time>2026-09-16T11:54:58.000Z</time>
      </trkpt>
      <trkpt lat="44.544418919831514" lon="129.78789850138128">
        <ele>278.8</ele>
        <time>2026-09-16T11:55:14.000Z</time>
      </trkpt>
      <trkpt lat="44.54460910521448" lon="129.78873970918357">
        <ele>279.2</ele>
        <time>2026-09-16T11:55:31.000Z</time>
      </trkpt>
      <trkpt lat="44.54481831751764" lon="129.78966255672276">
        <ele>279.6</ele>
        <time>2026-09-16T11:55:47.000Z</time>
      </trkpt>
      <trkpt lat="44.54502057284117" lon="129.79051985777915">
        <ele>280</ele>
        <time>2026-09-16T11:56:03.000Z</time>
      </trkpt>
      <trkpt lat="44.54520346596837" lon="129.79133072309196">
        <ele>280.6</ele>
        <time>2026-09-16T11:56:19.000Z</time>
      </trkpt>
      <trkpt lat="44.54538711346686" lon="129.7921363916248">
        <ele>281</ele>
        <time>2026-09-16T11:56:35.000Z</time>
      </trkpt>
      <trkpt lat="44.545580483973026" lon="129.79296695441008">
        <ele>281</ele>
        <time>2026-09-16T11:56:51.000Z</time>
      </trkpt>
      <trkpt lat="44.54576429910958" lon="129.79377882555127">
        <ele>281.6</ele>
        <time>2026-09-16T11:57:07.000Z</time>
      </trkpt>
      <trkpt lat="44.545950377359986" lon="129.79459245689213">
        <ele>282.4</ele>
        <time>2026-09-16T11:57:23.000Z</time>
      </trkpt>
      <trkpt lat="44.54613687470555" lon="129.79539779014885">
        <ele>283</ele>
        <time>2026-09-16T11:57:39.000Z</time>
      </trkpt>
      <trkpt lat="44.546314403414726" lon="129.79616649448872">
        <ele>283.4</ele>
        <time>2026-09-16T11:57:56.000Z</time>
      </trkpt>
      <trkpt lat="44.546516658738256" lon="129.7970425710082">
        <ele>283.8</ele>
        <time>2026-09-16T11:58:12.000Z</time>
      </trkpt>
      <trkpt lat="44.546699803322554" lon="129.7978359181434">
        <ele>284.4</ele>
        <time>2026-09-16T11:58:28.000Z</time>
      </trkpt>
      <trkpt lat="44.54679946415126" lon="129.79830731637776">
        <ele>284.6</ele>
        <time>2026-09-16T11:58:42.000Z</time>
      </trkpt>
      <trkpt lat="44.54696458764374" lon="129.79899731464684">
        <ele>285.2</ele>
        <time>2026-09-16T11:59:39.000Z</time>
      </trkpt>
      <trkpt lat="44.54713876359165" lon="129.79976451024413">
        <ele>285.8</ele>
        <time>2026-09-16T11:59:55.000Z</time>
      </trkpt>
      <trkpt lat="44.54731713049114" lon="129.80054712854326">
        <ele>286</ele>
        <time>2026-09-16T12:00:11.000Z</time>
      </trkpt>
      <trkpt lat="44.54742525704205" lon="129.80105532333255">
        <ele>286.2</ele>
        <time>2026-09-16T12:00:24.000Z</time>
      </trkpt>
      <trkpt lat="44.547554505988955" lon="129.80161950923502">
        <ele>286.6</ele>
        <time>2026-09-16T12:01:30.000Z</time>
      </trkpt>
      <trkpt lat="44.54768040217459" lon="129.80232157744467">
        <ele>286.8</ele>
        <time>2026-09-16T12:01:46.000Z</time>
      </trkpt>
      <trkpt lat="44.547793474048376" lon="129.80302104726434">
        <ele>287.6</ele>
        <time>2026-09-16T12:02:02.000Z</time>
      </trkpt>
      <trkpt lat="44.54791861586273" lon="129.80382428504527">
        <ele>288</ele>
        <time>2026-09-16T12:02:18.000Z</time>
      </trkpt>
      <trkpt lat="44.54803311266005" lon="129.80465912260115">
        <ele>288.4</ele>
        <time>2026-09-16T12:02:35.000Z</time>
      </trkpt>
      <trkpt lat="44.548130761832" lon="129.80553151108325">
        <ele>289</ele>
        <time>2026-09-16T12:02:51.000Z</time>
      </trkpt>
      <trkpt lat="44.54822162166238" lon="129.80635419487953">
        <ele>289.2</ele>
        <time>2026-09-16T12:03:07.000Z</time>
      </trkpt>
      <trkpt lat="44.54831935465336" lon="129.8071778845042">
        <ele>289.8</ele>
        <time>2026-09-16T12:03:23.000Z</time>
      </trkpt>
      <trkpt lat="44.54841432161629" lon="129.80801615864038">
        <ele>290.2</ele>
        <time>2026-09-16T12:03:39.000Z</time>
      </trkpt>
      <trkpt lat="44.54850132577121" lon="129.8088304605335">
        <ele>290.4</ele>
        <time>2026-09-16T12:03:55.000Z</time>
      </trkpt>
      <trkpt lat="44.54859453253448" lon="129.8096595145762">
        <ele>290.8</ele>
        <time>2026-09-16T12:04:11.000Z</time>
      </trkpt>
      <trkpt lat="44.548692516982555" lon="129.8105009738356">
        <ele>291.2</ele>
        <time>2026-09-16T12:04:27.000Z</time>
      </trkpt>
      <trkpt lat="44.54878706485033" lon="129.81132835149765">
        <ele>291.6</ele>
        <time>2026-09-16T12:04:43.000Z</time>
      </trkpt>
      <trkpt lat="44.54888588748872" lon="129.81213645078242">
        <ele>291.8</ele>
        <time>2026-09-16T12:05:00.000Z</time>
      </trkpt>
      <trkpt lat="44.54901237040758" lon="129.81299207545817">
        <ele>292</ele>
        <time>2026-09-16T12:05:16.000Z</time>
      </trkpt>
      <trkpt lat="44.54916927963495" lon="129.81383278034627">
        <ele>292</ele>
        <time>2026-09-16T12:05:32.000Z</time>
      </trkpt>
      <trkpt lat="44.54934110864997" lon="129.81470558792353">
        <ele>291.8</ele>
        <time>2026-09-16T12:05:48.000Z</time>
      </trkpt>
      <trkpt lat="44.54952391795814" lon="129.8156249988824">
        <ele>291.8</ele>
        <time>2026-09-16T12:06:04.000Z</time>
      </trkpt>
      <trkpt lat="44.54970337450504" lon="129.81652555055916">
        <ele>291.6</ele>
        <time>2026-09-16T12:06:20.000Z</time>
      </trkpt>
      <trkpt lat="44.54987076111138" lon="129.81739659793675">
        <ele>291.4</ele>
        <time>2026-09-16T12:06:36.000Z</time>
      </trkpt>
      <trkpt lat="44.55003630369902" lon="129.8182450979948">
        <ele>291.8</ele>
        <time>2026-09-16T12:06:52.000Z</time>
      </trkpt>
      <trkpt lat="44.550200924277306" lon="129.81906736269593">
        <ele>291.6</ele>
        <time>2026-09-16T12:07:08.000Z</time>
      </trkpt>
      <trkpt lat="44.55037426203489" lon="129.81991527602077">
        <ele>292</ele>
        <time>2026-09-16T12:07:25.000Z</time>
      </trkpt>
      <trkpt lat="44.55053770914674" lon="129.8207658715546">
        <ele>292.2</ele>
        <time>2026-09-16T12:07:41.000Z</time>
      </trkpt>
      <trkpt lat="44.5506967138499" lon="129.8215573746711">
        <ele>292.4</ele>
        <time>2026-09-16T12:07:57.000Z</time>
      </trkpt>
      <trkpt lat="44.55085538327694" lon="129.8223438486457">
        <ele>292.4</ele>
        <time>2026-09-16T12:08:13.000Z</time>
      </trkpt>
      <trkpt lat="44.55102000385523" lon="129.8231782671064">
        <ele>292.6</ele>
        <time>2026-09-16T12:08:29.000Z</time>
      </trkpt>
      <trkpt lat="44.55118730664253" lon="129.8240477219224">
        <ele>292.8</ele>
        <time>2026-09-16T12:08:45.000Z</time>
      </trkpt>
      <trkpt lat="44.551356537267566" lon="129.82488649897277">
        <ele>293</ele>
        <time>2026-09-16T12:09:01.000Z</time>
      </trkpt>
      <trkpt lat="44.551516799256206" lon="129.82569510117173">
        <ele>293.4</ele>
        <time>2026-09-16T12:09:17.000Z</time>
      </trkpt>
      <trkpt lat="44.551672618836164" lon="129.82649540528655">
        <ele>293.6</ele>
        <time>2026-09-16T12:09:33.000Z</time>
      </trkpt>
      <trkpt lat="44.55182190053165" lon="129.82723267748952">
        <ele>293.4</ele>
        <time>2026-09-16T12:09:50.000Z</time>
      </trkpt>
      <trkpt lat="44.55197839066386" lon="129.8280593007803">
        <ele>294.2</ele>
        <time>2026-09-16T12:10:06.000Z</time>
      </trkpt>
      <trkpt lat="44.552133455872536" lon="129.82886387966573">
        <ele>294.4</ele>
        <time>2026-09-16T12:10:22.000Z</time>
      </trkpt>
      <trkpt lat="44.55228407867253" lon="129.82968606054783">
        <ele>294.8</ele>
        <time>2026-09-16T12:10:38.000Z</time>
      </trkpt>
      <trkpt lat="44.552419278770685" lon="129.83048326335847">
        <ele>295</ele>
        <time>2026-09-16T12:10:54.000Z</time>
      </trkpt>
      <trkpt lat="44.55254400148988" lon="129.83129672706127">
        <ele>295.8</ele>
        <time>2026-09-16T12:11:10.000Z</time>
      </trkpt>
      <trkpt lat="44.552664030343294" lon="129.83212620019913">
        <ele>296.2</ele>
        <time>2026-09-16T12:11:26.000Z</time>
      </trkpt>
      <trkpt lat="44.55277903005481" lon="129.83295005746186">
        <ele>296.6</ele>
        <time>2026-09-16T12:11:42.000Z</time>
      </trkpt>
      <trkpt lat="44.5528831332922" lon="129.8337951209396">
        <ele>297</ele>
        <time>2026-09-16T12:11:58.000Z</time>
      </trkpt>
      <trkpt lat="44.55298782326281" lon="129.83463808894157">
        <ele>297.6</ele>
        <time>2026-09-16T12:12:15.000Z</time>
      </trkpt>
      <trkpt lat="44.55310097895563" lon="129.83550167642534">
        <ele>298.2</ele>
        <time>2026-09-16T12:12:31.000Z</time>
      </trkpt>
      <trkpt lat="44.553198628127575" lon="129.8363076802343">
        <ele>298.6</ele>
        <time>2026-09-16T12:12:47.000Z</time>
      </trkpt>
      <trkpt lat="44.55329652875662" lon="129.83711049892008">
        <ele>298.8</ele>
        <time>2026-09-16T12:13:03.000Z</time>
      </trkpt>
      <trkpt lat="44.553397027775645" lon="129.83792547136545">
        <ele>299</ele>
        <time>2026-09-16T12:13:19.000Z</time>
      </trkpt>
      <trkpt lat="44.55350557342172" lon="129.83876307494938">
        <ele>299</ele>
        <time>2026-09-16T12:13:35.000Z</time>
      </trkpt>
      <trkpt lat="44.55361990258098" lon="129.8396291770041">
        <ele>299.2</ele>
        <time>2026-09-16T12:13:51.000Z</time>
      </trkpt>
      <trkpt lat="44.553723419085145" lon="129.8404912557453">
        <ele>299.6</ele>
        <time>2026-09-16T12:14:07.000Z</time>
      </trkpt>
      <trkpt lat="44.55383942462504" lon="129.84138409607112">
        <ele>300.2</ele>
        <time>2026-09-16T12:14:23.000Z</time>
      </trkpt>
      <trkpt lat="44.553946712985635" lon="129.8422389663756">
        <ele>300.2</ele>
        <time>2026-09-16T12:14:40.000Z</time>
      </trkpt>
      <trkpt lat="44.554057102650404" lon="129.8430929146707">
        <ele>300.2</ele>
        <time>2026-09-16T12:14:56.000Z</time>
      </trkpt>
      <trkpt lat="44.55416330136359" lon="129.8439504671842">
        <ele>300.2</ele>
        <time>2026-09-16T12:15:12.000Z</time>
      </trkpt>
      <trkpt lat="44.554240917786956" lon="129.844777174294">
        <ele>300.4</ele>
        <time>2026-09-16T12:15:28.000Z</time>
      </trkpt>
      <trkpt lat="44.55427419394255" lon="129.84552056528628">
        <ele>300.8</ele>
        <time>2026-09-16T12:15:44.000Z</time>
      </trkpt>
      <trkpt lat="44.554299088194966" lon="129.8461855854839">
        <ele>301.2</ele>
        <time>2026-09-16T12:16:00.000Z</time>
      </trkpt>
      <trkpt lat="44.5542645547539" lon="129.8464921116829">
        <ele>301.4</ele>
        <time>2026-09-16T12:16:12.000Z</time>
      </trkpt>
      <trkpt lat="44.554145615547895" lon="129.84608734957874">
        <ele>301.6</ele>
        <time>2026-09-16T12:17:07.000Z</time>
      </trkpt>
      <trkpt lat="44.55415869131684" lon="129.8462841566652">
        <ele>301.6</ele>
        <time>2026-09-16T12:17:32.000Z</time>
      </trkpt>
      <trkpt lat="44.554230105131865" lon="129.84671154990792">
        <ele>301.6</ele>
        <time>2026-09-16T12:17:48.000Z</time>
      </trkpt>
      <trkpt lat="44.55429397523403" lon="129.84716970473528">
        <ele>301.8</ele>
        <time>2026-09-16T12:18:01.000Z</time>
      </trkpt>
      <trkpt lat="44.55426120199263" lon="129.84779516234994">
        <ele>302.2</ele>
        <time>2026-09-16T12:18:17.000Z</time>
      </trkpt>
      <trkpt lat="44.554253071546555" lon="129.84799875877798">
        <ele>302.6</ele>
        <time>2026-09-16T12:18:34.000Z</time>
      </trkpt>
      <trkpt lat="44.554258519783616" lon="129.84803312458098">
        <ele>303.6</ele>
        <time>2026-09-16T12:28:00.000Z</time>
      </trkpt>
      <trkpt lat="44.554334208369255" lon="129.8479436058551">
        <ele>303.4</ele>
        <time>2026-09-16T12:28:09.000Z</time>
      </trkpt>
      <trkpt lat="44.554382069036365" lon="129.84777479432523">
        <ele>303.4</ele>
        <time>2026-09-16T12:28:19.000Z</time>
      </trkpt>
    </trkseg>
  </trk>
</gpx>