<?xml version="1.0" encoding="UTF-8"?>
<gpx creator="IGPSPORT" xmlns:xsi="http://www.w3.org/2001/XMLSchema-instance" schemaLocation="http://www.topografix.com/GPX/1/1 http://www.topografix.com/GPX/1/1/gpx.xsd" version="1.1" xmlns="http://www.topografix.com/GPX/1/1">
  <metadata>
    <time>2026-08-28T11:14:40.000Z</time>
    <link href="https://www.igpsport.cn/">
      <text>Велоспорт на свежем воздухе</text>
    </link>
  </metadata>
  <trk>
    <name>Велоспорт на свежем воздухе</name>
    <trkseg>
      <trkpt lat="43.65792118012905" lon="111.97231343016028">
        <ele>0</ele>
        <time>2026-08-28T11:14:40.000Z</time>
      </trkpt>
      <trkpt lat="43.657881366088986" lon="111.97238149121404">
        <ele>0</ele>
        <time>2026-08-28T11:14:51.000Z</time>
      </trkpt>
      <trkpt lat="43.65780006162822" lon="111.97228325530887">
        <ele>0</ele>
        <time>2026-08-28T11:15:00.000Z</time>
      </trkpt>
      <trkpt lat="43.65789812989533" lon="111.97229742072523">
        <ele>0</ele>
        <time>2026-08-28T11:15:08.000Z</time>
      </trkpt>
      <trkpt lat="43.657916486263275" lon="111.9723451975733">
        <ele>0</ele>
        <time>2026-08-28T11:15:10.000Z</time>
      </trkpt>
      <trkpt lat="43.65793006494641" lon="111.97265960276127">
        <ele>0</ele>
        <time>2026-08-28T11:15:24.000Z</time>
      </trkpt>
      <trkpt lat="43.65781070664525" lon="111.97278122417629">
        <ele>959.4</ele>
        <time>2026-08-28T11:15:32.000Z</time>
      </trkpt>
      <trkpt lat="43.65774038247764" lon="111.97291860356927">
        <ele>959.8</ele>
        <time>2026-08-28T11:15:37.000Z</time>
      </trkpt>
      <trkpt lat="43.65785219706595" lon="111.9731641933322">
        <ele>960.2</ele>
        <time>2026-08-28T11:15:47.000Z</time>
      </trkpt>
      <trkpt lat="43.657927215099335" lon="111.97337072342634">
        <ele>960.2</ele>
        <time>2026-08-28T11:15:56.000Z</time>
      </trkpt>
      <trkpt lat="43.65805017761886" lon="111.97361329570413">
        <ele>960</ele>
        <time>2026-08-28T11:16:10.000Z</time>
      </trkpt>
      <trkpt lat="43.65783618763089" lon="111.9738426245749">
        <ele>960.6</ele>
        <time>2026-08-28T11:17:02.000Z</time>
      </trkpt>
      <trkpt lat="43.65756947547197" lon="111.97404345497489">
        <ele>960.6</ele>
        <time>2026-08-28T11:17:14.000Z</time>
      </trkpt>
      <trkpt lat="43.65721693262458" lon="111.97426582686603">
        <ele>960.6</ele>
        <time>2026-08-28T11:17:30.000Z</time>
      </trkpt>
      <trkpt lat="43.65707762539387" lon="111.97442038916051">
        <ele>960.6</ele>
        <time>2026-08-28T11:17:36.000Z</time>
      </trkpt>
      <trkpt lat="43.65668191574514" lon="111.97474359534681">
        <ele>960.6</ele>
        <time>2026-08-28T11:17:52.000Z</time>
      </trkpt>
      <trkpt lat="43.6563490703702" lon="111.9750459305942">
        <ele>960.4</ele>
        <time>2026-08-28T11:18:08.000Z</time>
      </trkpt>
      <trkpt lat="43.65623340010643" lon="111.975127318874">
        <ele>960</ele>
        <time>2026-08-28T11:18:30.000Z</time>
      </trkpt>
      <trkpt lat="43.656053859740496" lon="111.97532203048468">
        <ele>960.4</ele>
        <time>2026-08-28T11:18:38.000Z</time>
      </trkpt>
      <trkpt lat="43.6557583976537" lon="111.97557566687465">
        <ele>960.4</ele>
        <time>2026-08-28T11:18:50.000Z</time>
      </trkpt>
      <trkpt lat="43.65552839823067" lon="111.97578462772071">
        <ele>960</ele>
        <time>2026-08-28T11:18:59.000Z</time>
      </trkpt>
      <trkpt lat="43.65527551621199" lon="111.97605988942087">
        <ele>960.8</ele>
        <time>2026-08-28T11:19:12.000Z</time>
      </trkpt>
      <trkpt lat="43.65505926311016" lon="111.97625560685992">
        <ele>960.8</ele>
        <time>2026-08-28T11:19:25.000Z</time>
      </trkpt>
      <trkpt lat="43.65473379381001" lon="111.97650387883186">
        <ele>960.6</ele>
        <time>2026-08-28T11:19:41.000Z</time>
      </trkpt>
      <trkpt lat="43.65460043773055" lon="111.97664469480515">
        <ele>961.4</ele>
        <time>2026-08-28T11:19:50.000Z</time>
      </trkpt>
      <trkpt lat="43.6543925665319" lon="111.97682591155171">
        <ele>961.4</ele>
        <time>2026-08-28T11:20:00.000Z</time>
      </trkpt>
      <trkpt lat="43.654152508825064" lon="111.9770233053714">
        <ele>960.8</ele>
        <time>2026-08-28T11:20:13.000Z</time>
      </trkpt>
      <trkpt lat="43.6538727208972" lon="111.97725389152765">
        <ele>960.8</ele>
        <time>2026-08-28T11:20:26.000Z</time>
      </trkpt>
      <trkpt lat="43.653757302090526" lon="111.97692532092333">
        <ele>960.8</ele>
        <time>2026-08-28T11:20:37.000Z</time>
      </trkpt>
      <trkpt lat="43.65366426296532" lon="111.97669699788094">
        <ele>961</ele>
        <time>2026-08-28T11:20:43.000Z</time>
      </trkpt>
      <trkpt lat="43.653430324047804" lon="111.97610892355442">
        <ele>960.4</ele>
        <time>2026-08-28T11:20:59.000Z</time>
      </trkpt>
      <trkpt lat="43.65320820361376" lon="111.97561221197248">
        <ele>960.2</ele>
        <time>2026-08-28T11:21:13.000Z</time>
      </trkpt>
      <trkpt lat="43.6530402302742" lon="111.97536243125796">
        <ele>960</ele>
        <time>2026-08-28T11:21:29.000Z</time>
      </trkpt>
      <trkpt lat="43.65291450172663" lon="111.97500720620155">
        <ele>960.8</ele>
        <time>2026-08-28T11:21:43.000Z</time>
      </trkpt>
      <trkpt lat="43.65273906849325" lon="111.97463999502361">
        <ele>960.6</ele>
        <time>2026-08-28T11:21:59.000Z</time>
      </trkpt>
      <trkpt lat="43.652521558105946" lon="111.97413632646203">
        <ele>961.2</ele>
        <time>2026-08-28T11:22:15.000Z</time>
      </trkpt>
      <trkpt lat="43.65233162418008" lon="111.97374313138425">
        <ele>960.6</ele>
        <time>2026-08-28T11:22:31.000Z</time>
      </trkpt>
      <trkpt lat="43.65214956924319" lon="111.9732921011746">
        <ele>961.2</ele>
        <time>2026-08-28T11:22:47.000Z</time>
      </trkpt>
      <trkpt lat="43.652043705806136" lon="111.97321440093219">
        <ele>960.6</ele>
        <time>2026-08-28T11:22:55.000Z</time>
      </trkpt>
      <trkpt lat="43.65188252180815" lon="111.9733383692801">
        <ele>959.8</ele>
        <time>2026-08-28T11:23:24.000Z</time>
      </trkpt>
      <trkpt lat="43.65170918405056" lon="111.97330542840064">
        <ele>960.4</ele>
        <time>2026-08-28T11:23:39.000Z</time>
      </trkpt>
      <trkpt lat="43.651595525443554" lon="111.97330542840064">
        <ele>961.2</ele>
        <time>2026-08-28T11:23:45.000Z</time>
      </trkpt>
      <trkpt lat="43.651483124122024" lon="111.97326921857893">
        <ele>960.4</ele>
        <time>2026-08-28T11:23:51.000Z</time>
      </trkpt>
      <trkpt lat="43.65121188573539" lon="111.97349066846073">
        <ele>960.8</ele>
        <time>2026-08-28T11:24:08.000Z</time>
      </trkpt>
      <trkpt lat="43.65088247694075" lon="111.97375847026706">
        <ele>960.6</ele>
        <time>2026-08-28T11:24:24.000Z</time>
      </trkpt>
      <trkpt lat="43.650544015690684" lon="111.97404655627906">
        <ele>960.2</ele>
        <time>2026-08-28T11:24:40.000Z</time>
      </trkpt>
      <trkpt lat="43.650196082890034" lon="111.97434285655618">
        <ele>961.4</ele>
        <time>2026-08-28T11:24:56.000Z</time>
      </trkpt>
      <trkpt lat="43.65004235878587" lon="111.97426247410476">
        <ele>961</ele>
        <time>2026-08-28T11:25:10.000Z</time>
      </trkpt>
      <trkpt lat="43.64972669631243" lon="111.97453681379557">
        <ele>961.2</ele>
        <time>2026-08-28T11:25:45.000Z</time>
      </trkpt>
      <trkpt lat="43.649411955848336" lon="111.97480201721191">
        <ele>959.8</ele>
        <time>2026-08-28T11:26:01.000Z</time>
      </trkpt>
      <trkpt lat="43.64926225505769" lon="111.97470696642995">
        <ele>960.6</ele>
        <time>2026-08-28T11:26:52.000Z</time>
      </trkpt>
      <trkpt lat="43.64919025450945" lon="111.9744779728353">
        <ele>961.4</ele>
        <time>2026-08-28T11:27:02.000Z</time>
      </trkpt>
      <trkpt lat="43.64954472519457" lon="111.97419567033648">
        <ele>961</ele>
        <time>2026-08-28T11:27:18.000Z</time>
      </trkpt>
      <trkpt lat="43.64992232993245" lon="111.9738547783345">
        <ele>961.4</ele>
        <time>2026-08-28T11:27:34.000Z</time>
      </trkpt>
      <trkpt lat="43.65033128298819" lon="111.97352453134954">
        <ele>960.8</ele>
        <time>2026-08-28T11:27:50.000Z</time>
      </trkpt>
      <trkpt lat="43.65065683610737" lon="111.97324910201132">
        <ele>961.2</ele>
        <time>2026-08-28T11:28:06.000Z</time>
      </trkpt>
      <trkpt lat="43.651010720059276" lon="111.9729482755065">
        <ele>961</ele>
        <time>2026-08-28T11:28:22.000Z</time>
      </trkpt>
      <trkpt lat="43.65121356211603" lon="111.97273654863238">
        <ele>961.2</ele>
        <time>2026-08-28T11:28:33.000Z</time>
      </trkpt>
      <trkpt lat="43.65116109140217" lon="111.97248852811754">
        <ele>960.8</ele>
        <time>2026-08-28T11:28:40.000Z</time>
      </trkpt>
      <trkpt lat="43.651077607646585" lon="111.97215962223709">
        <ele>961.4</ele>
        <time>2026-08-28T11:28:53.000Z</time>
      </trkpt>
      <trkpt lat="43.65102605894208" lon="111.97193465195596">
        <ele>961.2</ele>
        <time>2026-08-28T11:29:01.000Z</time>
      </trkpt>
      <trkpt lat="43.65084861405194" lon="111.97153332643211">
        <ele>961.4</ele>
        <time>2026-08-28T11:29:15.000Z</time>
      </trkpt>
      <trkpt lat="43.65072757937014" lon="111.97120307944715">
        <ele>961.8</ele>
        <time>2026-08-28T11:29:31.000Z</time>
      </trkpt>
      <trkpt lat="43.650525910779834" lon="111.97071307338774">
        <ele>962</ele>
        <time>2026-08-28T11:29:47.000Z</time>
      </trkpt>
      <trkpt lat="43.65025316365063" lon="111.9702026154846">
        <ele>962</ele>
        <time>2026-08-28T11:30:03.000Z</time>
      </trkpt>
      <trkpt lat="43.650111174210906" lon="111.96981285698712">
        <ele>961.2</ele>
        <time>2026-08-28T11:30:19.000Z</time>
      </trkpt>
      <trkpt lat="43.64991579204798" lon="111.96934347040951">
        <ele>961.2</ele>
        <time>2026-08-28T11:30:35.000Z</time>
      </trkpt>
      <trkpt lat="43.64976340904832" lon="111.96904608048499">
        <ele>962.2</ele>
        <time>2026-08-28T11:30:49.000Z</time>
      </trkpt>
      <trkpt lat="43.64962728694081" lon="111.96874030865729">
        <ele>962.4</ele>
        <time>2026-08-28T11:31:04.000Z</time>
      </trkpt>
      <trkpt lat="43.6495659314096" lon="111.96871851570904">
        <ele>962</ele>
        <time>2026-08-28T11:31:10.000Z</time>
      </trkpt>
      <trkpt lat="43.64976550452411" lon="111.96906829252839">
        <ele>962.2</ele>
        <time>2026-08-28T11:31:25.000Z</time>
      </trkpt>
      <trkpt lat="43.64972183480859" lon="111.96914959698915">
        <ele>962.6</ele>
        <time>2026-08-28T11:31:33.000Z</time>
      </trkpt>
      <trkpt lat="43.64993783645332" lon="111.96952041238546">
        <ele>961.2</ele>
        <time>2026-08-28T11:46:24.000Z</time>
      </trkpt>
      <trkpt lat="43.65019876509905" lon="111.97008468210697">
        <ele>961.8</ele>
        <time>2026-08-28T11:46:40.000Z</time>
      </trkpt>
      <trkpt lat="43.650257689878345" lon="111.97019255720079">
        <ele>961.8</ele>
        <time>2026-08-28T11:46:43.000Z</time>
      </trkpt>
      <trkpt lat="43.6503032874316" lon="111.97027377784252">
        <ele>961.8</ele>
        <time>2026-08-28T11:46:45.000Z</time>
      </trkpt>
      <trkpt lat="43.65058433264494" lon="111.97092086076736">
        <ele>961.8</ele>
        <time>2026-08-28T11:47:02.000Z</time>
      </trkpt>
      <trkpt lat="43.65078122355044" lon="111.97129871696234">
        <ele>961</ele>
        <time>2026-08-28T11:47:11.000Z</time>
      </trkpt>
      <trkpt lat="43.65100460126996" lon="111.9716271199286">
        <ele>960.8</ele>
        <time>2026-08-28T11:47:27.000Z</time>
      </trkpt>
      <trkpt lat="43.6512045096606" lon="111.97207488119602">
        <ele>961</ele>
        <time>2026-08-28T11:47:39.000Z</time>
      </trkpt>
      <trkpt lat="43.651195457205176" lon="111.97243915870786">
        <ele>961.2</ele>
        <time>2026-08-28T11:47:48.000Z</time>
      </trkpt>
      <trkpt lat="43.65125605836511" lon="111.97286060079932">
        <ele>961</ele>
        <time>2026-08-28T11:48:02.000Z</time>
      </trkpt>
      <trkpt lat="43.651341972872615" lon="111.9730761833489">
        <ele>960.6</ele>
        <time>2026-08-28T11:48:15.000Z</time>
      </trkpt>
      <trkpt lat="43.651416236534715" lon="111.97313477285206">
        <ele>960.6</ele>
        <time>2026-08-28T11:48:17.000Z</time>
      </trkpt>
      <trkpt lat="43.65177121013403" lon="111.97324616834521">
        <ele>960</ele>
        <time>2026-08-28T11:48:25.000Z</time>
      </trkpt>
      <trkpt lat="43.65205669775605" lon="111.97375796735287">
        <ele>960.2</ele>
        <time>2026-08-28T11:48:36.000Z</time>
      </trkpt>
      <trkpt lat="43.65240446291864" lon="111.97453329339623">
        <ele>960</ele>
        <time>2026-08-28T11:48:52.000Z</time>
      </trkpt>
      <trkpt lat="43.65272297523916" lon="111.97524231858552">
        <ele>959.2</ele>
        <time>2026-08-28T11:49:08.000Z</time>
      </trkpt>
      <trkpt lat="43.652821127325296" lon="111.97562109678984">
        <ele>959.2</ele>
        <time>2026-08-28T11:49:19.000Z</time>
      </trkpt>
      <trkpt lat="43.652566485106945" lon="111.97577465325594">
        <ele>959</ele>
        <time>2026-08-28T11:49:29.000Z</time>
      </trkpt>
      <trkpt lat="43.65225492976606" lon="111.97594505734742">
        <ele>960.2</ele>
        <time>2026-08-28T11:49:41.000Z</time>
      </trkpt>
      <trkpt lat="43.65206751041114" lon="111.97615452110767">
        <ele>960.8</ele>
        <time>2026-08-28T11:49:57.000Z</time>
      </trkpt>
      <trkpt lat="43.65222810767591" lon="111.97609014809132">
        <ele>961.6</ele>
        <time>2026-08-28T12:14:28.000Z</time>
      </trkpt>
      <trkpt lat="43.65233791060746" lon="111.97587540373206">
        <ele>961.6</ele>
        <time>2026-08-28T12:14:36.000Z</time>
      </trkpt>
      <trkpt lat="43.65256078541279" lon="111.97566770017147">
        <ele>962.2</ele>
        <time>2026-08-28T12:14:50.000Z</time>
      </trkpt>
      <trkpt lat="43.652564976364374" lon="111.97535648010671">
        <ele>961.8</ele>
        <time>2026-08-28T12:14:58.000Z</time>
      </trkpt>
      <trkpt lat="43.6523271817714" lon="111.97480218484998">
        <ele>962</ele>
        <time>2026-08-28T12:15:14.000Z</time>
      </trkpt>
      <trkpt lat="43.65213196724653" lon="111.97424621321261">
        <ele>962</ele>
        <time>2026-08-28T12:15:28.000Z</time>
      </trkpt>
      <trkpt lat="43.651969861239195" lon="111.973861400038">
        <ele>962</ele>
        <time>2026-08-28T12:15:40.000Z</time>
      </trkpt>
      <trkpt lat="43.651789063587785" lon="111.9734335038811">
        <ele>963.6</ele>
        <time>2026-08-28T12:15:54.000Z</time>
      </trkpt>
      <trkpt lat="43.65159225650132" lon="111.97332479059696">
        <ele>961.8</ele>
        <time>2026-08-28T12:16:03.000Z</time>
      </trkpt>
      <trkpt lat="43.65146233700216" lon="111.97317156940699">
        <ele>959.4</ele>
        <time>2026-08-28T12:16:12.000Z</time>
      </trkpt>
      <trkpt lat="43.65130903199315" lon="111.97314340621233">
        <ele>961.4</ele>
        <time>2026-08-28T12:16:22.000Z</time>
      </trkpt>
      <trkpt lat="43.65121473558247" lon="111.97276898659766">
        <ele>961.2</ele>
        <time>2026-08-28T12:16:34.000Z</time>
      </trkpt>
      <trkpt lat="43.65108070895076" lon="111.97274224832654">
        <ele>962.6</ele>
        <time>2026-08-28T12:16:44.000Z</time>
      </trkpt>
      <trkpt lat="43.65117123350501" lon="111.97296738624573">
        <ele>961.2</ele>
        <time>2026-08-28T13:15:06.000Z</time>
      </trkpt>
      <trkpt lat="43.65126829594374" lon="111.97292631492019">
        <ele>961</ele>
        <time>2026-08-28T13:15:18.000Z</time>
      </trkpt>
      <trkpt lat="43.65134658291936" lon="111.97318095713854">
        <ele>960</ele>
        <time>2026-08-28T13:15:31.000Z</time>
      </trkpt>
      <trkpt lat="43.651437694206834" lon="111.97318372316658">
        <ele>959.8</ele>
        <time>2026-08-28T13:15:43.000Z</time>
      </trkpt>
      <trkpt lat="43.651595609262586" lon="111.97332730516791">
        <ele>960.6</ele>
        <time>2026-08-28T13:15:59.000Z</time>
      </trkpt>
      <trkpt lat="43.65173961035907" lon="111.97337239980698">
        <ele>960.2</ele>
        <time>2026-08-28T13:16:12.000Z</time>
      </trkpt>
      <trkpt lat="43.65206147544086" lon="111.97407765313983">
        <ele>961</ele>
        <time>2026-08-28T13:16:50.000Z</time>
      </trkpt>
      <trkpt lat="43.65223498083651" lon="111.97419231757522">
        <ele>961.2</ele>
        <time>2026-08-28T13:16:55.000Z</time>
      </trkpt>
      <trkpt lat="43.65246422588825" lon="111.97468416765332">
        <ele>960.8</ele>
        <time>2026-08-28T13:17:05.000Z</time>
      </trkpt>
      <trkpt lat="43.65251359529793" lon="111.97479447349906">
        <ele>960.4</ele>
        <time>2026-08-28T13:17:07.000Z</time>
      </trkpt>
      <trkpt lat="43.65259246900678" lon="111.9749647937715">
        <ele>960</ele>
        <time>2026-08-28T13:17:10.000Z</time>
      </trkpt>
      <trkpt lat="43.652812326326966" lon="111.97544641792774">
        <ele>960.2</ele>
        <time>2026-08-28T13:17:19.000Z</time>
      </trkpt>
      <trkpt lat="43.65282925777137" lon="111.97556996718049">
        <ele>960.6</ele>
        <time>2026-08-28T13:17:27.000Z</time>
      </trkpt>
      <trkpt lat="43.652992537245154" lon="111.97582997381687">
        <ele>961.6</ele>
        <time>2026-08-28T13:17:47.000Z</time>
      </trkpt>
      <trkpt lat="43.65330493077636" lon="111.97652852162719">
        <ele>960.6</ele>
        <time>2026-08-28T13:18:03.000Z</time>
      </trkpt>
      <trkpt lat="43.65367826074362" lon="111.97736201807857">
        <ele>960.6</ele>
        <time>2026-08-28T13:18:19.000Z</time>
      </trkpt>
      <trkpt lat="43.6540952604264" lon="111.9782619830221">
        <ele>960.2</ele>
        <time>2026-08-28T13:18:35.000Z</time>
      </trkpt>
      <trkpt lat="43.654466327279806" lon="111.97908567264676">
        <ele>959.2</ele>
        <time>2026-08-28T13:18:51.000Z</time>
      </trkpt>
      <trkpt lat="43.654626002535224" lon="111.97930058464408">
        <ele>959.6</ele>
        <time>2026-08-28T13:18:57.000Z</time>
      </trkpt>
      <trkpt lat="43.65478031337261" lon="111.97921542450786">
        <ele>960</ele>
        <time>2026-08-28T13:19:03.000Z</time>
      </trkpt>
      <trkpt lat="43.65514802746475" lon="111.97921735234559">
        <ele>960.2</ele>
        <time>2026-08-28T13:19:18.000Z</time>
      </trkpt>
      <trkpt lat="43.655434185639024" lon="111.97898291051388">
        <ele>960.2</ele>
        <time>2026-08-28T13:19:32.000Z</time>
      </trkpt>
    </trkseg>
  </trk>
</gpx>