<?xml version="1.0" encoding="UTF-8"?>
<gpx creator="IGPSPORT" xmlns:xsi="http://www.w3.org/2001/XMLSchema-instance" schemaLocation="http://www.topografix.com/GPX/1/1 http://www.topografix.com/GPX/1/1/gpx.xsd" version="1.1" xmlns="http://www.topografix.com/GPX/1/1">
  <metadata>
    <time>2026-07-13T07:57:39.000Z</time>
    <link href="https://www.igpsport.cn/">
      <text>Велоспорт на свежем воздухе</text>
    </link>
  </metadata>
  <trk>
    <name>Велоспорт на свежем воздухе</name>
    <trkseg>
      <trkpt lat="52.40875432267785" lon="76.69217336922884">
        <ele>114.8</ele>
        <time>2026-07-13T07:57:39.000Z</time>
      </trkpt>
      <trkpt lat="52.408710569143295" lon="76.69247536920011">
        <ele>113.6</ele>
        <time>2026-07-13T08:03:43.000Z</time>
      </trkpt>
      <trkpt lat="52.408620212227106" lon="76.69252406805754">
        <ele>113.4</ele>
        <time>2026-07-13T08:03:59.000Z</time>
      </trkpt>
      <trkpt lat="52.40854041650891" lon="76.69257452711463">
        <ele>113.2</ele>
        <time>2026-07-13T08:04:03.000Z</time>
      </trkpt>
      <trkpt lat="52.40835425443947" lon="76.69265750795603">
        <ele>113</ele>
        <time>2026-07-13T08:04:10.000Z</time>
      </trkpt>
      <trkpt lat="52.408228777348995" lon="76.69272372499108">
        <ele>113</ele>
        <time>2026-07-13T08:04:15.000Z</time>
      </trkpt>
      <trkpt lat="52.40817136131227" lon="76.69275121763349">
        <ele>113</ele>
        <time>2026-07-13T08:04:17.000Z</time>
      </trkpt>
      <trkpt lat="52.40811226889491" lon="76.69278097338974">
        <ele>113</ele>
        <time>2026-07-13T08:04:19.000Z</time>
      </trkpt>
      <trkpt lat="52.40786173380911" lon="76.69292069971561">
        <ele>113</ele>
        <time>2026-07-13T08:04:28.000Z</time>
      </trkpt>
      <trkpt lat="52.40769292227924" lon="76.69301197864115">
        <ele>112.8</ele>
        <time>2026-07-13T08:04:34.000Z</time>
      </trkpt>
      <trkpt lat="52.40742436610162" lon="76.69321490451694">
        <ele>112.6</ele>
        <time>2026-07-13T08:04:43.000Z</time>
      </trkpt>
      <trkpt lat="52.4071423150599" lon="76.69344741851091">
        <ele>112.6</ele>
        <time>2026-07-13T08:04:53.000Z</time>
      </trkpt>
      <trkpt lat="52.40665448829532" lon="76.69371362775564">
        <ele>112.4</ele>
        <time>2026-07-13T08:05:09.000Z</time>
      </trkpt>
      <trkpt lat="52.4063859321177" lon="76.69388302601874">
        <ele>112.4</ele>
        <time>2026-07-13T08:05:19.000Z</time>
      </trkpt>
      <trkpt lat="52.4060716945678" lon="76.69415225274861">
        <ele>112.4</ele>
        <time>2026-07-13T08:05:31.000Z</time>
      </trkpt>
      <trkpt lat="52.40591377951205" lon="76.69425342231989">
        <ele>112.2</ele>
        <time>2026-07-13T08:05:36.000Z</time>
      </trkpt>
      <trkpt lat="52.40584647282958" lon="76.69431176036596">
        <ele>112.2</ele>
        <time>2026-07-13T08:05:38.000Z</time>
      </trkpt>
      <trkpt lat="52.40531958639622" lon="76.69469472952187">
        <ele>112</ele>
        <time>2026-07-13T08:05:54.000Z</time>
      </trkpt>
      <trkpt lat="52.40517692640424" lon="76.694774357602">
        <ele>112</ele>
        <time>2026-07-13T08:05:58.000Z</time>
      </trkpt>
      <trkpt lat="52.40467803552747" lon="76.69506546109915">
        <ele>111.8</ele>
        <time>2026-07-13T08:06:14.000Z</time>
      </trkpt>
      <trkpt lat="52.40431493148208" lon="76.69526193290949">
        <ele>111.8</ele>
        <time>2026-07-13T08:06:26.000Z</time>
      </trkpt>
      <trkpt lat="52.403800785541534" lon="76.69552529230714">
        <ele>111.6</ele>
        <time>2026-07-13T08:06:42.000Z</time>
      </trkpt>
      <trkpt lat="52.40328370593488" lon="76.69583869166672">
        <ele>112</ele>
        <time>2026-07-13T08:06:58.000Z</time>
      </trkpt>
      <trkpt lat="52.40315118804574" lon="76.69591186568141">
        <ele>112.4</ele>
        <time>2026-07-13T08:07:02.000Z</time>
      </trkpt>
      <trkpt lat="52.40306795574725" lon="76.69596299529076">
        <ele>112.6</ele>
        <time>2026-07-13T08:07:05.000Z</time>
      </trkpt>
      <trkpt lat="52.402988160029054" lon="76.6960072517395">
        <ele>112.8</ele>
        <time>2026-07-13T08:07:08.000Z</time>
      </trkpt>
      <trkpt lat="52.402628576382995" lon="76.69619332998991">
        <ele>113.8</ele>
        <time>2026-07-13T08:07:24.000Z</time>
      </trkpt>
      <trkpt lat="52.40238541737199" lon="76.6963302064687">
        <ele>114</ele>
        <time>2026-07-13T08:07:41.000Z</time>
      </trkpt>
      <trkpt lat="52.40248868241906" lon="76.69657437130809">
        <ele>114</ele>
        <time>2026-07-13T08:07:53.000Z</time>
      </trkpt>
      <trkpt lat="52.4025556538254" lon="76.6967757884413">
        <ele>114</ele>
        <time>2026-07-13T08:08:01.000Z</time>
      </trkpt>
      <trkpt lat="52.40246060304344" lon="76.69708776287735">
        <ele>113.6</ele>
        <time>2026-07-13T08:08:15.000Z</time>
      </trkpt>
      <trkpt lat="52.40236253477633" lon="76.69743938371539">
        <ele>114.2</ele>
        <time>2026-07-13T08:08:28.000Z</time>
      </trkpt>
      <trkpt lat="52.40231350064278" lon="76.69746117666364">
        <ele>114.2</ele>
        <time>2026-07-13T08:08:30.000Z</time>
      </trkpt>
      <trkpt lat="52.40223253145814" lon="76.69749788939953">
        <ele>114.2</ele>
        <time>2026-07-13T08:08:33.000Z</time>
      </trkpt>
      <trkpt lat="52.40198543295264" lon="76.69763183221221">
        <ele>114.2</ele>
        <time>2026-07-13T08:08:42.000Z</time>
      </trkpt>
      <trkpt lat="52.401573127135634" lon="76.69786233454943">
        <ele>114</ele>
        <time>2026-07-13T08:08:58.000Z</time>
      </trkpt>
      <trkpt lat="52.401210526004434" lon="76.69807431288064">
        <ele>114</ele>
        <time>2026-07-13T08:09:09.000Z</time>
      </trkpt>
      <trkpt lat="52.4011361785233" lon="76.69811580330133">
        <ele>114</ele>
        <time>2026-07-13T08:09:11.000Z</time>
      </trkpt>
      <trkpt lat="52.401057220995426" lon="76.69815771281719">
        <ele>114</ele>
        <time>2026-07-13T08:09:13.000Z</time>
      </trkpt>
      <trkpt lat="52.40097449161112" lon="76.69820498675108">
        <ele>114.2</ele>
        <time>2026-07-13T08:09:15.000Z</time>
      </trkpt>
      <trkpt lat="52.40076310001314" lon="76.69832912273705">
        <ele>114.4</ele>
        <time>2026-07-13T08:09:20.000Z</time>
      </trkpt>
      <trkpt lat="52.400388680398464" lon="76.69854118488729">
        <ele>114.2</ele>
        <time>2026-07-13T08:09:29.000Z</time>
      </trkpt>
      <trkpt lat="52.39985181950033" lon="76.69884787872434">
        <ele>114.4</ele>
        <time>2026-07-13T08:09:43.000Z</time>
      </trkpt>
      <trkpt lat="52.39954856224358" lon="76.69902180321515">
        <ele>114.4</ele>
        <time>2026-07-13T08:09:50.000Z</time>
      </trkpt>
      <trkpt lat="52.39914782345295" lon="76.69925297610462">
        <ele>114</ele>
        <time>2026-07-13T08:10:00.000Z</time>
      </trkpt>
      <trkpt lat="52.39871556870639" lon="76.69950099661946">
        <ele>114</ele>
        <time>2026-07-13T08:10:10.000Z</time>
      </trkpt>
      <trkpt lat="52.39823059178889" lon="76.69978187419474">
        <ele>114.2</ele>
        <time>2026-07-13T08:10:21.000Z</time>
      </trkpt>
      <trkpt lat="52.39755995571613" lon="76.70016291551292">
        <ele>114</ele>
        <time>2026-07-13T08:10:37.000Z</time>
      </trkpt>
      <trkpt lat="52.39684439264238" lon="76.70056692324579">
        <ele>113.6</ele>
        <time>2026-07-13T08:10:53.000Z</time>
      </trkpt>
      <trkpt lat="52.396119022741914" lon="76.7009855993092">
        <ele>113.6</ele>
        <time>2026-07-13T08:11:09.000Z</time>
      </trkpt>
      <trkpt lat="52.39593260921538" lon="76.70108769088984">
        <ele>113.6</ele>
        <time>2026-07-13T08:11:13.000Z</time>
      </trkpt>
      <trkpt lat="52.395222494378686" lon="76.70149102807045">
        <ele>113.6</ele>
        <time>2026-07-13T08:11:29.000Z</time>
      </trkpt>
      <trkpt lat="52.394587732851505" lon="76.7018455825746">
        <ele>113.4</ele>
        <time>2026-07-13T08:11:45.000Z</time>
      </trkpt>
      <trkpt lat="52.39400150254369" lon="76.70217096805573">
        <ele>114.2</ele>
        <time>2026-07-13T08:12:01.000Z</time>
      </trkpt>
      <trkpt lat="52.393724732100964" lon="76.702311784029">
        <ele>114.4</ele>
        <time>2026-07-13T08:12:42.000Z</time>
      </trkpt>
      <trkpt lat="52.39327437244356" lon="76.70257941819727">
        <ele>114.6</ele>
        <time>2026-07-13T08:12:58.000Z</time>
      </trkpt>
      <trkpt lat="52.39262058399618" lon="76.70294637791812">
        <ele>114.6</ele>
        <time>2026-07-13T08:13:14.000Z</time>
      </trkpt>
      <trkpt lat="52.39185397513211" lon="76.70338240452111">
        <ele>114.2</ele>
        <time>2026-07-13T08:13:30.000Z</time>
      </trkpt>
      <trkpt lat="52.39148039370775" lon="76.70359605923295">
        <ele>114.2</ele>
        <time>2026-07-13T08:13:38.000Z</time>
      </trkpt>
      <trkpt lat="52.3910426069051" lon="76.70383812859654">
        <ele>113.8</ele>
        <time>2026-07-13T08:13:47.000Z</time>
      </trkpt>
      <trkpt lat="52.390515469014645" lon="76.70413836836815">
        <ele>113.4</ele>
        <time>2026-07-13T08:13:58.000Z</time>
      </trkpt>
      <trkpt lat="52.39036476239562" lon="76.70422310940921">
        <ele>113.2</ele>
        <time>2026-07-13T08:14:01.000Z</time>
      </trkpt>
      <trkpt lat="52.38987919874489" lon="76.70449392870069">
        <ele>113</ele>
        <time>2026-07-13T08:14:11.000Z</time>
      </trkpt>
      <trkpt lat="52.38919540308416" lon="76.70487597584724">
        <ele>113.2</ele>
        <time>2026-07-13T08:14:27.000Z</time>
      </trkpt>
      <trkpt lat="52.38851688802242" lon="76.70525450259447">
        <ele>113</ele>
        <time>2026-07-13T08:14:44.000Z</time>
      </trkpt>
      <trkpt lat="52.387821190059185" lon="76.70564685948193">
        <ele>112.8</ele>
        <time>2026-07-13T08:15:00.000Z</time>
      </trkpt>
      <trkpt lat="52.38715155981481" lon="76.70602270402014">
        <ele>113</ele>
        <time>2026-07-13T08:15:16.000Z</time>
      </trkpt>
      <trkpt lat="52.38650539889932" lon="76.70638262294233">
        <ele>113.2</ele>
        <time>2026-07-13T08:15:32.000Z</time>
      </trkpt>
      <trkpt lat="52.38581179641187" lon="76.70674480497837">
        <ele>113.4</ele>
        <time>2026-07-13T08:15:48.000Z</time>
      </trkpt>
      <trkpt lat="52.385123893618584" lon="76.70707589015365">
        <ele>112.8</ele>
        <time>2026-07-13T08:16:04.000Z</time>
      </trkpt>
      <trkpt lat="52.384488293901086" lon="76.70736028812826">
        <ele>114</ele>
        <time>2026-07-13T08:16:20.000Z</time>
      </trkpt>
      <trkpt lat="52.383830985054374" lon="76.70763856731355">
        <ele>113.8</ele>
        <time>2026-07-13T08:16:36.000Z</time>
      </trkpt>
      <trkpt lat="52.383163031190634" lon="76.70791986398399">
        <ele>114.2</ele>
        <time>2026-07-13T08:16:52.000Z</time>
      </trkpt>
      <trkpt lat="52.38245618529618" lon="76.70820937491953">
        <ele>114</ele>
        <time>2026-07-13T08:17:09.000Z</time>
      </trkpt>
      <trkpt lat="52.38176006823778" lon="76.7084957845509">
        <ele>113.8</ele>
        <time>2026-07-13T08:17:25.000Z</time>
      </trkpt>
      <trkpt lat="52.3810906894505" lon="76.70876869931817">
        <ele>114</ele>
        <time>2026-07-13T08:17:41.000Z</time>
      </trkpt>
      <trkpt lat="52.38042608834803" lon="76.70903960242867">
        <ele>114</ele>
        <time>2026-07-13T08:17:57.000Z</time>
      </trkpt>
      <trkpt lat="52.37969912588596" lon="76.70934168621898">
        <ele>114.2</ele>
        <time>2026-07-13T08:18:13.000Z</time>
      </trkpt>
      <trkpt lat="52.37920886836946" lon="76.70954201370478">
        <ele>114.2</ele>
        <time>2026-07-13T08:18:24.000Z</time>
      </trkpt>
      <trkpt lat="52.378551391884685" lon="76.70980788767338">
        <ele>114.6</ele>
        <time>2026-07-13T08:18:40.000Z</time>
      </trkpt>
      <trkpt lat="52.37788620404899" lon="76.71008055098355">
        <ele>114.2</ele>
        <time>2026-07-13T08:18:56.000Z</time>
      </trkpt>
      <trkpt lat="52.37717231735587" lon="76.71037718653679">
        <ele>113.8</ele>
        <time>2026-07-13T08:19:12.000Z</time>
      </trkpt>
      <trkpt lat="52.37643596716225" lon="76.71068446710706">
        <ele>113.8</ele>
        <time>2026-07-13T08:19:29.000Z</time>
      </trkpt>
      <trkpt lat="52.37568151205778" lon="76.71099727973342">
        <ele>113.2</ele>
        <time>2026-07-13T08:19:45.000Z</time>
      </trkpt>
      <trkpt lat="52.37495438195765" lon="76.71129986643791">
        <ele>113.6</ele>
        <time>2026-07-13T08:20:01.000Z</time>
      </trkpt>
      <trkpt lat="52.3742401599884" lon="76.71159842982888">
        <ele>113.8</ele>
        <time>2026-07-13T08:20:17.000Z</time>
      </trkpt>
      <trkpt lat="52.37354655750096" lon="76.71189137734473">
        <ele>113.8</ele>
        <time>2026-07-13T08:20:33.000Z</time>
      </trkpt>
      <trkpt lat="52.372840382158756" lon="76.71218776144087">
        <ele>114</ele>
        <time>2026-07-13T08:20:49.000Z</time>
      </trkpt>
      <trkpt lat="52.37214636057615" lon="76.71250015497208">
        <ele>114</ele>
        <time>2026-07-13T08:21:05.000Z</time>
      </trkpt>
      <trkpt lat="52.3716414347291" lon="76.7127267178148">
        <ele>114</ele>
        <time>2026-07-13T08:21:15.000Z</time>
      </trkpt>
      <trkpt lat="52.37142509780824" lon="76.71282780356705">
        <ele>113.8</ele>
        <time>2026-07-13T08:21:19.000Z</time>
      </trkpt>
      <trkpt lat="52.37131512723863" lon="76.712880525738">
        <ele>113.6</ele>
        <time>2026-07-13T08:21:21.000Z</time>
      </trkpt>
      <trkpt lat="52.37120205536485" lon="76.71293333172798">
        <ele>113.4</ele>
        <time>2026-07-13T08:21:23.000Z</time>
      </trkpt>
      <trkpt lat="52.37108672037721" lon="76.71298680827022">
        <ele>113.4</ele>
        <time>2026-07-13T08:21:25.000Z</time>
      </trkpt>
      <trkpt lat="52.370970295742154" lon="76.71304296702147">
        <ele>113.4</ele>
        <time>2026-07-13T08:21:27.000Z</time>
      </trkpt>
      <trkpt lat="52.370171500369906" lon="76.71342610381544">
        <ele>113.2</ele>
        <time>2026-07-13T08:21:41.000Z</time>
      </trkpt>
      <trkpt lat="52.36933548934758" lon="76.71382701024413">
        <ele>113.2</ele>
        <time>2026-07-13T08:21:58.000Z</time>
      </trkpt>
      <trkpt lat="52.368584806099534" lon="76.7141911201179">
        <ele>113.6</ele>
        <time>2026-07-13T08:22:14.000Z</time>
      </trkpt>
      <trkpt lat="52.36790578812361" lon="76.7145156674087">
        <ele>113.6</ele>
        <time>2026-07-13T08:22:30.000Z</time>
      </trkpt>
      <trkpt lat="52.36728401854634" lon="76.71480869874358">
        <ele>114</ele>
        <time>2026-07-13T08:22:46.000Z</time>
      </trkpt>
      <trkpt lat="52.36658966168761" lon="76.71514581888914">
        <ele>114.4</ele>
        <time>2026-07-13T08:23:02.000Z</time>
      </trkpt>
      <trkpt lat="52.36586940474808" lon="76.71549106948078">
        <ele>114.4</ele>
        <time>2026-07-13T08:23:18.000Z</time>
      </trkpt>
      <trkpt lat="52.365221064537764" lon="76.71580681577325">
        <ele>114.8</ele>
        <time>2026-07-13T08:23:34.000Z</time>
      </trkpt>
      <trkpt lat="52.364551266655326" lon="76.71613329090178">
        <ele>115.2</ele>
        <time>2026-07-13T08:23:50.000Z</time>
      </trkpt>
      <trkpt lat="52.36391130834818" lon="76.71644551679492">
        <ele>115.2</ele>
        <time>2026-07-13T08:24:06.000Z</time>
      </trkpt>
      <trkpt lat="52.363249976187944" lon="76.71676478348672">
        <ele>114.8</ele>
        <time>2026-07-13T08:24:23.000Z</time>
      </trkpt>
      <trkpt lat="52.36254220828414" lon="76.71710726805031">
        <ele>114.8</ele>
        <time>2026-07-13T08:24:39.000Z</time>
      </trkpt>
      <trkpt lat="52.36181306652725" lon="76.7174621578306">
        <ele>114.6</ele>
        <time>2026-07-13T08:24:55.000Z</time>
      </trkpt>
      <trkpt lat="52.361138658598065" lon="76.71779190190136">
        <ele>115</ele>
        <time>2026-07-13T08:25:11.000Z</time>
      </trkpt>
      <trkpt lat="52.36049861647189" lon="76.71810060739517">
        <ele>114.8</ele>
        <time>2026-07-13T08:25:27.000Z</time>
      </trkpt>
      <trkpt lat="52.359790932387114" lon="76.71844325959682">
        <ele>114.6</ele>
        <time>2026-07-13T08:25:43.000Z</time>
      </trkpt>
      <trkpt lat="52.35914535820484" lon="76.71875732950866">
        <ele>115.2</ele>
        <time>2026-07-13T08:25:59.000Z</time>
      </trkpt>
      <trkpt lat="52.35843180678785" lon="76.71910467557609">
        <ele>114.4</ele>
        <time>2026-07-13T08:26:15.000Z</time>
      </trkpt>
      <trkpt lat="52.35768908634782" lon="76.71945973299444">
        <ele>113.8</ele>
        <time>2026-07-13T08:26:31.000Z</time>
      </trkpt>
      <trkpt lat="52.3569836653769" lon="76.71979609876871">
        <ele>114</ele>
        <time>2026-07-13T08:26:48.000Z</time>
      </trkpt>
      <trkpt lat="52.356227366253734" lon="76.72015300020576">
        <ele>113.8</ele>
        <time>2026-07-13T08:27:04.000Z</time>
      </trkpt>
      <trkpt lat="52.355423206463456" lon="76.72054409980774">
        <ele>114.2</ele>
        <time>2026-07-13T08:27:20.000Z</time>
      </trkpt>
      <trkpt lat="52.35454972833395" lon="76.72096520662308">
        <ele>113.6</ele>
        <time>2026-07-13T08:27:36.000Z</time>
      </trkpt>
      <trkpt lat="52.3539065849036" lon="76.72126452438533">
        <ele>114</ele>
        <time>2026-07-13T08:27:52.000Z</time>
      </trkpt>
      <trkpt lat="52.353214072063565" lon="76.72158965840936">
        <ele>114.4</ele>
        <time>2026-07-13T08:28:08.000Z</time>
      </trkpt>
      <trkpt lat="52.35259179957211" lon="76.7218722961843">
        <ele>114.8</ele>
        <time>2026-07-13T08:28:24.000Z</time>
      </trkpt>
      <trkpt lat="52.351928958669305" lon="76.72216499224305">
        <ele>114.8</ele>
        <time>2026-07-13T08:28:40.000Z</time>
      </trkpt>
      <trkpt lat="52.351270727813244" lon="76.72244679182768">
        <ele>115</ele>
        <time>2026-07-13T08:28:56.000Z</time>
      </trkpt>
      <trkpt lat="52.350663458928466" lon="76.7226928845048">
        <ele>115.6</ele>
        <time>2026-07-13T08:29:13.000Z</time>
      </trkpt>
      <trkpt lat="52.35000170767307" lon="76.72295951284468">
        <ele>115.4</ele>
        <time>2026-07-13T08:29:29.000Z</time>
      </trkpt>
      <trkpt lat="52.349312379956245" lon="76.72323821112514">
        <ele>115.6</ele>
        <time>2026-07-13T08:29:45.000Z</time>
      </trkpt>
      <trkpt lat="52.348551554605365" lon="76.723539121449">
        <ele>115.4</ele>
        <time>2026-07-13T08:30:01.000Z</time>
      </trkpt>
      <trkpt lat="52.347843032330275" lon="76.72381999902427">
        <ele>116</ele>
        <time>2026-07-13T08:30:17.000Z</time>
      </trkpt>
      <trkpt lat="52.347217658534646" lon="76.72406408004463">
        <ele>116.8</ele>
        <time>2026-07-13T08:30:33.000Z</time>
      </trkpt>
      <trkpt lat="52.346574096009135" lon="76.72430547885597">
        <ele>116.8</ele>
        <time>2026-07-13T08:30:49.000Z</time>
      </trkpt>
      <trkpt lat="52.345900777727365" lon="76.72455509193242">
        <ele>116.2</ele>
        <time>2026-07-13T08:31:05.000Z</time>
      </trkpt>
      <trkpt lat="52.3451822809875" lon="76.72480579465628">
        <ele>116.2</ele>
        <time>2026-07-13T08:31:22.000Z</time>
      </trkpt>
      <trkpt lat="52.34455682337284" lon="76.72501626424491">
        <ele>116</ele>
        <time>2026-07-13T08:31:38.000Z</time>
      </trkpt>
      <trkpt lat="52.34392591752112" lon="76.7252244707197">
        <ele>116</ele>
        <time>2026-07-13T08:31:54.000Z</time>
      </trkpt>
      <trkpt lat="52.343295933678746" lon="76.72543192282319">
        <ele>116.2</ele>
        <time>2026-07-13T08:32:10.000Z</time>
      </trkpt>
      <trkpt lat="52.34260870143771" lon="76.72565756365657">
        <ele>116.4</ele>
        <time>2026-07-13T08:32:26.000Z</time>
      </trkpt>
      <trkpt lat="52.341922391206026" lon="76.72589426860213">
        <ele>116.8</ele>
        <time>2026-07-13T08:32:42.000Z</time>
      </trkpt>
      <trkpt lat="52.34125401824713" lon="76.72612376511097">
        <ele>117.2</ele>
        <time>2026-07-13T08:32:58.000Z</time>
      </trkpt>
      <trkpt lat="52.340631326660514" lon="76.72632995992899">
        <ele>117.4</ele>
        <time>2026-07-13T08:33:14.000Z</time>
      </trkpt>
      <trkpt lat="52.34023720957339" lon="76.72646046616137">
        <ele>117.6</ele>
        <time>2026-07-13T08:33:24.000Z</time>
      </trkpt>
      <trkpt lat="52.33960789628327" lon="76.72668099403381">
        <ele>117.8</ele>
        <time>2026-07-13T08:33:40.000Z</time>
      </trkpt>
      <trkpt lat="52.338990569114685" lon="76.72694510780275">
        <ele>117.4</ele>
        <time>2026-07-13T08:33:57.000Z</time>
      </trkpt>
      <trkpt lat="52.33837986364961" lon="76.72743167728186">
        <ele>117</ele>
        <time>2026-07-13T08:34:13.000Z</time>
      </trkpt>
      <trkpt lat="52.337730936706066" lon="76.72808152623475">
        <ele>117</ele>
        <time>2026-07-13T08:34:29.000Z</time>
      </trkpt>
      <trkpt lat="52.3370798304677" lon="76.72874302603304">
        <ele>116.2</ele>
        <time>2026-07-13T08:34:45.000Z</time>
      </trkpt>
      <trkpt lat="52.336414977908134" lon="76.72942749224603">
        <ele>116.4</ele>
        <time>2026-07-13T08:35:01.000Z</time>
      </trkpt>
      <trkpt lat="52.33579186722636" lon="76.73006879165769">
        <ele>116</ele>
        <time>2026-07-13T08:35:17.000Z</time>
      </trkpt>
      <trkpt lat="52.33519281260669" lon="76.7306862026453">
        <ele>116.4</ele>
        <time>2026-07-13T08:35:33.000Z</time>
      </trkpt>
      <trkpt lat="52.33453290537" lon="76.7313648853451">
        <ele>116.2</ele>
        <time>2026-07-13T08:35:49.000Z</time>
      </trkpt>
      <trkpt lat="52.33385246247053" lon="76.73207198269665">
        <ele>116.4</ele>
        <time>2026-07-13T08:36:05.000Z</time>
      </trkpt>
      <trkpt lat="52.3331840056926" lon="76.73275301232934">
        <ele>116.6</ele>
        <time>2026-07-13T08:36:22.000Z</time>
      </trkpt>
      <trkpt lat="52.332528876140714" lon="76.73342331312597">
        <ele>116.6</ele>
        <time>2026-07-13T08:36:38.000Z</time>
      </trkpt>
      <trkpt lat="52.331874668598175" lon="76.73409671522677">
        <ele>116.6</ele>
        <time>2026-07-13T08:36:54.000Z</time>
      </trkpt>
      <trkpt lat="52.331222807988524" lon="76.7347683571279">
        <ele>116.2</ele>
        <time>2026-07-13T08:37:10.000Z</time>
      </trkpt>
      <trkpt lat="52.330627189949155" lon="76.73537696711719">
        <ele>116.4</ele>
        <time>2026-07-13T08:37:26.000Z</time>
      </trkpt>
      <trkpt lat="52.329931911081076" lon="76.73609378747642">
        <ele>116.2</ele>
        <time>2026-07-13T08:37:42.000Z</time>
      </trkpt>
      <trkpt lat="52.32927351258695" lon="76.73677305690944">
        <ele>116.2</ele>
        <time>2026-07-13T08:37:58.000Z</time>
      </trkpt>
      <trkpt lat="52.328632129356265" lon="76.73743070103228">
        <ele>116.8</ele>
        <time>2026-07-13T08:38:14.000Z</time>
      </trkpt>
      <trkpt lat="52.327937269583344" lon="76.73814760521054">
        <ele>116.4</ele>
        <time>2026-07-13T08:38:31.000Z</time>
      </trkpt>
      <trkpt lat="52.327199913561344" lon="76.7389041557908">
        <ele>116</ele>
        <time>2026-07-13T08:38:47.000Z</time>
      </trkpt>
      <trkpt lat="52.32648736797273" lon="76.73964159563184">
        <ele>115.8</ele>
        <time>2026-07-13T08:39:03.000Z</time>
      </trkpt>
      <trkpt lat="52.32580181211233" lon="76.74037978984416">
        <ele>115.6</ele>
        <time>2026-07-13T08:39:19.000Z</time>
      </trkpt>
      <trkpt lat="52.32512002810836" lon="76.7411444708705">
        <ele>115.4</ele>
        <time>2026-07-13T08:39:35.000Z</time>
      </trkpt>
      <trkpt lat="52.324382001534104" lon="76.74197662621737">
        <ele>115.6</ele>
        <time>2026-07-13T08:39:51.000Z</time>
      </trkpt>
      <trkpt lat="52.32362327165902" lon="76.74283082596958">
        <ele>115.4</ele>
        <time>2026-07-13T08:40:08.000Z</time>
      </trkpt>
      <trkpt lat="52.32298515737057" lon="76.74354890361428">
        <ele>115</ele>
        <time>2026-07-13T08:40:24.000Z</time>
      </trkpt>
      <trkpt lat="52.3223462048918" lon="76.74426941201091">
        <ele>115.2</ele>
        <time>2026-07-13T08:40:40.000Z</time>
      </trkpt>
      <trkpt lat="52.32168001122773" lon="76.74501892179251">
        <ele>115.2</ele>
        <time>2026-07-13T08:40:57.000Z</time>
      </trkpt>
      <trkpt lat="52.321012895554304" lon="76.7457670904696">
        <ele>115.2</ele>
        <time>2026-07-13T08:41:13.000Z</time>
      </trkpt>
      <trkpt lat="52.320391377434134" lon="76.74645826220512">
        <ele>115.8</ele>
        <time>2026-07-13T08:41:29.000Z</time>
      </trkpt>
      <trkpt lat="52.31974027119577" lon="76.74718748778105">
        <ele>115.8</ele>
        <time>2026-07-13T08:41:45.000Z</time>
      </trkpt>
      <trkpt lat="52.31911246664822" lon="76.74788947217166">
        <ele>116</ele>
        <time>2026-07-13T08:42:01.000Z</time>
      </trkpt>
      <trkpt lat="52.31845507398248" lon="76.7486253194511">
        <ele>115.4</ele>
        <time>2026-07-13T08:42:17.000Z</time>
      </trkpt>
      <trkpt lat="52.317822156473994" lon="76.74934566020966">
        <ele>114.8</ele>
        <time>2026-07-13T08:42:33.000Z</time>
      </trkpt>
      <trkpt lat="52.317202566191554" lon="76.75005359575152">
        <ele>114.4</ele>
        <time>2026-07-13T08:42:49.000Z</time>
      </trkpt>
      <trkpt lat="52.31653578579426" lon="76.75080453045666">
        <ele>114.6</ele>
        <time>2026-07-13T08:43:05.000Z</time>
      </trkpt>
      <trkpt lat="52.3158706817776" lon="76.75155621953309">
        <ele>114.6</ele>
        <time>2026-07-13T08:43:22.000Z</time>
      </trkpt>
      <trkpt lat="52.31521622277796" lon="76.75230145454407">
        <ele>114</ele>
        <time>2026-07-13T08:43:38.000Z</time>
      </trkpt>
      <trkpt lat="52.31451088562608" lon="76.75310561433434">
        <ele>112.8</ele>
        <time>2026-07-13T08:43:54.000Z</time>
      </trkpt>
      <trkpt lat="52.31376003473997" lon="76.75396375358105">
        <ele>112.2</ele>
        <time>2026-07-13T08:44:10.000Z</time>
      </trkpt>
      <trkpt lat="52.313011195510626" lon="76.75481426529586">
        <ele>112.2</ele>
        <time>2026-07-13T08:44:26.000Z</time>
      </trkpt>
      <trkpt lat="52.31220460496843" lon="76.75573158077896">
        <ele>112</ele>
        <time>2026-07-13T08:44:41.000Z</time>
      </trkpt>
      <trkpt lat="52.31204233132303" lon="76.75591346807778">
        <ele>112</ele>
        <time>2026-07-13T08:44:44.000Z</time>
      </trkpt>
      <trkpt lat="52.311283769086" lon="76.7567806597799">
        <ele>112</ele>
        <time>2026-07-13T08:45:00.000Z</time>
      </trkpt>
      <trkpt lat="52.31054037809372" lon="76.7576268967241">
        <ele>112</ele>
        <time>2026-07-13T08:45:16.000Z</time>
      </trkpt>
      <trkpt lat="52.30980461463332" lon="76.75845821388066">
        <ele>112.2</ele>
        <time>2026-07-13T08:45:32.000Z</time>
      </trkpt>
      <trkpt lat="52.30913372710347" lon="76.7592265829444">
        <ele>112.6</ele>
        <time>2026-07-13T08:45:49.000Z</time>
      </trkpt>
      <trkpt lat="52.30844842270017" lon="76.76000341773033">
        <ele>112.6</ele>
        <time>2026-07-13T08:46:05.000Z</time>
      </trkpt>
      <trkpt lat="52.307805279269814" lon="76.76063465885818">
        <ele>113</ele>
        <time>2026-07-13T08:46:21.000Z</time>
      </trkpt>
      <trkpt lat="52.307139756157994" lon="76.7612021137029">
        <ele>113.2</ele>
        <time>2026-07-13T08:46:37.000Z</time>
      </trkpt>
      <trkpt lat="52.30642771348357" lon="76.76169119775295">
        <ele>113.2</ele>
        <time>2026-07-13T08:46:53.000Z</time>
      </trkpt>
      <trkpt lat="52.30566227808595" lon="76.7621823772788">
        <ele>113.6</ele>
        <time>2026-07-13T08:47:09.000Z</time>
      </trkpt>
      <trkpt lat="52.30495635420084" lon="76.76262385211885">
        <ele>113.8</ele>
        <time>2026-07-13T08:47:25.000Z</time>
      </trkpt>
      <trkpt lat="52.30422201566398" lon="76.76309432834387">
        <ele>113.4</ele>
        <time>2026-07-13T08:47:41.000Z</time>
      </trkpt>
      <trkpt lat="52.303472673520446" lon="76.76356681622565">
        <ele>113.2</ele>
        <time>2026-07-13T08:47:57.000Z</time>
      </trkpt>
      <trkpt lat="52.302739424631" lon="76.76403452642262">
        <ele>113.6</ele>
        <time>2026-07-13T08:48:14.000Z</time>
      </trkpt>
      <trkpt lat="52.302038529887795" lon="76.76446828991175">
        <ele>113.8</ele>
        <time>2026-07-13T08:48:30.000Z</time>
      </trkpt>
      <trkpt lat="52.30139513500035" lon="76.76487229764462">
        <ele>114.2</ele>
        <time>2026-07-13T08:48:46.000Z</time>
      </trkpt>
      <trkpt lat="52.300645457580686" lon="76.76534621044993">
        <ele>114.2</ele>
        <time>2026-07-13T08:49:02.000Z</time>
      </trkpt>
      <trkpt lat="52.2999158129096" lon="76.76580629311502">
        <ele>114.4</ele>
        <time>2026-07-13T08:49:18.000Z</time>
      </trkpt>
      <trkpt lat="52.29908097535372" lon="76.76633896306157">
        <ele>115.2</ele>
        <time>2026-07-13T08:49:34.000Z</time>
      </trkpt>
      <trkpt lat="52.298414865508676" lon="76.76676141098142">
        <ele>113.8</ele>
        <time>2026-07-13T08:49:50.000Z</time>
      </trkpt>
      <trkpt lat="52.29770508594811" lon="76.76721210591495">
        <ele>113.8</ele>
        <time>2026-07-13T08:50:06.000Z</time>
      </trkpt>
      <trkpt lat="52.29697812348604" lon="76.76765802316368">
        <ele>113.6</ele>
        <time>2026-07-13T08:50:23.000Z</time>
      </trkpt>
      <trkpt lat="52.296259459108114" lon="76.76810377277434">
        <ele>113.8</ele>
        <time>2026-07-13T08:50:39.000Z</time>
      </trkpt>
      <trkpt lat="52.29554590769112" lon="76.76856645382941">
        <ele>113.8</ele>
        <time>2026-07-13T08:50:55.000Z</time>
      </trkpt>
      <trkpt lat="52.294836631044745" lon="76.76901890896261">
        <ele>113.8</ele>
        <time>2026-07-13T08:51:11.000Z</time>
      </trkpt>
      <trkpt lat="52.29405459947884" lon="76.76951427944005">
        <ele>113.4</ele>
        <time>2026-07-13T08:51:27.000Z</time>
      </trkpt>
      <trkpt lat="52.29329511523247" lon="76.76999070681632">
        <ele>113.8</ele>
        <time>2026-07-13T08:51:43.000Z</time>
      </trkpt>
      <trkpt lat="52.292618695646524" lon="76.77041189745069">
        <ele>113.8</ele>
        <time>2026-07-13T08:51:59.000Z</time>
      </trkpt>
      <trkpt lat="52.29187622666359" lon="76.77087692543864">
        <ele>114.4</ele>
        <time>2026-07-13T08:52:15.000Z</time>
      </trkpt>
      <trkpt lat="52.2911402117461" lon="76.7713422048837">
        <ele>114.4</ele>
        <time>2026-07-13T08:52:31.000Z</time>
      </trkpt>
      <trkpt lat="52.29042448103428" lon="76.77179189398885">
        <ele>114.2</ele>
        <time>2026-07-13T08:52:48.000Z</time>
      </trkpt>
      <trkpt lat="52.28991377167404" lon="76.77211375907063">
        <ele>114.6</ele>
        <time>2026-07-13T08:53:04.000Z</time>
      </trkpt>
      <trkpt lat="52.28942636400461" lon="76.77243093028665">
        <ele>114.6</ele>
        <time>2026-07-13T08:53:20.000Z</time>
      </trkpt>
      <trkpt lat="52.28891951031983" lon="76.7727513704449">
        <ele>114.6</ele>
        <time>2026-07-13T08:53:36.000Z</time>
      </trkpt>
      <trkpt lat="52.2882476169616" lon="76.77318370901048">
        <ele>115</ele>
        <time>2026-07-13T08:53:52.000Z</time>
      </trkpt>
      <trkpt lat="52.2875189781189" lon="76.77363943308592">
        <ele>115</ele>
        <time>2026-07-13T08:54:08.000Z</time>
      </trkpt>
      <trkpt lat="52.28675932623446" lon="76.77411938086152">
        <ele>114.8</ele>
        <time>2026-07-13T08:54:24.000Z</time>
      </trkpt>
      <trkpt lat="52.285977713763714" lon="76.77460821345448">
        <ele>114.4</ele>
        <time>2026-07-13T08:54:40.000Z</time>
      </trkpt>
      <trkpt lat="52.285171961411834" lon="76.77511506713927">
        <ele>114.6</ele>
        <time>2026-07-13T08:54:56.000Z</time>
      </trkpt>
      <trkpt lat="52.284317929297686" lon="76.7756537720561">
        <ele>114.6</ele>
        <time>2026-07-13T08:55:13.000Z</time>
      </trkpt>
      <trkpt lat="52.28346901014447" lon="76.77618719637394">
        <ele>114.2</ele>
        <time>2026-07-13T08:55:29.000Z</time>
      </trkpt>
      <trkpt lat="52.2826075181365" lon="76.77673009224236">
        <ele>113.8</ele>
        <time>2026-07-13T08:55:45.000Z</time>
      </trkpt>
      <trkpt lat="52.281749127432704" lon="76.77727231755853">
        <ele>113.2</ele>
        <time>2026-07-13T08:56:01.000Z</time>
      </trkpt>
      <trkpt lat="52.28091445751488" lon="76.77779769524932">
        <ele>112.8</ele>
        <time>2026-07-13T08:56:17.000Z</time>
      </trkpt>
      <trkpt lat="52.280043913051486" lon="76.77834905683994">
        <ele>112.8</ele>
        <time>2026-07-13T08:56:32.000Z</time>
      </trkpt>
      <trkpt lat="52.27947922423482" lon="76.77870528772473">
        <ele>112.6</ele>
        <time>2026-07-13T08:56:42.000Z</time>
      </trkpt>
      <trkpt lat="52.27858663536608" lon="76.77926637232304">
        <ele>112.4</ele>
        <time>2026-07-13T08:56:58.000Z</time>
      </trkpt>
      <trkpt lat="52.277697985991836" lon="76.77982737310231">
        <ele>112.2</ele>
        <time>2026-07-13T08:57:14.000Z</time>
      </trkpt>
      <trkpt lat="52.2768675070256" lon="76.78035182878375">
        <ele>112.2</ele>
        <time>2026-07-13T08:57:31.000Z</time>
      </trkpt>
      <trkpt lat="52.276061084121466" lon="76.78085960447788">
        <ele>111.8</ele>
        <time>2026-07-13T08:57:47.000Z</time>
      </trkpt>
      <trkpt lat="52.27527796290815" lon="76.78134927526116">
        <ele>112</ele>
        <time>2026-07-13T08:58:03.000Z</time>
      </trkpt>
      <trkpt lat="52.27450272068381" lon="76.78183123469353">
        <ele>112.4</ele>
        <time>2026-07-13T08:58:19.000Z</time>
      </trkpt>
      <trkpt lat="52.27375589311123" lon="76.78229592740536">
        <ele>112.4</ele>
        <time>2026-07-13T08:58:35.000Z</time>
      </trkpt>
      <trkpt lat="52.27310713380575" lon="76.78270261734724">
        <ele>112.4</ele>
        <time>2026-07-13T08:58:51.000Z</time>
      </trkpt>
      <trkpt lat="52.27245912887156" lon="76.78303931839764">
        <ele>113</ele>
        <time>2026-07-13T08:59:07.000Z</time>
      </trkpt>
      <trkpt lat="52.27205361239612" lon="76.78328398615122">
        <ele>113.6</ele>
        <time>2026-07-13T08:59:23.000Z</time>
      </trkpt>
      <trkpt lat="52.27160610258579" lon="76.78352530114353">
        <ele>114.2</ele>
        <time>2026-07-13T08:59:39.000Z</time>
      </trkpt>
      <trkpt lat="52.2713761869818" lon="76.7837496008724">
        <ele>115</ele>
        <time>2026-07-13T08:59:48.000Z</time>
      </trkpt>
      <trkpt lat="52.27093161083758" lon="76.78403500467539">
        <ele>116.2</ele>
        <time>2026-07-13T09:00:05.000Z</time>
      </trkpt>
      <trkpt lat="52.27055392228067" lon="76.78426332771778">
        <ele>117.6</ele>
        <time>2026-07-13T09:00:21.000Z</time>
      </trkpt>
      <trkpt lat="52.27019920013845" lon="76.7844610568136">
        <ele>118.6</ele>
        <time>2026-07-13T09:00:37.000Z</time>
      </trkpt>
      <trkpt lat="52.26986442692578" lon="76.78468661382794">
        <ele>119.6</ele>
        <time>2026-07-13T09:00:53.000Z</time>
      </trkpt>
      <trkpt lat="52.26949411444366" lon="76.78491116501391">
        <ele>120.6</ele>
        <time>2026-07-13T09:01:09.000Z</time>
      </trkpt>
      <trkpt lat="52.26906999014318" lon="76.78518676199019">
        <ele>121.6</ele>
        <time>2026-07-13T09:01:26.000Z</time>
      </trkpt>
      <trkpt lat="52.26869557052851" lon="76.78544349968433">
        <ele>122.2</ele>
        <time>2026-07-13T09:01:42.000Z</time>
      </trkpt>
      <trkpt lat="52.268541008234024" lon="76.78555908612907">
        <ele>122.4</ele>
        <time>2026-07-13T09:01:48.000Z</time>
      </trkpt>
      <trkpt lat="52.26838602684438" lon="76.78568297065794">
        <ele>122.6</ele>
        <time>2026-07-13T09:01:54.000Z</time>
      </trkpt>
      <trkpt lat="52.26795972324908" lon="76.78605596534908">
        <ele>123</ele>
        <time>2026-07-13T09:02:10.000Z</time>
      </trkpt>
      <trkpt lat="52.267427975311875" lon="76.78652711212635">
        <ele>123.2</ele>
        <time>2026-07-13T09:02:27.000Z</time>
      </trkpt>
      <trkpt lat="52.26702983491123" lon="76.78696028888226">
        <ele>123.2</ele>
        <time>2026-07-13T09:02:40.000Z</time>
      </trkpt>
      <trkpt lat="52.2665408346802" lon="76.78746622055769">
        <ele>122.8</ele>
        <time>2026-07-13T09:02:56.000Z</time>
      </trkpt>
      <trkpt lat="52.2661195602268" lon="76.787747181952">
        <ele>121.8</ele>
        <time>2026-07-13T09:03:07.000Z</time>
      </trkpt>
      <trkpt lat="52.265812028199434" lon="76.78754593245685">
        <ele>121</ele>
        <time>2026-07-13T09:03:13.000Z</time>
      </trkpt>
      <trkpt lat="52.26570155471563" lon="76.78727687336504">
        <ele>120.4</ele>
        <time>2026-07-13T09:03:16.000Z</time>
      </trkpt>
      <trkpt lat="52.26566978730261" lon="76.78704746067524">
        <ele>119.8</ele>
        <time>2026-07-13T09:03:18.000Z</time>
      </trkpt>
      <trkpt lat="52.265739524737" lon="76.78660866804421">
        <ele>118.6</ele>
        <time>2026-07-13T09:03:22.000Z</time>
      </trkpt>
      <trkpt lat="52.26594605483115" lon="76.78632041439414">
        <ele>118.2</ele>
        <time>2026-07-13T09:03:26.000Z</time>
      </trkpt>
      <trkpt lat="52.26622860878706" lon="76.78627029061317">
        <ele>117.4</ele>
        <time>2026-07-13T09:03:30.000Z</time>
      </trkpt>
      <trkpt lat="52.266546031460166" lon="76.78655351512134">
        <ele>116.8</ele>
        <time>2026-07-13T09:03:34.000Z</time>
      </trkpt>
      <trkpt lat="52.267126897349954" lon="76.78762648254633">
        <ele>116.4</ele>
        <time>2026-07-13T09:03:50.000Z</time>
      </trkpt>
      <trkpt lat="52.2676666919142" lon="76.78855000063777">
        <ele>116.4</ele>
        <time>2026-07-13T09:04:06.000Z</time>
      </trkpt>
      <trkpt lat="52.26814068853855" lon="76.78931979462504">
        <ele>116.2</ele>
        <time>2026-07-13T09:04:22.000Z</time>
      </trkpt>
      <trkpt lat="52.26857897825539" lon="76.79003317840397">
        <ele>116</ele>
        <time>2026-07-13T09:04:38.000Z</time>
      </trkpt>
      <trkpt lat="52.26897661574185" lon="76.79070062935352">
        <ele>116.2</ele>
        <time>2026-07-13T09:04:53.000Z</time>
      </trkpt>
      <trkpt lat="52.26935036480427" lon="76.79128610529006">
        <ele>116</ele>
        <time>2026-07-13T09:05:05.000Z</time>
      </trkpt>
      <trkpt lat="52.269839784130454" lon="76.79200661368668">
        <ele>116.2</ele>
        <time>2026-07-13T09:05:21.000Z</time>
      </trkpt>
      <trkpt lat="52.27034621872008" lon="76.792723685503">
        <ele>116.6</ele>
        <time>2026-07-13T09:05:37.000Z</time>
      </trkpt>
      <trkpt lat="52.270830273628235" lon="76.79340681061149">
        <ele>116.4</ele>
        <time>2026-07-13T09:05:52.000Z</time>
      </trkpt>
      <trkpt lat="52.27112263441086" lon="76.79393696598709">
        <ele>116.4</ele>
        <time>2026-07-13T09:06:02.000Z</time>
      </trkpt>
      <trkpt lat="52.27171598933637" lon="76.79483181796968">
        <ele>116.8</ele>
        <time>2026-07-13T09:06:18.000Z</time>
      </trkpt>
      <trkpt lat="52.27223533205688" lon="76.79554025642574">
        <ele>116.6</ele>
        <time>2026-07-13T09:06:34.000Z</time>
      </trkpt>
      <trkpt lat="52.272781915962696" lon="76.79621558636427">
        <ele>117</ele>
        <time>2026-07-13T09:06:49.000Z</time>
      </trkpt>
      <trkpt lat="52.27332456037402" lon="76.79698110558093">
        <ele>117.2</ele>
        <time>2026-07-13T09:07:06.000Z</time>
      </trkpt>
      <trkpt lat="52.273900397121906" lon="76.79780068807304">
        <ele>117.6</ele>
        <time>2026-07-13T09:07:22.000Z</time>
      </trkpt>
      <trkpt lat="52.27445913478732" lon="76.79856989532709">
        <ele>117.6</ele>
        <time>2026-07-13T09:07:38.000Z</time>
      </trkpt>
      <trkpt lat="52.27500437758863" lon="76.799351926893">
        <ele>118</ele>
        <time>2026-07-13T09:07:54.000Z</time>
      </trkpt>
      <trkpt lat="52.275529420003295" lon="76.80010772310197">
        <ele>118</ele>
        <time>2026-07-13T09:08:10.000Z</time>
      </trkpt>
      <trkpt lat="52.276097713038325" lon="76.80091548711061">
        <ele>118.4</ele>
        <time>2026-07-13T09:08:26.000Z</time>
      </trkpt>
      <trkpt lat="52.276640022173524" lon="76.8016898073256">
        <ele>118.2</ele>
        <time>2026-07-13T09:08:42.000Z</time>
      </trkpt>
      <trkpt lat="52.27718266658485" lon="76.80246940813959">
        <ele>118.6</ele>
        <time>2026-07-13T09:08:58.000Z</time>
      </trkpt>
      <trkpt lat="52.277696058154106" lon="76.80320165120065">
        <ele>118.4</ele>
        <time>2026-07-13T09:09:14.000Z</time>
      </trkpt>
      <trkpt lat="52.2782145626843" lon="76.80394319817424">
        <ele>118.6</ele>
        <time>2026-07-13T09:09:31.000Z</time>
      </trkpt>
      <trkpt lat="52.278741616755724" lon="76.8046915344894">
        <ele>118.6</ele>
        <time>2026-07-13T09:09:47.000Z</time>
      </trkpt>
      <trkpt lat="52.2792643122375" lon="76.80544448085129">
        <ele>118.8</ele>
        <time>2026-07-13T09:10:03.000Z</time>
      </trkpt>
      <trkpt lat="52.27979388087988" lon="76.80619751103222">
        <ele>118.8</ele>
        <time>2026-07-13T09:10:19.000Z</time>
      </trkpt>
      <trkpt lat="52.280311211943626" lon="76.80693746544421">
        <ele>118.8</ele>
        <time>2026-07-13T09:10:35.000Z</time>
      </trkpt>
      <trkpt lat="52.2808494977653" lon="76.80771346203983">
        <ele>119</ele>
        <time>2026-07-13T09:10:51.000Z</time>
      </trkpt>
      <trkpt lat="52.281408570706844" lon="76.8085059709847">
        <ele>118.8</ele>
        <time>2026-07-13T09:11:07.000Z</time>
      </trkpt>
      <trkpt lat="52.28194375522435" lon="76.80928230285645">
        <ele>118.6</ele>
        <time>2026-07-13T09:11:23.000Z</time>
      </trkpt>
      <trkpt lat="52.282477682456374" lon="76.81004916317761">
        <ele>118.8</ele>
        <time>2026-07-13T09:11:39.000Z</time>
      </trkpt>
      <trkpt lat="52.2830324806273" lon="76.81084351614118">
        <ele>118.6</ele>
        <time>2026-07-13T09:11:56.000Z</time>
      </trkpt>
      <trkpt lat="52.283586356788874" lon="76.81163468398154">
        <ele>118.4</ele>
        <time>2026-07-13T09:12:12.000Z</time>
      </trkpt>
      <trkpt lat="52.284108716994524" lon="76.81237740442157">
        <ele>118.4</ele>
        <time>2026-07-13T09:12:28.000Z</time>
      </trkpt>
      <trkpt lat="52.28459972888231" lon="76.81308165192604">
        <ele>118.2</ele>
        <time>2026-07-13T09:12:43.000Z</time>
      </trkpt>
      <trkpt lat="52.2850976139307" lon="76.81380048394203">
        <ele>118.2</ele>
        <time>2026-07-13T09:12:59.000Z</time>
      </trkpt>
      <trkpt lat="52.28554889559746" lon="76.81445217691362">
        <ele>118.2</ele>
        <time>2026-07-13T09:13:15.000Z</time>
      </trkpt>
      <trkpt lat="52.28602926246822" lon="76.81515525095165">
        <ele>118.4</ele>
        <time>2026-07-13T09:13:31.000Z</time>
      </trkpt>
      <trkpt lat="52.28655556216836" lon="76.81590283289552">
        <ele>118.2</ele>
        <time>2026-07-13T09:13:47.000Z</time>
      </trkpt>
      <trkpt lat="52.287164675071836" lon="76.81677496992052">
        <ele>118</ele>
        <time>2026-07-13T09:14:03.000Z</time>
      </trkpt>
      <trkpt lat="52.28773942217231" lon="76.81759983301163">
        <ele>117.8</ele>
        <time>2026-07-13T09:14:20.000Z</time>
      </trkpt>
      <trkpt lat="52.28830377571285" lon="76.81840902194381">
        <ele>117.6</ele>
        <time>2026-07-13T09:14:36.000Z</time>
      </trkpt>
      <trkpt lat="52.28885421529412" lon="76.81919197551906">
        <ele>117.6</ele>
        <time>2026-07-13T09:14:52.000Z</time>
      </trkpt>
      <trkpt lat="52.28940331377089" lon="76.8199791200459">
        <ele>117.8</ele>
        <time>2026-07-13T09:15:08.000Z</time>
      </trkpt>
      <trkpt lat="52.28988200426102" lon="76.8206697050482">
        <ele>117.6</ele>
        <time>2026-07-13T09:15:21.000Z</time>
      </trkpt>
      <trkpt lat="52.29045138694346" lon="76.82148962281644">
        <ele>117.6</ele>
        <time>2026-07-13T09:15:37.000Z</time>
      </trkpt>
      <trkpt lat="52.29100811295211" lon="76.82229327969253">
        <ele>117.8</ele>
        <time>2026-07-13T09:15:53.000Z</time>
      </trkpt>
      <trkpt lat="52.29151412844658" lon="76.82302108034492">
        <ele>117.4</ele>
        <time>2026-07-13T09:16:09.000Z</time>
      </trkpt>
      <trkpt lat="52.292023999616504" lon="76.82375793345273">
        <ele>118</ele>
        <time>2026-07-13T09:16:25.000Z</time>
      </trkpt>
      <trkpt lat="52.29252951219678" lon="76.82448397390544">
        <ele>117.8</ele>
        <time>2026-07-13T09:16:42.000Z</time>
      </trkpt>
      <trkpt lat="52.293055057525635" lon="76.82524035684764">
        <ele>118</ele>
        <time>2026-07-13T09:16:58.000Z</time>
      </trkpt>
      <trkpt lat="52.29357272386551" lon="76.82598039507866">
        <ele>118</ele>
        <time>2026-07-13T09:17:14.000Z</time>
      </trkpt>
      <trkpt lat="52.29409332387149" lon="76.82673099450767">
        <ele>118</ele>
        <time>2026-07-13T09:17:30.000Z</time>
      </trkpt>
      <trkpt lat="52.29465155862272" lon="76.8275374174118">
        <ele>117.6</ele>
        <time>2026-07-13T09:17:46.000Z</time>
      </trkpt>
      <trkpt lat="52.29522588662803" lon="76.8283595982939">
        <ele>117.8</ele>
        <time>2026-07-13T09:18:02.000Z</time>
      </trkpt>
      <trkpt lat="52.29580038227141" lon="76.82919602841139">
        <ele>117.8</ele>
        <time>2026-07-13T09:18:18.000Z</time>
      </trkpt>
      <trkpt lat="52.29632668197155" lon="76.82994947768748">
        <ele>118</ele>
        <time>2026-07-13T09:18:34.000Z</time>
      </trkpt>
      <trkpt lat="52.296859519556165" lon="76.83071030303836">
        <ele>118</ele>
        <time>2026-07-13T09:18:50.000Z</time>
      </trkpt>
      <trkpt lat="52.29738179594278" lon="76.83145545423031">
        <ele>118.4</ele>
        <time>2026-07-13T09:19:07.000Z</time>
      </trkpt>
      <trkpt lat="52.29792385362089" lon="76.83223882690072">
        <ele>118.4</ele>
        <time>2026-07-13T09:19:23.000Z</time>
      </trkpt>
      <trkpt lat="52.29845627211034" lon="76.83300166390836">
        <ele>118.6</ele>
        <time>2026-07-13T09:19:39.000Z</time>
      </trkpt>
      <trkpt lat="52.299034371972084" lon="76.83383801020682">
        <ele>118.8</ele>
        <time>2026-07-13T09:19:55.000Z</time>
      </trkpt>
      <trkpt lat="52.29960207827389" lon="76.83464912697673">
        <ele>118.6</ele>
        <time>2026-07-13T09:20:11.000Z</time>
      </trkpt>
      <trkpt lat="52.30017573572695" lon="76.83547776192427">
        <ele>118.6</ele>
        <time>2026-07-13T09:20:27.000Z</time>
      </trkpt>
      <trkpt lat="52.3007742036134" lon="76.83633699081838">
        <ele>118.6</ele>
        <time>2026-07-13T09:20:43.000Z</time>
      </trkpt>
      <trkpt lat="52.30129161849618" lon="76.83708222582936">
        <ele>118.8</ele>
        <time>2026-07-13T09:20:59.000Z</time>
      </trkpt>
      <trkpt lat="52.30179729871452" lon="76.83780818246305">
        <ele>119</ele>
        <time>2026-07-13T09:21:15.000Z</time>
      </trkpt>
      <trkpt lat="52.3023490794003" lon="76.8386048823595">
        <ele>119.2</ele>
        <time>2026-07-13T09:21:32.000Z</time>
      </trkpt>
      <trkpt lat="52.30287906713784" lon="76.83937450870872">
        <ele>119.2</ele>
        <time>2026-07-13T09:21:48.000Z</time>
      </trkpt>
      <trkpt lat="52.303421376273036" lon="76.84015452861786">
        <ele>119.2</ele>
        <time>2026-07-13T09:22:04.000Z</time>
      </trkpt>
      <trkpt lat="52.3039273917675" lon="76.84088760986924">
        <ele>119.4</ele>
        <time>2026-07-13T09:22:20.000Z</time>
      </trkpt>
      <trkpt lat="52.30447716079652" lon="76.84167207218707">
        <ele>119.4</ele>
        <time>2026-07-13T09:22:36.000Z</time>
      </trkpt>
      <trkpt lat="52.30506473220885" lon="76.84251210652292">
        <ele>119.2</ele>
        <time>2026-07-13T09:22:52.000Z</time>
      </trkpt>
      <trkpt lat="52.30563503690064" lon="76.84333126991987">
        <ele>119.2</ele>
        <time>2026-07-13T09:23:08.000Z</time>
      </trkpt>
      <trkpt lat="52.30619360692799" lon="76.8441413808614">
        <ele>119</ele>
        <time>2026-07-13T09:23:24.000Z</time>
      </trkpt>
      <trkpt lat="52.306759133934975" lon="76.84495551511645">
        <ele>118.8</ele>
        <time>2026-07-13T09:23:40.000Z</time>
      </trkpt>
      <trkpt lat="52.30732625350356" lon="76.84576579369605">
        <ele>118.6</ele>
        <time>2026-07-13T09:23:57.000Z</time>
      </trkpt>
      <trkpt lat="52.307877615094185" lon="76.8465574644506">
        <ele>118.6</ele>
        <time>2026-07-13T09:24:13.000Z</time>
      </trkpt>
      <trkpt lat="52.30844431556761" lon="76.84738031588495">
        <ele>118.4</ele>
        <time>2026-07-13T09:24:29.000Z</time>
      </trkpt>
      <trkpt lat="52.309008333832026" lon="76.84818137437105">
        <ele>118</ele>
        <time>2026-07-13T09:24:45.000Z</time>
      </trkpt>
      <trkpt lat="52.30959263630211" lon="76.84901780448854">
        <ele>118</ele>
        <time>2026-07-13T09:25:01.000Z</time>
      </trkpt>
      <trkpt lat="52.31020091101527" lon="76.84990787878633">
        <ele>118</ele>
        <time>2026-07-13T09:25:17.000Z</time>
      </trkpt>
      <trkpt lat="52.31075973249972" lon="76.85071052983403">
        <ele>117.8</ele>
        <time>2026-07-13T09:25:33.000Z</time>
      </trkpt>
      <trkpt lat="52.31130162253976" lon="76.85148811899126">
        <ele>117.8</ele>
        <time>2026-07-13T09:25:49.000Z</time>
      </trkpt>
      <trkpt lat="52.31185097247362" lon="76.85228649526834">
        <ele>117.4</ele>
        <time>2026-07-13T09:26:06.000Z</time>
      </trkpt>
      <trkpt lat="52.312207790091634" lon="76.85282712802291">
        <ele>117.2</ele>
        <time>2026-07-13T09:26:17.000Z</time>
      </trkpt>
      <trkpt lat="52.31273333542049" lon="76.85367621481419">
        <ele>117.2</ele>
        <time>2026-07-13T09:26:33.000Z</time>
      </trkpt>
      <trkpt lat="52.313191490247846" lon="76.85447760857642">
        <ele>117</ele>
        <time>2026-07-13T09:26:49.000Z</time>
      </trkpt>
      <trkpt lat="52.31368761509657" lon="76.8554091732949">
        <ele>117</ele>
        <time>2026-07-13T09:27:05.000Z</time>
      </trkpt>
      <trkpt lat="52.31417485512793" lon="76.85641458258033">
        <ele>117</ele>
        <time>2026-07-13T09:27:21.000Z</time>
      </trkpt>
      <trkpt lat="52.31463275849819" lon="76.85745385475457">
        <ele>117</ele>
        <time>2026-07-13T09:27:37.000Z</time>
      </trkpt>
      <trkpt lat="52.31509636156261" lon="76.85861156322062">
        <ele>117</ele>
        <time>2026-07-13T09:27:53.000Z</time>
      </trkpt>
      <trkpt lat="52.31545929796994" lon="76.85961328446865">
        <ele>117</ele>
        <time>2026-07-13T09:28:09.000Z</time>
      </trkpt>
      <trkpt lat="52.31579700484872" lon="76.86063185334206">
        <ele>116.8</ele>
        <time>2026-07-13T09:28:25.000Z</time>
      </trkpt>
      <trkpt lat="52.31611669063568" lon="76.8616999592632">
        <ele>116.8</ele>
        <time>2026-07-13T09:28:42.000Z</time>
      </trkpt>
      <trkpt lat="52.316410979256034" lon="76.86279941350222">
        <ele>116.8</ele>
        <time>2026-07-13T09:28:58.000Z</time>
      </trkpt>
      <trkpt lat="52.316602086648345" lon="76.86360055580735">
        <ele>116.8</ele>
        <time>2026-07-13T09:29:14.000Z</time>
      </trkpt>
      <trkpt lat="52.316713063046336" lon="76.86412995681167">
        <ele>116.8</ele>
        <time>2026-07-13T09:29:27.000Z</time>
      </trkpt>
      <trkpt lat="52.316589429974556" lon="76.86424353159964">
        <ele>116.8</ele>
        <time>2026-07-13T09:29:37.000Z</time>
      </trkpt>
      <trkpt lat="52.31678456068039" lon="76.8644286878407">
        <ele>118.4</ele>
        <time>2026-07-13T09:38:34.000Z</time>
      </trkpt>
      <trkpt lat="52.316931411623955" lon="76.86507392674685">
        <ele>118.4</ele>
        <time>2026-07-13T09:38:50.000Z</time>
      </trkpt>
      <trkpt lat="52.31711883097887" lon="76.86591622419655">
        <ele>118.6</ele>
        <time>2026-07-13T09:39:06.000Z</time>
      </trkpt>
      <trkpt lat="52.317325193434954" lon="76.86682976782322">
        <ele>118.4</ele>
        <time>2026-07-13T09:39:22.000Z</time>
      </trkpt>
      <trkpt lat="52.3175232578069" lon="76.86768656596541">
        <ele>118.6</ele>
        <time>2026-07-13T09:39:38.000Z</time>
      </trkpt>
      <trkpt lat="52.317724004387856" lon="76.86864076182246">
        <ele>118.6</ele>
        <time>2026-07-13T09:39:54.000Z</time>
      </trkpt>
      <trkpt lat="52.317921901121736" lon="76.86956025660038">
        <ele>118.6</ele>
        <time>2026-07-13T09:40:10.000Z</time>
      </trkpt>
      <trkpt lat="52.31811351142824" lon="76.8704345729202">
        <ele>118.4</ele>
        <time>2026-07-13T09:40:27.000Z</time>
      </trkpt>
      <trkpt lat="52.31831450946629" lon="76.8712810613215">
        <ele>118.4</ele>
        <time>2026-07-13T09:40:43.000Z</time>
      </trkpt>
      <trkpt lat="52.31852590106428" lon="76.87223316170275">
        <ele>118.4</ele>
        <time>2026-07-13T09:40:59.000Z</time>
      </trkpt>
      <trkpt lat="52.318735867738724" lon="76.87317511998117">
        <ele>118.4</ele>
        <time>2026-07-13T09:41:15.000Z</time>
      </trkpt>
      <trkpt lat="52.31893711723387" lon="76.87408740632236">
        <ele>118.4</ele>
        <time>2026-07-13T09:41:31.000Z</time>
      </trkpt>
      <trkpt lat="52.319127302616835" lon="76.87496222555637">
        <ele>118.6</ele>
        <time>2026-07-13T09:41:47.000Z</time>
      </trkpt>
      <trkpt lat="52.31930793263018" lon="76.87575976364315">
        <ele>119.6</ele>
        <time>2026-07-13T09:42:03.000Z</time>
      </trkpt>
      <trkpt lat="52.31943701393902" lon="76.87634691596031">
        <ele>120.6</ele>
        <time>2026-07-13T09:42:19.000Z</time>
      </trkpt>
      <trkpt lat="52.319547068327665" lon="76.87685527838767">
        <ele>121.8</ele>
        <time>2026-07-13T09:42:35.000Z</time>
      </trkpt>
      <trkpt lat="52.319665756076574" lon="76.87738945707679">
        <ele>123</ele>
        <time>2026-07-13T09:42:52.000Z</time>
      </trkpt>
      <trkpt lat="52.31977396644652" lon="76.87789069488645">
        <ele>124.2</ele>
        <time>2026-07-13T09:43:08.000Z</time>
      </trkpt>
      <trkpt lat="52.31988636776805" lon="76.87840953469276">
        <ele>125.2</ele>
        <time>2026-07-13T09:43:24.000Z</time>
      </trkpt>
      <trkpt lat="52.32000178657472" lon="76.87892845831811">
        <ele>125.8</ele>
        <time>2026-07-13T09:43:40.000Z</time>
      </trkpt>
      <trkpt lat="52.3201167024672" lon="76.87944612465799">
        <ele>126.6</ele>
        <time>2026-07-13T09:43:56.000Z</time>
      </trkpt>
      <trkpt lat="52.32022910378873" lon="76.87995582818985">
        <ele>127.4</ele>
        <time>2026-07-13T09:44:12.000Z</time>
      </trkpt>
      <trkpt lat="52.320349887013435" lon="76.88050115481019">
        <ele>128</ele>
        <time>2026-07-13T09:44:28.000Z</time>
      </trkpt>
      <trkpt lat="52.32046949677169" lon="76.88103818334639">
        <ele>128.6</ele>
        <time>2026-07-13T09:44:44.000Z</time>
      </trkpt>
      <trkpt lat="52.32059438712895" lon="76.8816042970866">
        <ele>129.2</ele>
        <time>2026-07-13T09:45:00.000Z</time>
      </trkpt>
      <trkpt lat="52.32072497718036" lon="76.88219295814633">
        <ele>129.2</ele>
        <time>2026-07-13T09:45:17.000Z</time>
      </trkpt>
      <trkpt lat="52.320862859487534" lon="76.88281330280006">
        <ele>129.4</ele>
        <time>2026-07-13T09:45:33.000Z</time>
      </trkpt>
      <trkpt lat="52.321001663804054" lon="76.8834432028234">
        <ele>129.8</ele>
        <time>2026-07-13T09:45:49.000Z</time>
      </trkpt>
      <trkpt lat="52.32117433100939" lon="76.88420377671719">
        <ele>130</ele>
        <time>2026-07-13T09:46:05.000Z</time>
      </trkpt>
      <trkpt lat="52.32134247198701" lon="76.88497725874186">
        <ele>130</ele>
        <time>2026-07-13T09:46:21.000Z</time>
      </trkpt>
      <trkpt lat="52.32153031043708" lon="76.88582676462829">
        <ele>129.8</ele>
        <time>2026-07-13T09:46:36.000Z</time>
      </trkpt>
      <trkpt lat="52.32173600234091" lon="76.88674072735012">
        <ele>129.2</ele>
        <time>2026-07-13T09:46:52.000Z</time>
      </trkpt>
      <trkpt lat="52.32190875336528" lon="76.88751496374607">
        <ele>128.8</ele>
        <time>2026-07-13T09:47:08.000Z</time>
      </trkpt>
      <trkpt lat="52.32212400063872" lon="76.88848190009594">
        <ele>127.6</ele>
        <time>2026-07-13T09:47:24.000Z</time>
      </trkpt>
      <trkpt lat="52.322325920686126" lon="76.8893920071423">
        <ele>126.4</ele>
        <time>2026-07-13T09:47:41.000Z</time>
      </trkpt>
      <trkpt lat="52.322561871260405" lon="76.89047830179334">
        <ele>125.8</ele>
        <time>2026-07-13T09:47:57.000Z</time>
      </trkpt>
      <trkpt lat="52.32277259230614" lon="76.89129285514355">
        <ele>126</ele>
        <time>2026-07-13T09:48:13.000Z</time>
      </trkpt>
      <trkpt lat="52.322959089651704" lon="76.89196106046438">
        <ele>126.4</ele>
        <time>2026-07-13T09:48:29.000Z</time>
      </trkpt>
      <trkpt lat="52.323072496801615" lon="76.89255860634148">
        <ele>126.8</ele>
        <time>2026-07-13T09:48:45.000Z</time>
      </trkpt>
      <trkpt lat="52.323182970285416" lon="76.89296219497919">
        <ele>127</ele>
        <time>2026-07-13T09:48:55.000Z</time>
      </trkpt>
      <trkpt lat="52.32330375351012" lon="76.8932637758553">
        <ele>127.8</ele>
        <time>2026-07-13T09:49:53.000Z</time>
      </trkpt>
      <trkpt lat="52.32350709848106" lon="76.89384556375444">
        <ele>128.6</ele>
        <time>2026-07-13T09:50:09.000Z</time>
      </trkpt>
      <trkpt lat="52.32367171905935" lon="76.89433950930834">
        <ele>129.2</ele>
        <time>2026-07-13T09:50:22.000Z</time>
      </trkpt>
      <trkpt lat="52.3238624073565" lon="76.89484988339245">
        <ele>130</ele>
        <time>2026-07-13T09:50:37.000Z</time>
      </trkpt>
      <trkpt lat="52.32398989610374" lon="76.89507845789194">
        <ele>130.2</ele>
        <time>2026-07-13T09:50:49.000Z</time>
      </trkpt>
      <trkpt lat="52.32419265434146" lon="76.89549109898508">
        <ele>131</ele>
        <time>2026-07-13T09:51:05.000Z</time>
      </trkpt>
      <trkpt lat="52.32442952692509" lon="76.89607783220708">
        <ele>132</ele>
        <time>2026-07-13T09:51:21.000Z</time>
      </trkpt>
      <trkpt lat="52.32462398707867" lon="76.89655392430723">
        <ele>133</ele>
        <time>2026-07-13T09:51:37.000Z</time>
      </trkpt>
      <trkpt lat="52.32481190934777" lon="76.8970005121082">
        <ele>134</ele>
        <time>2026-07-13T09:51:53.000Z</time>
      </trkpt>
      <trkpt lat="52.32496085576713" lon="76.89737501554191">
        <ele>135</ele>
        <time>2026-07-13T09:52:07.000Z</time>
      </trkpt>
      <trkpt lat="52.325111981481314" lon="76.89778086729348">
        <ele>136</ele>
        <time>2026-07-13T09:52:24.000Z</time>
      </trkpt>
      <trkpt lat="52.325223460793495" lon="76.89807800576091">
        <ele>136.8</ele>
        <time>2026-07-13T09:52:35.000Z</time>
      </trkpt>
      <trkpt lat="52.32538640499115" lon="76.89851822331548">
        <ele>138.4</ele>
        <time>2026-07-13T09:52:51.000Z</time>
      </trkpt>
      <trkpt lat="52.325555216521025" lon="76.89896740950644">
        <ele>139.6</ele>
        <time>2026-07-13T09:53:07.000Z</time>
      </trkpt>
      <trkpt lat="52.32571137137711" lon="76.89952312968671">
        <ele>140.4</ele>
        <time>2026-07-13T09:53:23.000Z</time>
      </trkpt>
      <trkpt lat="52.32579359784722" lon="76.90021899528801">
        <ele>140.6</ele>
        <time>2026-07-13T09:53:39.000Z</time>
      </trkpt>
      <trkpt lat="52.32577842660248" lon="76.90113932825625">
        <ele>140.8</ele>
        <time>2026-07-13T09:53:55.000Z</time>
      </trkpt>
      <trkpt lat="52.32567675411701" lon="76.90209042280912">
        <ele>141.2</ele>
        <time>2026-07-13T09:54:11.000Z</time>
      </trkpt>
      <trkpt lat="52.3255202639848" lon="76.90307881683111">
        <ele>140.8</ele>
        <time>2026-07-13T09:54:27.000Z</time>
      </trkpt>
      <trkpt lat="52.32528967782855" lon="76.9039931986481">
        <ele>140.8</ele>
        <time>2026-07-13T09:54:44.000Z</time>
      </trkpt>
      <trkpt lat="52.324975775554776" lon="76.90476316027343">
        <ele>141</ele>
        <time>2026-07-13T09:55:00.000Z</time>
      </trkpt>
      <trkpt lat="52.32457906007767" lon="76.90540060400963">
        <ele>141.4</ele>
        <time>2026-07-13T09:55:16.000Z</time>
      </trkpt>
      <trkpt lat="52.32413892634213" lon="76.90595741383731">
        <ele>141.6</ele>
        <time>2026-07-13T09:55:32.000Z</time>
      </trkpt>
      <trkpt lat="52.32361019589007" lon="76.90661589615047">
        <ele>141.6</ele>
        <time>2026-07-13T09:55:48.000Z</time>
      </trkpt>
      <trkpt lat="52.323043663054705" lon="76.90730690024793">
        <ele>141.6</ele>
        <time>2026-07-13T09:56:04.000Z</time>
      </trkpt>
      <trkpt lat="52.32254887931049" lon="76.90791081637144">
        <ele>141.6</ele>
        <time>2026-07-13T09:56:20.000Z</time>
      </trkpt>
      <trkpt lat="52.32203506864607" lon="76.9085381180048">
        <ele>141.8</ele>
        <time>2026-07-13T09:56:36.000Z</time>
      </trkpt>
      <trkpt lat="52.32153902761638" lon="76.90916097722948">
        <ele>141.8</ele>
        <time>2026-07-13T09:56:52.000Z</time>
      </trkpt>
      <trkpt lat="52.32101859524846" lon="76.90979062579572">
        <ele>141.4</ele>
        <time>2026-07-13T09:57:09.000Z</time>
      </trkpt>
      <trkpt lat="52.32050830498338" lon="76.91041239537299">
        <ele>141.6</ele>
        <time>2026-07-13T09:57:25.000Z</time>
      </trkpt>
      <trkpt lat="52.319988794624805" lon="76.91105143167078">
        <ele>141.6</ele>
        <time>2026-07-13T09:57:41.000Z</time>
      </trkpt>
      <trkpt lat="52.319453693926334" lon="76.91169918514788">
        <ele>141.8</ele>
        <time>2026-07-13T09:57:57.000Z</time>
      </trkpt>
      <trkpt lat="52.31890736147761" lon="76.91237141378224">
        <ele>141.6</ele>
        <time>2026-07-13T09:58:13.000Z</time>
      </trkpt>
      <trkpt lat="52.31839648447931" lon="76.91299226135015">
        <ele>141.4</ele>
        <time>2026-07-13T09:58:29.000Z</time>
      </trkpt>
      <trkpt lat="52.317887702956796" lon="76.91361729986966">
        <ele>142.2</ele>
        <time>2026-07-13T09:58:45.000Z</time>
      </trkpt>
      <trkpt lat="52.31745922006667" lon="76.91414460539818">
        <ele>142.8</ele>
        <time>2026-07-13T09:59:01.000Z</time>
      </trkpt>
      <trkpt lat="52.31699729338288" lon="76.9147065281868">
        <ele>143.8</ele>
        <time>2026-07-13T09:59:17.000Z</time>
      </trkpt>
      <trkpt lat="52.31661616824567" lon="76.91516133025289">
        <ele>144.2</ele>
        <time>2026-07-13T09:59:34.000Z</time>
      </trkpt>
      <trkpt lat="52.316227834671736" lon="76.91563256084919">
        <ele>144.6</ele>
        <time>2026-07-13T09:59:50.000Z</time>
      </trkpt>
      <trkpt lat="52.31581527739763" lon="76.91613572649658">
        <ele>144.8</ele>
        <time>2026-07-13T10:00:06.000Z</time>
      </trkpt>
      <trkpt lat="52.315364331007004" lon="76.91670058295131">
        <ele>145.2</ele>
        <time>2026-07-13T10:00:22.000Z</time>
      </trkpt>
      <trkpt lat="52.31492159888148" lon="76.91722839139402">
        <ele>145.2</ele>
        <time>2026-07-13T10:00:38.000Z</time>
      </trkpt>
      <trkpt lat="52.314489260315895" lon="76.91773650236428">
        <ele>145.8</ele>
        <time>2026-07-13T10:00:53.000Z</time>
      </trkpt>
      <trkpt lat="52.31411618180573" lon="76.91821955144405">
        <ele>146</ele>
        <time>2026-07-13T10:01:04.000Z</time>
      </trkpt>
      <trkpt lat="52.31358367949724" lon="76.9188592582941">
        <ele>146.6</ele>
        <time>2026-07-13T10:01:20.000Z</time>
      </trkpt>
      <trkpt lat="52.31300591491163" lon="76.91956199705601">
        <ele>146.4</ele>
        <time>2026-07-13T10:01:36.000Z</time>
      </trkpt>
      <trkpt lat="52.31245581060648" lon="76.92024788819253">
        <ele>146.6</ele>
        <time>2026-07-13T10:01:53.000Z</time>
      </trkpt>
      <trkpt lat="52.31196572072804" lon="76.92085465416312">
        <ele>146.6</ele>
        <time>2026-07-13T10:02:08.000Z</time>
      </trkpt>
      <trkpt lat="52.31190805323422" lon="76.92063831724226">
        <ele>146</ele>
        <time>2026-07-13T10:02:16.000Z</time>
      </trkpt>
      <trkpt lat="52.3119333665818" lon="76.92057696171105">
        <ele>146</ele>
        <time>2026-07-13T10:07:51.000Z</time>
      </trkpt>
      <trkpt lat="52.31196563690901" lon="76.92083470523357">
        <ele>146.6</ele>
        <time>2026-07-13T10:08:00.000Z</time>
      </trkpt>
      <trkpt lat="52.31169641017914" lon="76.92117618396878">
        <ele>147</ele>
        <time>2026-07-13T10:08:14.000Z</time>
      </trkpt>
      <trkpt lat="52.311293575912714" lon="76.92169058136642">
        <ele>147.2</ele>
        <time>2026-07-13T10:08:30.000Z</time>
      </trkpt>
      <trkpt lat="52.310918401926756" lon="76.92210749723017">
        <ele>147.8</ele>
        <time>2026-07-13T10:08:46.000Z</time>
      </trkpt>
      <trkpt lat="52.31053995899856" lon="76.92260596901178">
        <ele>148</ele>
        <time>2026-07-13T10:09:03.000Z</time>
      </trkpt>
      <trkpt lat="52.31008607894182" lon="76.92316018044949">
        <ele>148.4</ele>
        <time>2026-07-13T10:09:19.000Z</time>
      </trkpt>
      <trkpt lat="52.30976639315486" lon="76.92354356870055">
        <ele>148.6</ele>
        <time>2026-07-13T10:09:35.000Z</time>
      </trkpt>
      <trkpt lat="52.30948149226606" lon="76.92391136661172">
        <ele>148.8</ele>
        <time>2026-07-13T10:09:48.000Z</time>
      </trkpt>
      <trkpt lat="52.308999029919505" lon="76.92443347536027">
        <ele>148.8</ele>
        <time>2026-07-13T10:10:04.000Z</time>
      </trkpt>
      <trkpt lat="52.30868018232286" lon="76.92479372955859">
        <ele>149</ele>
        <time>2026-07-13T10:10:23.000Z</time>
      </trkpt>
      <trkpt lat="52.30836845934391" lon="76.92519698292017">
        <ele>149</ele>
        <time>2026-07-13T10:10:39.000Z</time>
      </trkpt>
      <trkpt lat="52.30795766226947" lon="76.92570551298559">
        <ele>149.4</ele>
        <time>2026-07-13T10:10:55.000Z</time>
      </trkpt>
      <trkpt lat="52.307573184370995" lon="76.9262349139899">
        <ele>149.2</ele>
        <time>2026-07-13T10:11:11.000Z</time>
      </trkpt>
      <trkpt lat="52.30721469037235" lon="76.92676079459488">
        <ele>149.2</ele>
        <time>2026-07-13T10:11:28.000Z</time>
      </trkpt>
      <trkpt lat="52.306825267151" lon="76.92739656195045">
        <ele>149</ele>
        <time>2026-07-13T10:11:44.000Z</time>
      </trkpt>
      <trkpt lat="52.30646761134267" lon="76.92796166986227">
        <ele>149</ele>
        <time>2026-07-13T10:12:00.000Z</time>
      </trkpt>
      <trkpt lat="52.306118588894606" lon="76.92831555381417">
        <ele>149</ele>
        <time>2026-07-13T10:12:14.000Z</time>
      </trkpt>
      <trkpt lat="52.30573679320514" lon="76.92850498482585">
        <ele>148.4</ele>
        <time>2026-07-13T10:12:29.000Z</time>
      </trkpt>
      <trkpt lat="52.3052570130676" lon="76.92848403006792">
        <ele>147.2</ele>
        <time>2026-07-13T10:12:44.000Z</time>
      </trkpt>
      <trkpt lat="52.30475057847798" lon="76.92854882217944">
        <ele>146.8</ele>
        <time>2026-07-13T10:12:58.000Z</time>
      </trkpt>
      <trkpt lat="52.304246155545115" lon="76.92855007946491">
        <ele>145.8</ele>
        <time>2026-07-13T10:13:14.000Z</time>
      </trkpt>
      <trkpt lat="52.303772661834955" lon="76.92855192348361">
        <ele>146.2</ele>
        <time>2026-07-13T10:13:30.000Z</time>
      </trkpt>
      <trkpt lat="52.30328852310777" lon="76.92857019603252">
        <ele>146.4</ele>
        <time>2026-07-13T10:13:47.000Z</time>
      </trkpt>
      <trkpt lat="52.302801785990596" lon="76.92859358154237">
        <ele>146.6</ele>
        <time>2026-07-13T10:14:03.000Z</time>
      </trkpt>
      <trkpt lat="52.302409429103136" lon="76.92856851965189">
        <ele>146.4</ele>
        <time>2026-07-13T10:14:15.000Z</time>
      </trkpt>
      <trkpt lat="52.30229862034321" lon="76.92826760932803">
        <ele>145.4</ele>
        <time>2026-07-13T10:14:25.000Z</time>
      </trkpt>
      <trkpt lat="52.30204523541033" lon="76.9284364208579">
        <ele>145.4</ele>
        <time>2026-07-13T10:14:34.000Z</time>
      </trkpt>
      <trkpt lat="52.30164969339967" lon="76.92863079719245">
        <ele>144.8</ele>
        <time>2026-07-13T10:14:45.000Z</time>
      </trkpt>
      <trkpt lat="52.30154751800001" lon="76.9291483797133">
        <ele>144.2</ele>
        <time>2026-07-13T10:14:51.000Z</time>
      </trkpt>
      <trkpt lat="52.301555732265115" lon="76.929343175143">
        <ele>144.2</ele>
        <time>2026-07-13T10:14:53.000Z</time>
      </trkpt>
      <trkpt lat="52.301474679261446" lon="76.93034799769521">
        <ele>144.2</ele>
        <time>2026-07-13T10:15:05.000Z</time>
      </trkpt>
      <trkpt lat="52.30135716497898" lon="76.93057539872825">
        <ele>143.6</ele>
        <time>2026-07-13T10:15:11.000Z</time>
      </trkpt>
      <trkpt lat="52.30117158964276" lon="76.93156513385475">
        <ele>143</ele>
        <time>2026-07-13T10:15:27.000Z</time>
      </trkpt>
      <trkpt lat="52.30104133486748" lon="76.93249770440161">
        <ele>143</ele>
        <time>2026-07-13T10:15:43.000Z</time>
      </trkpt>
      <trkpt lat="52.30101551860571" lon="76.93330127745867">
        <ele>143</ele>
        <time>2026-07-13T10:15:57.000Z</time>
      </trkpt>
      <trkpt lat="52.30090353637934" lon="76.93407576531172">
        <ele>143.4</ele>
        <time>2026-07-13T10:16:14.000Z</time>
      </trkpt>
      <trkpt lat="52.3007948230952" lon="76.93482309579849">
        <ele>143.6</ele>
        <time>2026-07-13T10:16:30.000Z</time>
      </trkpt>
      <trkpt lat="52.30069633573294" lon="76.9355012755841">
        <ele>144</ele>
        <time>2026-07-13T10:16:46.000Z</time>
      </trkpt>
      <trkpt lat="52.30059935711324" lon="76.93617568351328">
        <ele>144</ele>
        <time>2026-07-13T10:17:00.000Z</time>
      </trkpt>
      <trkpt lat="52.30050497688353" lon="76.93683005869389">
        <ele>144</ele>
        <time>2026-07-13T10:17:13.000Z</time>
      </trkpt>
      <trkpt lat="52.30038997717202" lon="76.93758510053158">
        <ele>144</ele>
        <time>2026-07-13T10:17:29.000Z</time>
      </trkpt>
      <trkpt lat="52.30028000660241" lon="76.93828591145575">
        <ele>144.2</ele>
        <time>2026-07-13T10:17:45.000Z</time>
      </trkpt>
      <trkpt lat="52.30010876432061" lon="76.93878547288477">
        <ele>144.4</ele>
        <time>2026-07-13T10:17:57.000Z</time>
      </trkpt>
      <trkpt lat="52.299946155399084" lon="76.93960832431912">
        <ele>144.4</ele>
        <time>2026-07-13T10:18:13.000Z</time>
      </trkpt>
      <trkpt lat="52.29982512071729" lon="76.94028583355248">
        <ele>144.4</ele>
        <time>2026-07-13T10:18:30.000Z</time>
      </trkpt>
      <trkpt lat="52.29973878711462" lon="76.94086292758584">
        <ele>143.8</ele>
        <time>2026-07-13T10:18:43.000Z</time>
      </trkpt>
      <trkpt lat="52.29958053678274" lon="76.94163590669632">
        <ele>143.6</ele>
        <time>2026-07-13T10:18:59.000Z</time>
      </trkpt>
      <trkpt lat="52.299431171268225" lon="76.94240402430296">
        <ele>143.8</ele>
        <time>2026-07-13T10:19:15.000Z</time>
      </trkpt>
      <trkpt lat="52.29937576688826" lon="76.94298882968724">
        <ele>144</ele>
        <time>2026-07-13T10:19:29.000Z</time>
      </trkpt>
      <trkpt lat="52.29924509301782" lon="76.9436592143029">
        <ele>144.2</ele>
        <time>2026-07-13T10:19:45.000Z</time>
      </trkpt>
      <trkpt lat="52.29914031922817" lon="76.94451609626412">
        <ele>144.2</ele>
        <time>2026-07-13T10:20:01.000Z</time>
      </trkpt>
      <trkpt lat="52.29898718185723" lon="76.94535093382001">
        <ele>144</ele>
        <time>2026-07-13T10:20:17.000Z</time>
      </trkpt>
      <trkpt lat="52.298907805234194" lon="76.94591369479895">
        <ele>143.6</ele>
        <time>2026-07-13T10:20:33.000Z</time>
      </trkpt>
      <trkpt lat="52.298777382820845" lon="76.94647142663598">
        <ele>143.6</ele>
        <time>2026-07-13T10:20:48.000Z</time>
      </trkpt>
      <trkpt lat="52.298645954579115" lon="76.94726477377117">
        <ele>143.8</ele>
        <time>2026-07-13T10:21:04.000Z</time>
      </trkpt>
      <trkpt lat="52.29848837479949" lon="76.94811461493373">
        <ele>144.4</ele>
        <time>2026-07-13T10:21:20.000Z</time>
      </trkpt>
      <trkpt lat="52.29843758046627" lon="76.94841938093305">
        <ele>144.4</ele>
        <time>2026-07-13T10:21:32.000Z</time>
      </trkpt>
      <trkpt lat="52.298355270177126" lon="76.94876488298178">
        <ele>144.4</ele>
        <time>2026-07-13T10:21:42.000Z</time>
      </trkpt>
      <trkpt lat="52.29822979308665" lon="76.94925505667925">
        <ele>144.6</ele>
        <time>2026-07-13T10:21:54.000Z</time>
      </trkpt>
      <trkpt lat="52.29820171371102" lon="76.94958530366421">
        <ele>144.4</ele>
        <time>2026-07-13T10:22:08.000Z</time>
      </trkpt>
      <trkpt lat="52.29809517972171" lon="76.94995259866118">
        <ele>144.2</ele>
        <time>2026-07-13T10:22:16.000Z</time>
      </trkpt>
      <trkpt lat="52.29806517250836" lon="76.95036825723946">
        <ele>144.2</ele>
        <time>2026-07-13T10:22:25.000Z</time>
      </trkpt>
      <trkpt lat="52.29787331074476" lon="76.9507650565356">
        <ele>143.8</ele>
        <time>2026-07-13T10:22:35.000Z</time>
      </trkpt>
      <trkpt lat="52.297586062923074" lon="76.95083445869386">
        <ele>143.4</ele>
        <time>2026-07-13T10:22:51.000Z</time>
      </trkpt>
      <trkpt lat="52.29761925525963" lon="76.9509429205209">
        <ele>143.2</ele>
        <time>2026-07-13T10:23:05.000Z</time>
      </trkpt>
      <trkpt lat="52.29766946285963" lon="76.95101508870721">
        <ele>143.4</ele>
        <time>2026-07-13T10:23:14.000Z</time>
      </trkpt>
      <trkpt lat="52.29784439317882" lon="76.95131390355527">
        <ele>143.6</ele>
        <time>2026-07-13T10:23:26.000Z</time>
      </trkpt>
      <trkpt lat="52.297781612724066" lon="76.95182763040066">
        <ele>144</ele>
        <time>2026-07-13T10:23:36.000Z</time>
      </trkpt>
      <trkpt lat="52.29767491109669" lon="76.95232367143035">
        <ele>144</ele>
        <time>2026-07-13T10:23:46.000Z</time>
      </trkpt>
      <trkpt lat="52.297575837001204" lon="76.95292540825903">
        <ele>144.2</ele>
        <time>2026-07-13T10:24:02.000Z</time>
      </trkpt>
      <trkpt lat="52.29741582646966" lon="76.95371037349105">
        <ele>144</ele>
        <time>2026-07-13T10:24:18.000Z</time>
      </trkpt>
      <trkpt lat="52.297276770696044" lon="76.95443683303893">
        <ele>144.2</ele>
        <time>2026-07-13T10:24:34.000Z</time>
      </trkpt>
      <trkpt lat="52.297142995521426" lon="76.95515180937946">
        <ele>144</ele>
        <time>2026-07-13T10:24:49.000Z</time>
      </trkpt>
      <trkpt lat="52.29704006575048" lon="76.95517301559448">
        <ele>143.8</ele>
        <time>2026-07-13T10:24:56.000Z</time>
      </trkpt>
      <trkpt lat="52.296868823468685" lon="76.95509539917111">
        <ele>143.6</ele>
        <time>2026-07-13T10:25:50.000Z</time>
      </trkpt>
      <trkpt lat="52.29676539078355" lon="76.95521249435842">
        <ele>143.8</ele>
        <time>2026-07-13T10:25:55.000Z</time>
      </trkpt>
      <trkpt lat="52.29673161171377" lon="76.95562781766057">
        <ele>143.8</ele>
        <time>2026-07-13T10:26:07.000Z</time>
      </trkpt>
      <trkpt lat="52.29680889286101" lon="76.95640842430294">
        <ele>143.8</ele>
        <time>2026-07-13T10:26:30.000Z</time>
      </trkpt>
      <trkpt lat="52.29683781042695" lon="76.9571663159877">
        <ele>144</ele>
        <time>2026-07-13T10:26:46.000Z</time>
      </trkpt>
      <trkpt lat="52.29686136357486" lon="76.95804230868816">
        <ele>143.8</ele>
        <time>2026-07-13T10:27:02.000Z</time>
      </trkpt>
      <trkpt lat="52.296883994713426" lon="76.95872459560633">
        <ele>144</ele>
        <time>2026-07-13T10:27:18.000Z</time>
      </trkpt>
      <trkpt lat="52.296919198706746" lon="76.95952431298792">
        <ele>144</ele>
        <time>2026-07-13T10:27:34.000Z</time>
      </trkpt>
      <trkpt lat="52.29695959948003" lon="76.96024406701326">
        <ele>144</ele>
        <time>2026-07-13T10:27:50.000Z</time>
      </trkpt>
      <trkpt lat="52.29699111543596" lon="76.9608583766967">
        <ele>143.6</ele>
        <time>2026-07-13T10:28:07.000Z</time>
      </trkpt>
      <trkpt lat="52.297013998031616" lon="76.96142826229334">
        <ele>143.4</ele>
        <time>2026-07-13T10:28:18.000Z</time>
      </trkpt>
      <trkpt lat="52.297166883945465" lon="76.96159958839417">
        <ele>143.4</ele>
        <time>2026-07-13T10:28:23.000Z</time>
      </trkpt>
      <trkpt lat="52.29730895720422" lon="76.96143890731037">
        <ele>143.2</ele>
        <time>2026-07-13T10:28:36.000Z</time>
      </trkpt>
      <trkpt lat="52.29743309319019" lon="76.96116716600955">
        <ele>143.4</ele>
        <time>2026-07-13T10:28:44.000Z</time>
      </trkpt>
      <trkpt lat="52.29740132577717" lon="76.96057506836951">
        <ele>143.8</ele>
        <time>2026-07-13T10:29:00.000Z</time>
      </trkpt>
      <trkpt lat="52.297442397102714" lon="76.96025823242962">
        <ele>144</ele>
        <time>2026-07-13T10:29:11.000Z</time>
      </trkpt>
      <trkpt lat="52.29751649312675" lon="76.9601625110954">
        <ele>144</ele>
        <time>2026-07-13T10:29:21.000Z</time>
      </trkpt>
      <trkpt lat="52.297475254163146" lon="76.95929330773652">
        <ele>144</ele>
        <time>2026-07-13T10:29:51.000Z</time>
      </trkpt>
      <trkpt lat="52.29744407348335" lon="76.9586486555636">
        <ele>144.2</ele>
        <time>2026-07-13T10:30:07.000Z</time>
      </trkpt>
      <trkpt lat="52.29756041429937" lon="76.95858268998563">
        <ele>144.4</ele>
        <time>2026-07-13T10:30:25.000Z</time>
      </trkpt>
      <trkpt lat="52.29762780480087" lon="76.95841790176928">
        <ele>144.4</ele>
        <time>2026-07-13T10:30:34.000Z</time>
      </trkpt>
    </trkseg>
  </trk>
</gpx>