<?xml version="1.0" encoding="UTF-8"?>
<gpx creator="IGPSPORT" xmlns:xsi="http://www.w3.org/2001/XMLSchema-instance" schemaLocation="http://www.topografix.com/GPX/1/1 http://www.topografix.com/GPX/1/1/gpx.xsd" version="1.1" xmlns="http://www.topografix.com/GPX/1/1">
  <metadata>
    <time>2026-09-16T12:31:01.000Z</time>
    <link href="https://www.igpsport.cn/">
      <text>Велоспорт на свежем воздухе</text>
    </link>
  </metadata>
  <trk>
    <name>Велоспорт на свежем воздухе</name>
    <trkseg>
      <trkpt lat="44.55434242263436" lon="129.84791192226112">
        <ele>304.2</ele>
        <time>2026-09-16T12:31:01.000Z</time>
      </trkpt>
      <trkpt lat="44.554315097630024" lon="129.84801510348916">
        <ele>305.4</ele>
        <time>2026-09-16T12:31:57.000Z</time>
      </trkpt>
      <trkpt lat="44.55430378206074" lon="129.84808727167547">
        <ele>305.6</ele>
        <time>2026-09-16T12:31:59.000Z</time>
      </trkpt>
      <trkpt lat="44.55429581925273" lon="129.84817997552454">
        <ele>305.8</ele>
        <time>2026-09-16T12:32:01.000Z</time>
      </trkpt>
      <trkpt lat="44.55427377484739" lon="129.84846085309982">
        <ele>306</ele>
        <time>2026-09-16T12:32:06.000Z</time>
      </trkpt>
      <trkpt lat="44.55425659194589" lon="129.84868582338095">
        <ele>306.6</ele>
        <time>2026-09-16T12:32:09.000Z</time>
      </trkpt>
      <trkpt lat="44.55424636602402" lon="129.84888120554388">
        <ele>307.2</ele>
        <time>2026-09-16T12:32:11.000Z</time>
      </trkpt>
      <trkpt lat="44.55423085950315" lon="129.84921597875655">
        <ele>307.6</ele>
        <time>2026-09-16T12:32:14.000Z</time>
      </trkpt>
      <trkpt lat="44.55422407016158" lon="129.84946575947106">
        <ele>308.2</ele>
        <time>2026-09-16T12:32:16.000Z</time>
      </trkpt>
      <trkpt lat="44.554202696308494" lon="129.84989181160927">
        <ele>309.4</ele>
        <time>2026-09-16T12:32:19.000Z</time>
      </trkpt>
      <trkpt lat="44.55418970435858" lon="129.85018936917186">
        <ele>310.2</ele>
        <time>2026-09-16T12:32:21.000Z</time>
      </trkpt>
      <trkpt lat="44.554177802056074" lon="129.85050880350173">
        <ele>311.4</ele>
        <time>2026-09-16T12:32:23.000Z</time>
      </trkpt>
      <trkpt lat="44.55416791141033" lon="129.8508578259498">
        <ele>313</ele>
        <time>2026-09-16T12:32:25.000Z</time>
      </trkpt>
      <trkpt lat="44.55414888449013" lon="129.8514131270349">
        <ele>314.2</ele>
        <time>2026-09-16T12:32:28.000Z</time>
      </trkpt>
      <trkpt lat="44.55411066301167" lon="129.8521845974028">
        <ele>316.6</ele>
        <time>2026-09-16T12:32:32.000Z</time>
      </trkpt>
      <trkpt lat="44.55409448593855" lon="129.85259849578142">
        <ele>317.2</ele>
        <time>2026-09-16T12:32:34.000Z</time>
      </trkpt>
      <trkpt lat="44.554081158712506" lon="129.8530244641006">
        <ele>318</ele>
        <time>2026-09-16T12:32:36.000Z</time>
      </trkpt>
      <trkpt lat="44.554064981639385" lon="129.8534796014428">
        <ele>318.8</ele>
        <time>2026-09-16T12:32:38.000Z</time>
      </trkpt>
      <trkpt lat="44.55392399802804" lon="129.8557542823255">
        <ele>320</ele>
        <time>2026-09-16T12:32:49.000Z</time>
      </trkpt>
      <trkpt lat="44.553710678592324" lon="129.85835711471736">
        <ele>318.2</ele>
        <time>2026-09-16T12:33:01.000Z</time>
      </trkpt>
      <trkpt lat="44.55349937081337" lon="129.85933385789394">
        <ele>315</ele>
        <time>2026-09-16T12:33:07.000Z</time>
      </trkpt>
      <trkpt lat="44.553117072209716" lon="129.8598713055253">
        <ele>314.6</ele>
        <time>2026-09-16T12:33:13.000Z</time>
      </trkpt>
      <trkpt lat="44.55249572172761" lon="129.8610996734351">
        <ele>317.4</ele>
        <time>2026-09-16T12:33:24.000Z</time>
      </trkpt>
      <trkpt lat="44.55223512835801" lon="129.86176259815693">
        <ele>315.6</ele>
        <time>2026-09-16T12:33:40.000Z</time>
      </trkpt>
      <trkpt lat="44.55218450166285" lon="129.86198916099966">
        <ele>315.8</ele>
        <time>2026-09-16T12:33:52.000Z</time>
      </trkpt>
      <trkpt lat="44.552116356790066" lon="129.8619147296995">
        <ele>315.8</ele>
        <time>2026-09-16T12:34:20.000Z</time>
      </trkpt>
      <trkpt lat="44.55212666653097" lon="129.8618814535439">
        <ele>316.8</ele>
        <time>2026-09-16T12:36:09.000Z</time>
      </trkpt>
      <trkpt lat="44.55170086584985" lon="129.86316715367138">
        <ele>321.6</ele>
        <time>2026-09-16T12:36:26.000Z</time>
      </trkpt>
      <trkpt lat="44.55162542872131" lon="129.86341592855752">
        <ele>322.8</ele>
        <time>2026-09-16T12:36:28.000Z</time>
      </trkpt>
      <trkpt lat="44.551483523100615" lon="129.86447397619486">
        <ele>326.6</ele>
        <time>2026-09-16T12:36:35.000Z</time>
      </trkpt>
      <trkpt lat="44.551379000768065" lon="129.86562137492">
        <ele>330.6</ele>
        <time>2026-09-16T12:36:41.000Z</time>
      </trkpt>
      <trkpt lat="44.55100977793336" lon="129.86744284629822">
        <ele>333.8</ele>
        <time>2026-09-16T12:36:50.000Z</time>
      </trkpt>
      <trkpt lat="44.550490686669946" lon="129.86888227052987">
        <ele>334.6</ele>
        <time>2026-09-16T12:36:57.000Z</time>
      </trkpt>
      <trkpt lat="44.5494516659528" lon="129.8706002254039">
        <ele>338.8</ele>
        <time>2026-09-16T12:37:07.000Z</time>
      </trkpt>
      <trkpt lat="44.54841951839626" lon="129.8716692533344">
        <ele>338.6</ele>
        <time>2026-09-16T12:37:15.000Z</time>
      </trkpt>
      <trkpt lat="44.547846615314484" lon="129.87212497740984">
        <ele>338.6</ele>
        <time>2026-09-16T12:37:19.000Z</time>
      </trkpt>
      <trkpt lat="44.54722543247044" lon="129.87258271314204">
        <ele>339.2</ele>
        <time>2026-09-16T12:37:23.000Z</time>
      </trkpt>
      <trkpt lat="44.546234272420406" lon="129.87325619906187">
        <ele>340.6</ele>
        <time>2026-09-16T12:37:29.000Z</time>
      </trkpt>
      <trkpt lat="44.54588508233428" lon="129.87350589595735">
        <ele>341.4</ele>
        <time>2026-09-16T12:37:32.000Z</time>
      </trkpt>
      <trkpt lat="44.545525666326284" lon="129.87376892007887">
        <ele>342.4</ele>
        <time>2026-09-16T12:37:34.000Z</time>
      </trkpt>
      <trkpt lat="44.54516641795635" lon="129.8740570899099">
        <ele>344</ele>
        <time>2026-09-16T12:37:36.000Z</time>
      </trkpt>
      <trkpt lat="44.544358318671584" lon="129.8749199230224">
        <ele>346.2</ele>
        <time>2026-09-16T12:37:41.000Z</time>
      </trkpt>
      <trkpt lat="44.543742164969444" lon="129.8757677525282">
        <ele>347.6</ele>
        <time>2026-09-16T12:37:45.000Z</time>
      </trkpt>
      <trkpt lat="44.543074211105704" lon="129.8770971223712">
        <ele>350</ele>
        <time>2026-09-16T12:37:51.000Z</time>
      </trkpt>
      <trkpt lat="44.542434085160494" lon="129.87920986488461">
        <ele>355.2</ele>
        <time>2026-09-16T12:37:57.000Z</time>
      </trkpt>
      <trkpt lat="44.54214608296752" lon="129.88096419721842">
        <ele>359</ele>
        <time>2026-09-16T12:38:03.000Z</time>
      </trkpt>
      <trkpt lat="44.54194433055818" lon="129.8826077207923">
        <ele>363.6</ele>
        <time>2026-09-16T12:38:09.000Z</time>
      </trkpt>
      <trkpt lat="44.54168516211212" lon="129.8845866881311">
        <ele>368.2</ele>
        <time>2026-09-16T12:38:16.000Z</time>
      </trkpt>
      <trkpt lat="44.54140772111714" lon="129.8869417514652">
        <ele>372</ele>
        <time>2026-09-16T12:38:24.000Z</time>
      </trkpt>
      <trkpt lat="44.5412974152714" lon="129.88787566311657">
        <ele>373</ele>
        <time>2026-09-16T12:38:27.000Z</time>
      </trkpt>
      <trkpt lat="44.54103531315923" lon="129.88973426632583">
        <ele>375.6</ele>
        <time>2026-09-16T12:38:33.000Z</time>
      </trkpt>
      <trkpt lat="44.54031765460968" lon="129.89493842236698">
        <ele>378</ele>
        <time>2026-09-16T12:38:50.000Z</time>
      </trkpt>
      <trkpt lat="44.54019360244274" lon="129.89704529754817">
        <ele>380</ele>
        <time>2026-09-16T12:38:57.000Z</time>
      </trkpt>
      <trkpt lat="44.54031027853489" lon="129.89949700422585">
        <ele>380.4</ele>
        <time>2026-09-16T12:39:05.000Z</time>
      </trkpt>
      <trkpt lat="44.54058696515858" lon="129.90135309286416">
        <ele>383</ele>
        <time>2026-09-16T12:39:11.000Z</time>
      </trkpt>
      <trkpt lat="44.54129230231047" lon="129.90397989749908">
        <ele>383.8</ele>
        <time>2026-09-16T12:39:20.000Z</time>
      </trkpt>
      <trkpt lat="44.542240630835295" lon="129.90635264664888">
        <ele>387.2</ele>
        <time>2026-09-16T12:39:29.000Z</time>
      </trkpt>
      <trkpt lat="44.542699037119746" lon="129.90741262212396">
        <ele>390</ele>
        <time>2026-09-16T12:39:33.000Z</time>
      </trkpt>
      <trkpt lat="44.54329825937748" lon="129.9089524615556">
        <ele>394.4</ele>
        <time>2026-09-16T12:39:39.000Z</time>
      </trkpt>
      <trkpt lat="44.54377368092537" lon="129.91027722135186">
        <ele>398.6</ele>
        <time>2026-09-16T12:39:44.000Z</time>
      </trkpt>
      <trkpt lat="44.54438597895205" lon="129.91221972741187">
        <ele>403.8</ele>
        <time>2026-09-16T12:39:51.000Z</time>
      </trkpt>
      <trkpt lat="44.544814210385084" lon="129.91427899338305">
        <ele>407.8</ele>
        <time>2026-09-16T12:39:59.000Z</time>
      </trkpt>
      <trkpt lat="44.54506549984217" lon="129.91642442531884">
        <ele>411.6</ele>
        <time>2026-09-16T12:40:06.000Z</time>
      </trkpt>
      <trkpt lat="44.54530622810125" lon="129.91837824694812">
        <ele>415.8</ele>
        <time>2026-09-16T12:40:13.000Z</time>
      </trkpt>
      <trkpt lat="44.545459281653166" lon="129.91961591877043">
        <ele>421</ele>
        <time>2026-09-16T12:40:17.000Z</time>
      </trkpt>
      <trkpt lat="44.545719204470515" lon="129.92164928466082">
        <ele>425.6</ele>
        <time>2026-09-16T12:40:22.000Z</time>
      </trkpt>
      <trkpt lat="44.54601307399571" lon="129.92401465773582">
        <ele>430</ele>
        <time>2026-09-16T12:40:30.000Z</time>
      </trkpt>
      <trkpt lat="44.546270901337266" lon="129.9261590000242">
        <ele>434.2</ele>
        <time>2026-09-16T12:40:37.000Z</time>
      </trkpt>
      <trkpt lat="44.54635329544544" lon="129.92798516526818">
        <ele>435.6</ele>
        <time>2026-09-16T12:40:43.000Z</time>
      </trkpt>
      <trkpt lat="44.54618037678301" lon="129.92979439906776">
        <ele>438.4</ele>
        <time>2026-09-16T12:40:49.000Z</time>
      </trkpt>
      <trkpt lat="44.54569581896067" lon="129.9317975062877">
        <ele>442.4</ele>
        <time>2026-09-16T12:40:56.000Z</time>
      </trkpt>
      <trkpt lat="44.54512475989759" lon="129.93339970707893">
        <ele>446.6</ele>
        <time>2026-09-16T12:41:02.000Z</time>
      </trkpt>
      <trkpt lat="44.54445328563452" lon="129.93527297861874">
        <ele>450.6</ele>
        <time>2026-09-16T12:41:09.000Z</time>
      </trkpt>
      <trkpt lat="44.54407341778278" lon="129.93633890524507">
        <ele>455</ele>
        <time>2026-09-16T12:41:13.000Z</time>
      </trkpt>
      <trkpt lat="44.543249728158116" lon="129.93865876458585">
        <ele>459.4</ele>
        <time>2026-09-16T12:41:22.000Z</time>
      </trkpt>
      <trkpt lat="44.54238463193178" lon="129.9410406500101">
        <ele>462.6</ele>
        <time>2026-09-16T12:41:31.000Z</time>
      </trkpt>
      <trkpt lat="44.54186839051545" lon="129.94286279194057">
        <ele>462.6</ele>
        <time>2026-09-16T12:41:38.000Z</time>
      </trkpt>
      <trkpt lat="44.54163193702698" lon="129.9445910565555">
        <ele>464.2</ele>
        <time>2026-09-16T12:41:44.000Z</time>
      </trkpt>
      <trkpt lat="44.54156261868775" lon="129.94671209715307">
        <ele>469.4</ele>
        <time>2026-09-16T12:41:51.000Z</time>
      </trkpt>
      <trkpt lat="44.54158625565469" lon="129.94851579889655">
        <ele>473.4</ele>
        <time>2026-09-16T12:41:57.000Z</time>
      </trkpt>
      <trkpt lat="44.54158483073115" lon="129.94997039437294">
        <ele>477.8</ele>
        <time>2026-09-16T12:42:02.000Z</time>
      </trkpt>
      <trkpt lat="44.54154937528074" lon="129.95166689157486">
        <ele>482.8</ele>
        <time>2026-09-16T12:42:08.000Z</time>
      </trkpt>
      <trkpt lat="44.541358603164554" lon="129.95337755419314">
        <ele>486.8</ele>
        <time>2026-09-16T12:42:14.000Z</time>
      </trkpt>
      <trkpt lat="44.541089460253716" lon="129.95484019629657">
        <ele>490.8</ele>
        <time>2026-09-16T12:42:20.000Z</time>
      </trkpt>
      <trkpt lat="44.54063415527344" lon="129.95690264739096">
        <ele>494.4</ele>
        <time>2026-09-16T12:42:27.000Z</time>
      </trkpt>
      <trkpt lat="44.539759336039424" lon="129.9595651589334">
        <ele>499</ele>
        <time>2026-09-16T12:42:37.000Z</time>
      </trkpt>
      <trkpt lat="44.538851575925946" lon="129.9612200818956">
        <ele>504</ele>
        <time>2026-09-16T12:42:43.000Z</time>
      </trkpt>
      <trkpt lat="44.538082871586084" lon="129.9619656521827">
        <ele>508.4</ele>
        <time>2026-09-16T12:42:48.000Z</time>
      </trkpt>
      <trkpt lat="44.53710931353271" lon="129.96253109537065">
        <ele>512.8</ele>
        <time>2026-09-16T12:42:53.000Z</time>
      </trkpt>
      <trkpt lat="44.53630372881889" lon="129.96286888606846">
        <ele>516.8</ele>
        <time>2026-09-16T12:42:57.000Z</time>
      </trkpt>
      <trkpt lat="44.53498089686036" lon="129.96312176808715">
        <ele>521</ele>
        <time>2026-09-16T12:43:04.000Z</time>
      </trkpt>
      <trkpt lat="44.53394145704806" lon="129.9629876576364">
        <ele>523.4</ele>
        <time>2026-09-16T12:43:09.000Z</time>
      </trkpt>
      <trkpt lat="44.53242709860206" lon="129.96239111758769">
        <ele>528</ele>
        <time>2026-09-16T12:43:16.000Z</time>
      </trkpt>
      <trkpt lat="44.530895724892616" lon="129.961614953354">
        <ele>532</ele>
        <time>2026-09-16T12:43:23.000Z</time>
      </trkpt>
      <trkpt lat="44.53000422567129" lon="129.96119166724384">
        <ele>535</ele>
        <time>2026-09-16T12:43:27.000Z</time>
      </trkpt>
      <trkpt lat="44.528427086770535" lon="129.96048666536808">
        <ele>525</ele>
        <time>2026-09-16T12:43:34.000Z</time>
      </trkpt>
      <trkpt lat="44.527497282251716" lon="129.96004611253738">
        <ele>524.8</ele>
        <time>2026-09-16T12:43:38.000Z</time>
      </trkpt>
      <trkpt lat="44.52608325518668" lon="129.95932845398784">
        <ele>527.2</ele>
        <time>2026-09-16T12:43:44.000Z</time>
      </trkpt>
      <trkpt lat="44.52472496777773" lon="129.95878388173878">
        <ele>530.4</ele>
        <time>2026-09-16T12:43:50.000Z</time>
      </trkpt>
      <trkpt lat="44.524058774113655" lon="129.95872252620757">
        <ele>532</ele>
        <time>2026-09-16T12:43:53.000Z</time>
      </trkpt>
      <trkpt lat="44.52309510670602" lon="129.95891916565597">
        <ele>534.4</ele>
        <time>2026-09-16T12:43:57.000Z</time>
      </trkpt>
      <trkpt lat="44.52169323340058" lon="129.95953749865294">
        <ele>536.6</ele>
        <time>2026-09-16T12:44:03.000Z</time>
      </trkpt>
      <trkpt lat="44.52092142775655" lon="129.96013294905424">
        <ele>537.8</ele>
        <time>2026-09-16T12:44:07.000Z</time>
      </trkpt>
      <trkpt lat="44.520060271024704" lon="129.96115730144083">
        <ele>540.4</ele>
        <time>2026-09-16T12:44:12.000Z</time>
      </trkpt>
      <trkpt lat="44.51908537186682" lon="129.96309771202505">
        <ele>545.2</ele>
        <time>2026-09-16T12:44:19.000Z</time>
      </trkpt>
      <trkpt lat="44.51843828894198" lon="129.96490359306335">
        <ele>549.4</ele>
        <time>2026-09-16T12:44:25.000Z</time>
      </trkpt>
      <trkpt lat="44.517763294279575" lon="129.96681466698647">
        <ele>553.8</ele>
        <time>2026-09-16T12:44:31.000Z</time>
      </trkpt>
      <trkpt lat="44.51668169349432" lon="129.97001831419766">
        <ele>557.8</ele>
        <time>2026-09-16T12:44:43.000Z</time>
      </trkpt>
      <trkpt lat="44.516124967485666" lon="129.9717645160854">
        <ele>560.8</ele>
        <time>2026-09-16T12:44:50.000Z</time>
      </trkpt>
      <trkpt lat="44.515891782939434" lon="129.97334148734808">
        <ele>563.2</ele>
        <time>2026-09-16T12:44:55.000Z</time>
      </trkpt>
      <trkpt lat="44.515875773504376" lon="129.9755186866969">
        <ele>568.2</ele>
        <time>2026-09-16T12:45:02.000Z</time>
      </trkpt>
      <trkpt lat="44.51592053286731" lon="129.97742758132517">
        <ele>573</ele>
        <time>2026-09-16T12:45:07.000Z</time>
      </trkpt>
      <trkpt lat="44.515815591439605" lon="129.97858302667737">
        <ele>577.2</ele>
        <time>2026-09-16T12:45:11.000Z</time>
      </trkpt>
      <trkpt lat="44.515671003609896" lon="129.9797699879855">
        <ele>581.4</ele>
        <time>2026-09-16T12:45:15.000Z</time>
      </trkpt>
      <trkpt lat="44.5154498051852" lon="129.98091395013034">
        <ele>586.4</ele>
        <time>2026-09-16T12:45:19.000Z</time>
      </trkpt>
      <trkpt lat="44.5151580311358" lon="129.98198306187987">
        <ele>590.8</ele>
        <time>2026-09-16T12:45:23.000Z</time>
      </trkpt>
      <trkpt lat="44.51492853462696" lon="129.9826657678932">
        <ele>595.4</ele>
        <time>2026-09-16T12:45:28.000Z</time>
      </trkpt>
      <trkpt lat="44.513911893591285" lon="129.98454742133617">
        <ele>600.2</ele>
        <time>2026-09-16T12:45:34.000Z</time>
      </trkpt>
      <trkpt lat="44.51309256255627" lon="129.98588089831173">
        <ele>604.8</ele>
        <time>2026-09-16T12:45:40.000Z</time>
      </trkpt>
      <trkpt lat="44.51256643049419" lon="129.9868563003838">
        <ele>608.8</ele>
        <time>2026-09-16T12:45:44.000Z</time>
      </trkpt>
      <trkpt lat="44.51202328316867" lon="129.98779959976673">
        <ele>613</ele>
        <time>2026-09-16T12:45:48.000Z</time>
      </trkpt>
      <trkpt lat="44.51148415915668" lon="129.98879847116768">
        <ele>617.2</ele>
        <time>2026-09-16T12:45:52.000Z</time>
      </trkpt>
      <trkpt lat="44.510995326563716" lon="129.9897483922541">
        <ele>621.8</ele>
        <time>2026-09-16T12:45:56.000Z</time>
      </trkpt>
      <trkpt lat="44.51050967909396" lon="129.99067291617393">
        <ele>627</ele>
        <time>2026-09-16T12:46:00.000Z</time>
      </trkpt>
      <trkpt lat="44.51008513569832" lon="129.99170288443565">
        <ele>632</ele>
        <time>2026-09-16T12:46:04.000Z</time>
      </trkpt>
      <trkpt lat="44.509730665013194" lon="129.99276378192008">
        <ele>636.4</ele>
        <time>2026-09-16T12:46:08.000Z</time>
      </trkpt>
      <trkpt lat="44.50931718572974" lon="129.99436019919813">
        <ele>641.6</ele>
        <time>2026-09-16T12:46:14.000Z</time>
      </trkpt>
      <trkpt lat="44.50903119519353" lon="129.99645810574293">
        <ele>646.8</ele>
        <time>2026-09-16T12:46:21.000Z</time>
      </trkpt>
      <trkpt lat="44.50897411443293" lon="129.99812501482666">
        <ele>651.6</ele>
        <time>2026-09-16T12:46:26.000Z</time>
      </trkpt>
      <trkpt lat="44.50915331952274" lon="130.00015888363123">
        <ele>657</ele>
        <time>2026-09-16T12:46:32.000Z</time>
      </trkpt>
      <trkpt lat="44.50934501364827" lon="130.00143276527524">
        <ele>661.6</ele>
        <time>2026-09-16T12:46:36.000Z</time>
      </trkpt>
      <trkpt lat="44.5097148232162" lon="130.0029446091503">
        <ele>666</ele>
        <time>2026-09-16T12:46:41.000Z</time>
      </trkpt>
      <trkpt lat="44.51000835746527" lon="130.00410449691117">
        <ele>670.2</ele>
        <time>2026-09-16T12:46:47.000Z</time>
      </trkpt>
      <trkpt lat="44.51115081086755" lon="130.00863986089826">
        <ele>671.4</ele>
        <time>2026-09-16T12:46:59.000Z</time>
      </trkpt>
      <trkpt lat="44.511906020343304" lon="130.01185297966003">
        <ele>667.8</ele>
        <time>2026-09-16T12:47:10.000Z</time>
      </trkpt>
      <trkpt lat="44.51231447048485" lon="130.01450082287192">
        <ele>666</ele>
        <time>2026-09-16T12:47:18.000Z</time>
      </trkpt>
      <trkpt lat="44.51252686791122" lon="130.0166953727603">
        <ele>666</ele>
        <time>2026-09-16T12:47:27.000Z</time>
      </trkpt>
      <trkpt lat="44.51266558840871" lon="130.0218018796295">
        <ele>667.4</ele>
        <time>2026-09-16T12:47:39.000Z</time>
      </trkpt>
      <trkpt lat="44.512719232589006" lon="130.02700980752707">
        <ele>671.2</ele>
        <time>2026-09-16T12:47:55.000Z</time>
      </trkpt>
      <trkpt lat="44.512777822092175" lon="130.03224665299058">
        <ele>675.8</ele>
        <time>2026-09-16T12:48:12.000Z</time>
      </trkpt>
      <trkpt lat="44.512923918664455" lon="130.03521812148392">
        <ele>676</ele>
        <time>2026-09-16T12:48:22.000Z</time>
      </trkpt>
      <trkpt lat="44.513287860900164" lon="130.0376116577536">
        <ele>673.8</ele>
        <time>2026-09-16T12:48:30.000Z</time>
      </trkpt>
      <trkpt lat="44.51383729465306" lon="130.03965985961258">
        <ele>672.4</ele>
        <time>2026-09-16T12:48:37.000Z</time>
      </trkpt>
      <trkpt lat="44.51460046693683" lon="130.04160379059613">
        <ele>670.8</ele>
        <time>2026-09-16T12:48:44.000Z</time>
      </trkpt>
      <trkpt lat="44.5155275054276" lon="130.0433981884271">
        <ele>667.6</ele>
        <time>2026-09-16T12:48:51.000Z</time>
      </trkpt>
      <trkpt lat="44.516788395121694" lon="130.04512335173786">
        <ele>660.4</ele>
        <time>2026-09-16T12:48:59.000Z</time>
      </trkpt>
      <trkpt lat="44.519611755385995" lon="130.04834502004087">
        <ele>646.2</ele>
        <time>2026-09-16T12:49:15.000Z</time>
      </trkpt>
      <trkpt lat="44.52232715673745" lon="130.05140986293554">
        <ele>641.2</ele>
        <time>2026-09-16T12:49:32.000Z</time>
      </trkpt>
      <trkpt lat="44.52479328028858" lon="130.05422987043858">
        <ele>636.6</ele>
        <time>2026-09-16T12:49:48.000Z</time>
      </trkpt>
      <trkpt lat="44.52777028083801" lon="130.05764021538198">
        <ele>627.6</ele>
        <time>2026-09-16T12:50:04.000Z</time>
      </trkpt>
      <trkpt lat="44.53048291616142" lon="130.06071276962757">
        <ele>613</ele>
        <time>2026-09-16T12:50:20.000Z</time>
      </trkpt>
      <trkpt lat="44.533114079385996" lon="130.06377400830388">
        <ele>607</ele>
        <time>2026-09-16T12:50:36.000Z</time>
      </trkpt>
      <trkpt lat="44.53573191538453" lon="130.06680280901492">
        <ele>612.4</ele>
        <time>2026-09-16T12:50:52.000Z</time>
      </trkpt>
      <trkpt lat="44.53719430603087" lon="130.06857960484922">
        <ele>620.4</ele>
        <time>2026-09-16T12:51:02.000Z</time>
      </trkpt>
      <trkpt lat="44.53820030204952" lon="130.07041038013995">
        <ele>626.6</ele>
        <time>2026-09-16T12:51:11.000Z</time>
      </trkpt>
      <trkpt lat="44.539147205650806" lon="130.07289418950677">
        <ele>633</ele>
        <time>2026-09-16T12:51:22.000Z</time>
      </trkpt>
      <trkpt lat="44.54053751192987" lon="130.07662354968488">
        <ele>646.4</ele>
        <time>2026-09-16T12:51:38.000Z</time>
      </trkpt>
      <trkpt lat="44.54157552681863" lon="130.07952159270644">
        <ele>654.2</ele>
        <time>2026-09-16T12:51:51.000Z</time>
      </trkpt>
      <trkpt lat="44.541966458782554" lon="130.08115245960653">
        <ele>658</ele>
        <time>2026-09-16T12:51:57.000Z</time>
      </trkpt>
      <trkpt lat="44.54213392920792" lon="130.0828974880278">
        <ele>661.6</ele>
        <time>2026-09-16T12:52:03.000Z</time>
      </trkpt>
      <trkpt lat="44.54207919538021" lon="130.08468501269817">
        <ele>665.6</ele>
        <time>2026-09-16T12:52:09.000Z</time>
      </trkpt>
      <trkpt lat="44.54176688566804" lon="130.0865628104657">
        <ele>669.8</ele>
        <time>2026-09-16T12:52:16.000Z</time>
      </trkpt>
      <trkpt lat="44.54048470593989" lon="130.09137921966612">
        <ele>678.8</ele>
        <time>2026-09-16T12:52:31.000Z</time>
      </trkpt>
      <trkpt lat="44.53918341547251" lon="130.09626402519643">
        <ele>674.4</ele>
        <time>2026-09-16T12:52:47.000Z</time>
      </trkpt>
      <trkpt lat="44.53788128681481" lon="130.10110314935446">
        <ele>682</ele>
        <time>2026-09-16T12:53:03.000Z</time>
      </trkpt>
      <trkpt lat="44.53750602900982" lon="130.1024960540235">
        <ele>686.8</ele>
        <time>2026-09-16T12:53:08.000Z</time>
      </trkpt>
      <trkpt lat="44.53714636154473" lon="130.10384621098638">
        <ele>691.2</ele>
        <time>2026-09-16T12:53:13.000Z</time>
      </trkpt>
      <trkpt lat="44.5361858792603" lon="130.10742712765932">
        <ele>691.4</ele>
        <time>2026-09-16T12:53:26.000Z</time>
      </trkpt>
      <trkpt lat="44.53557450324297" lon="130.11002115905285">
        <ele>687.4</ele>
        <time>2026-09-16T12:53:35.000Z</time>
      </trkpt>
      <trkpt lat="44.53542740084231" lon="130.11184900067747">
        <ele>684.6</ele>
        <time>2026-09-16T12:53:41.000Z</time>
      </trkpt>
      <trkpt lat="44.535503927618265" lon="130.1136694662273">
        <ele>682</ele>
        <time>2026-09-16T12:53:47.000Z</time>
      </trkpt>
      <trkpt lat="44.53607113100588" lon="130.11688149534166">
        <ele>676.6</ele>
        <time>2026-09-16T12:53:58.000Z</time>
      </trkpt>
      <trkpt lat="44.536941004917026" lon="130.12164250016212">
        <ele>676.2</ele>
        <time>2026-09-16T12:54:15.000Z</time>
      </trkpt>
      <trkpt lat="44.53717477619648" lon="130.12370218522847">
        <ele>674.4</ele>
        <time>2026-09-16T12:54:22.000Z</time>
      </trkpt>
      <trkpt lat="44.537093974649906" lon="130.12516792863607">
        <ele>670.8</ele>
        <time>2026-09-16T12:54:27.000Z</time>
      </trkpt>
      <trkpt lat="44.53681326471269" lon="130.12656628154218">
        <ele>665.6</ele>
        <time>2026-09-16T12:54:32.000Z</time>
      </trkpt>
      <trkpt lat="44.536291072145104" lon="130.12795055285096">
        <ele>660.2</ele>
        <time>2026-09-16T12:54:37.000Z</time>
      </trkpt>
      <trkpt lat="44.534509582445025" lon="130.13186330907047">
        <ele>646.2</ele>
        <time>2026-09-16T12:54:52.000Z</time>
      </trkpt>
      <trkpt lat="44.53399543650448" lon="130.13336660340428">
        <ele>642</ele>
        <time>2026-09-16T12:54:58.000Z</time>
      </trkpt>
      <trkpt lat="44.53374020755291" lon="130.13503359630704">
        <ele>637.4</ele>
        <time>2026-09-16T12:55:04.000Z</time>
      </trkpt>
      <trkpt lat="44.53374993056059" lon="130.13740777038038">
        <ele>631.2</ele>
        <time>2026-09-16T12:55:12.000Z</time>
      </trkpt>
      <trkpt lat="44.53389468602836" lon="130.14236348681152">
        <ele>617.2</ele>
        <time>2026-09-16T12:55:28.000Z</time>
      </trkpt>
      <trkpt lat="44.53404606319964" lon="130.1447768881917">
        <ele>612.8</ele>
        <time>2026-09-16T12:55:36.000Z</time>
      </trkpt>
      <trkpt lat="44.534379076212645" lon="130.14618940651417">
        <ele>610.4</ele>
        <time>2026-09-16T12:55:41.000Z</time>
      </trkpt>
      <trkpt lat="44.53500931151211" lon="130.14772270806134">
        <ele>606.4</ele>
        <time>2026-09-16T12:55:47.000Z</time>
      </trkpt>
      <trkpt lat="44.53653062693775" lon="130.15018279664218">
        <ele>595.4</ele>
        <time>2026-09-16T12:55:58.000Z</time>
      </trkpt>
      <trkpt lat="44.53880522400141" lon="130.1536756195128">
        <ele>582.8</ele>
        <time>2026-09-16T12:56:14.000Z</time>
      </trkpt>
      <trkpt lat="44.540888629853725" lon="130.15695059671998">
        <ele>574.8</ele>
        <time>2026-09-16T12:56:29.000Z</time>
      </trkpt>
      <trkpt lat="44.54182539135218" lon="130.15891196206212">
        <ele>567.8</ele>
        <time>2026-09-16T12:56:38.000Z</time>
      </trkpt>
      <trkpt lat="44.542493764311075" lon="130.16087986528873">
        <ele>560.8</ele>
        <time>2026-09-16T12:56:45.000Z</time>
      </trkpt>
      <trkpt lat="44.542898274958134" lon="130.16264827921987">
        <ele>555.6</ele>
        <time>2026-09-16T12:56:51.000Z</time>
      </trkpt>
      <trkpt lat="44.54319415614009" lon="130.16494466923177">
        <ele>549</ele>
        <time>2026-09-16T12:56:59.000Z</time>
      </trkpt>
      <trkpt lat="44.54322206787765" lon="130.16833196394145">
        <ele>543.6</ele>
        <time>2026-09-16T12:57:08.000Z</time>
      </trkpt>
      <trkpt lat="44.543201783671975" lon="130.1721863821149">
        <ele>533.6</ele>
        <time>2026-09-16T12:57:21.000Z</time>
      </trkpt>
      <trkpt lat="44.54339540563524" lon="130.17390676774085">
        <ele>530.2</ele>
        <time>2026-09-16T12:57:27.000Z</time>
      </trkpt>
      <trkpt lat="44.54389773309231" lon="130.17554341815412">
        <ele>527.2</ele>
        <time>2026-09-16T12:57:33.000Z</time>
      </trkpt>
      <trkpt lat="44.5457561686635" lon="130.17968248575926">
        <ele>515.8</ele>
        <time>2026-09-16T12:57:49.000Z</time>
      </trkpt>
      <trkpt lat="44.54702259041369" lon="130.18258321098983">
        <ele>507.2</ele>
        <time>2026-09-16T12:58:00.000Z</time>
      </trkpt>
      <trkpt lat="44.547476721927524" lon="130.18431608565152">
        <ele>502.4</ele>
        <time>2026-09-16T12:58:06.000Z</time>
      </trkpt>
      <trkpt lat="44.547700602561235" lon="130.1861808076501">
        <ele>496.6</ele>
        <time>2026-09-16T12:58:12.000Z</time>
      </trkpt>
      <trkpt lat="44.548026993870735" lon="130.19129066728055">
        <ele>480.4</ele>
        <time>2026-09-16T12:58:28.000Z</time>
      </trkpt>
      <trkpt lat="44.548311894759536" lon="130.19511038437486">
        <ele>471.4</ele>
        <time>2026-09-16T12:58:40.000Z</time>
      </trkpt>
      <trkpt lat="44.54866058193147" lon="130.19725891761482">
        <ele>466</ele>
        <time>2026-09-16T12:58:47.000Z</time>
      </trkpt>
      <trkpt lat="44.549148324877024" lon="130.19900520332158">
        <ele>462</ele>
        <time>2026-09-16T12:58:53.000Z</time>
      </trkpt>
      <trkpt lat="44.55002658069134" lon="130.2011401578784">
        <ele>457.6</ele>
        <time>2026-09-16T12:59:02.000Z</time>
      </trkpt>
      <trkpt lat="44.55169986002147" lon="130.20420340821147">
        <ele>457.4</ele>
        <time>2026-09-16T12:59:15.000Z</time>
      </trkpt>
      <trkpt lat="44.55383305437863" lon="130.20812831819057">
        <ele>452</ele>
        <time>2026-09-16T12:59:30.000Z</time>
      </trkpt>
      <trkpt lat="44.55605501309037" lon="130.2121626958251">
        <ele>441.8</ele>
        <time>2026-09-16T12:59:46.000Z</time>
      </trkpt>
      <trkpt lat="44.55697735771537" lon="130.21365475840867">
        <ele>438.8</ele>
        <time>2026-09-16T12:59:52.000Z</time>
      </trkpt>
      <trkpt lat="44.55805032514036" lon="130.21492495201528">
        <ele>435.8</ele>
        <time>2026-09-16T12:59:58.000Z</time>
      </trkpt>
      <trkpt lat="44.55939461477101" lon="130.21603706292808">
        <ele>431</ele>
        <time>2026-09-16T13:00:05.000Z</time>
      </trkpt>
      <trkpt lat="44.56077050417662" lon="130.21684650331736">
        <ele>425.8</ele>
        <time>2026-09-16T13:00:12.000Z</time>
      </trkpt>
      <trkpt lat="44.56239248625934" lon="130.21730415523052">
        <ele>419.6</ele>
        <time>2026-09-16T13:00:20.000Z</time>
      </trkpt>
      <trkpt lat="44.5656150765717" lon="130.2180757932365">
        <ele>412</ele>
        <time>2026-09-16T13:00:36.000Z</time>
      </trkpt>
      <trkpt lat="44.567371336743236" lon="130.21872019395232">
        <ele>412</ele>
        <time>2026-09-16T13:00:45.000Z</time>
      </trkpt>
      <trkpt lat="44.56870749592781" lon="130.21961035206914">
        <ele>411.6</ele>
        <time>2026-09-16T13:00:52.000Z</time>
      </trkpt>
      <trkpt lat="44.56991205923259" lon="130.22077820263803">
        <ele>409</ele>
        <time>2026-09-16T13:00:59.000Z</time>
      </trkpt>
      <trkpt lat="44.570958372205496" lon="130.22213992662728">
        <ele>406.4</ele>
        <time>2026-09-16T13:01:06.000Z</time>
      </trkpt>
      <trkpt lat="44.57194802351296" lon="130.22398327477276">
        <ele>400.8</ele>
        <time>2026-09-16T13:01:14.000Z</time>
      </trkpt>
      <trkpt lat="44.57380939275026" lon="130.22794095799327">
        <ele>389.4</ele>
        <time>2026-09-16T13:01:30.000Z</time>
      </trkpt>
      <trkpt lat="44.57509727217257" lon="130.23018370382488">
        <ele>381.8</ele>
        <time>2026-09-16T13:01:39.000Z</time>
      </trkpt>
      <trkpt lat="44.57679050043225" lon="130.23271436803043">
        <ele>377.6</ele>
        <time>2026-09-16T13:01:50.000Z</time>
      </trkpt>
      <trkpt lat="44.577370611950755" lon="130.23378448560834">
        <ele>377</ele>
        <time>2026-09-16T13:01:54.000Z</time>
      </trkpt>
      <trkpt lat="44.57788283005357" lon="130.2352316211909">
        <ele>375.4</ele>
        <time>2026-09-16T13:02:00.000Z</time>
      </trkpt>
      <trkpt lat="44.57830058410764" lon="130.2371645718813">
        <ele>373.8</ele>
        <time>2026-09-16T13:02:07.000Z</time>
      </trkpt>
      <trkpt lat="44.578877007588744" lon="130.24084405973554">
        <ele>370</ele>
        <time>2026-09-16T13:02:20.000Z</time>
      </trkpt>
      <trkpt lat="44.579348154366016" lon="130.24276007898152">
        <ele>369.6</ele>
        <time>2026-09-16T13:02:27.000Z</time>
      </trkpt>
      <trkpt lat="44.579915860667825" lon="130.24426077492535">
        <ele>368.6</ele>
        <time>2026-09-16T13:02:33.000Z</time>
      </trkpt>
      <trkpt lat="44.580663023516536" lon="130.2456121891737">
        <ele>367.8</ele>
        <time>2026-09-16T13:02:39.000Z</time>
      </trkpt>
      <trkpt lat="44.58157371729612" lon="130.2468115556985">
        <ele>366.6</ele>
        <time>2026-09-16T13:02:45.000Z</time>
      </trkpt>
      <trkpt lat="44.582630256190896" lon="130.24780372157693">
        <ele>364.8</ele>
        <time>2026-09-16T13:02:51.000Z</time>
      </trkpt>
      <trkpt lat="44.58395518362522" lon="130.24887199513614">
        <ele>365.2</ele>
        <time>2026-09-16T13:02:58.000Z</time>
      </trkpt>
      <trkpt lat="44.58460419438779" lon="130.24969208054245">
        <ele>365</ele>
        <time>2026-09-16T13:03:02.000Z</time>
      </trkpt>
      <trkpt lat="44.5850873272866" lon="130.2506983280182">
        <ele>363.4</ele>
        <time>2026-09-16T13:03:06.000Z</time>
      </trkpt>
      <trkpt lat="44.585399720817804" lon="130.25181110948324">
        <ele>362.6</ele>
        <time>2026-09-16T13:03:10.000Z</time>
      </trkpt>
      <trkpt lat="44.58612165413797" lon="130.2562551945448">
        <ele>361.8</ele>
        <time>2026-09-16T13:03:25.000Z</time>
      </trkpt>
      <trkpt lat="44.58693193271756" lon="130.2609114255756">
        <ele>360</ele>
        <time>2026-09-16T13:03:42.000Z</time>
      </trkpt>
      <trkpt lat="44.58771706558764" lon="130.2653888706118">
        <ele>357</ele>
        <time>2026-09-16T13:03:58.000Z</time>
      </trkpt>
      <trkpt lat="44.58817672915757" lon="130.2673322148621">
        <ele>357.2</ele>
        <time>2026-09-16T13:04:05.000Z</time>
      </trkpt>
      <trkpt lat="44.58869473077357" lon="130.26849235408008">
        <ele>356.6</ele>
        <time>2026-09-16T13:04:10.000Z</time>
      </trkpt>
      <trkpt lat="44.58938280120492" lon="130.2695085760206">
        <ele>356</ele>
        <time>2026-09-16T13:04:14.000Z</time>
      </trkpt>
      <trkpt lat="44.590191235765815" lon="130.27038155123591">
        <ele>355.4</ele>
        <time>2026-09-16T13:04:18.000Z</time>
      </trkpt>
      <trkpt lat="44.59223105572164" lon="130.27173288166523">
        <ele>353</ele>
        <time>2026-09-16T13:04:29.000Z</time>
      </trkpt>
      <trkpt lat="44.595361361280084" lon="130.2738327998668">
        <ele>351.4</ele>
        <time>2026-09-16T13:04:45.000Z</time>
      </trkpt>
      <trkpt lat="44.59850122220814" lon="130.27593498118222">
        <ele>349</ele>
        <time>2026-09-16T13:05:01.000Z</time>
      </trkpt>
      <trkpt lat="44.60168198682368" lon="130.27806314639747">
        <ele>346.2</ele>
        <time>2026-09-16T13:05:17.000Z</time>
      </trkpt>
      <trkpt lat="44.60303951986134" lon="130.27912261895835">
        <ele>346</ele>
        <time>2026-09-16T13:05:24.000Z</time>
      </trkpt>
      <trkpt lat="44.60408600047231" lon="130.28029055334628">
        <ele>345.2</ele>
        <time>2026-09-16T13:05:30.000Z</time>
      </trkpt>
      <trkpt lat="44.604981606826186" lon="130.28162386268377">
        <ele>344.2</ele>
        <time>2026-09-16T13:05:36.000Z</time>
      </trkpt>
      <trkpt lat="44.605709658935666" lon="130.2831025980413">
        <ele>344.4</ele>
        <time>2026-09-16T13:05:42.000Z</time>
      </trkpt>
      <trkpt lat="44.6062811370939" lon="130.2847409248352">
        <ele>344.8</ele>
        <time>2026-09-16T13:05:48.000Z</time>
      </trkpt>
      <trkpt lat="44.60666771046817" lon="130.28648000210524">
        <ele>344.4</ele>
        <time>2026-09-16T13:05:54.000Z</time>
      </trkpt>
      <trkpt lat="44.60687759332359" lon="130.2885059081018">
        <ele>342.4</ele>
        <time>2026-09-16T13:06:01.000Z</time>
      </trkpt>
      <trkpt lat="44.606975661590695" lon="130.29253408312798">
        <ele>339.2</ele>
        <time>2026-09-16T13:06:16.000Z</time>
      </trkpt>
      <trkpt lat="44.60707758553326" lon="130.2968718856573">
        <ele>340.4</ele>
        <time>2026-09-16T13:06:32.000Z</time>
      </trkpt>
      <trkpt lat="44.60717297159135" lon="130.30112016946077">
        <ele>338.8</ele>
        <time>2026-09-16T13:06:46.000Z</time>
      </trkpt>
      <trkpt lat="44.60702955722809" lon="130.30411267653108">
        <ele>337</ele>
        <time>2026-09-16T13:06:56.000Z</time>
      </trkpt>
      <trkpt lat="44.60663736797869" lon="130.30726527795196">
        <ele>335.8</ele>
        <time>2026-09-16T13:07:07.000Z</time>
      </trkpt>
      <trkpt lat="44.605833208188415" lon="130.3114373702556">
        <ele>336.4</ele>
        <time>2026-09-16T13:07:21.000Z</time>
      </trkpt>
      <trkpt lat="44.605138935148716" lon="130.31511794775724">
        <ele>337</ele>
        <time>2026-09-16T13:07:33.000Z</time>
      </trkpt>
      <trkpt lat="44.60488395765424" lon="130.31755414791405">
        <ele>337.8</ele>
        <time>2026-09-16T13:07:41.000Z</time>
      </trkpt>
      <trkpt lat="44.60484506562352" lon="130.31992748379707">
        <ele>336</ele>
        <time>2026-09-16T13:07:49.000Z</time>
      </trkpt>
      <trkpt lat="44.60505318827927" lon="130.32258815132082">
        <ele>333.2</ele>
        <time>2026-09-16T13:07:58.000Z</time>
      </trkpt>
      <trkpt lat="44.60550857707858" lon="130.32516365870833">
        <ele>330.4</ele>
        <time>2026-09-16T13:08:07.000Z</time>
      </trkpt>
      <trkpt lat="44.606142500415444" lon="130.32742207869887">
        <ele>329.2</ele>
        <time>2026-09-16T13:08:15.000Z</time>
      </trkpt>
      <trkpt lat="44.606976583600044" lon="130.32955845817924">
        <ele>328.8</ele>
        <time>2026-09-16T13:08:23.000Z</time>
      </trkpt>
      <trkpt lat="44.6080978307873" lon="130.33174445852637">
        <ele>326.6</ele>
        <time>2026-09-16T13:08:33.000Z</time>
      </trkpt>
      <trkpt lat="44.6096280310303" lon="130.33397999592125">
        <ele>325.4</ele>
        <time>2026-09-16T13:08:44.000Z</time>
      </trkpt>
      <trkpt lat="44.61165972054005" lon="130.33670704811811">
        <ele>324.4</ele>
        <time>2026-09-16T13:08:59.000Z</time>
      </trkpt>
      <trkpt lat="44.61274861358106" lon="130.33858727663755">
        <ele>324.2</ele>
        <time>2026-09-16T13:09:05.000Z</time>
      </trkpt>
      <trkpt lat="44.61371839977801" lon="130.34118021838367">
        <ele>324.4</ele>
        <time>2026-09-16T13:09:15.000Z</time>
      </trkpt>
      <trkpt lat="44.614567402750254" lon="130.34335490316153">
        <ele>325.2</ele>
        <time>2026-09-16T13:09:23.000Z</time>
      </trkpt>
      <trkpt lat="44.615535009652376" lon="130.34503949806094">
        <ele>326</ele>
        <time>2026-09-16T13:09:30.000Z</time>
      </trkpt>
      <trkpt lat="44.61745982989669" lon="130.3473711758852">
        <ele>326</ele>
        <time>2026-09-16T13:09:41.000Z</time>
      </trkpt>
      <trkpt lat="44.61841721087694" lon="130.3486730530858">
        <ele>325.6</ele>
        <time>2026-09-16T13:09:47.000Z</time>
      </trkpt>
      <trkpt lat="44.61914031766355" lon="130.35019386559725">
        <ele>325.8</ele>
        <time>2026-09-16T13:09:53.000Z</time>
      </trkpt>
      <trkpt lat="44.61966200731695" lon="130.35191047936678">
        <ele>325.8</ele>
        <time>2026-09-16T13:09:59.000Z</time>
      </trkpt>
      <trkpt lat="44.62014438584447" lon="130.3546709753573">
        <ele>325.6</ele>
        <time>2026-09-16T13:10:08.000Z</time>
      </trkpt>
      <trkpt lat="44.62058510631323" lon="130.35643637180328">
        <ele>325.6</ele>
        <time>2026-09-16T13:10:14.000Z</time>
      </trkpt>
      <trkpt lat="44.62136881425977" lon="130.35837401635945">
        <ele>325.4</ele>
        <time>2026-09-16T13:10:21.000Z</time>
      </trkpt>
      <trkpt lat="44.62286758236587" lon="130.36165016703308">
        <ele>323.6</ele>
        <time>2026-09-16T13:10:33.000Z</time>
      </trkpt>
      <trkpt lat="44.62345247156918" lon="130.3633495979011">
        <ele>323.2</ele>
        <time>2026-09-16T13:10:39.000Z</time>
      </trkpt>
      <trkpt lat="44.624142134562135" lon="130.36664796061814">
        <ele>322.8</ele>
        <time>2026-09-16T13:10:51.000Z</time>
      </trkpt>
      <trkpt lat="44.625110663473606" lon="130.37124794907868">
        <ele>322.6</ele>
        <time>2026-09-16T13:11:06.000Z</time>
      </trkpt>
      <trkpt lat="44.62564039975405" lon="130.37299339659512">
        <ele>323</ele>
        <time>2026-09-16T13:11:12.000Z</time>
      </trkpt>
      <trkpt lat="44.626417234539986" lon="130.37470079027116">
        <ele>322.6</ele>
        <time>2026-09-16T13:11:19.000Z</time>
      </trkpt>
      <trkpt lat="44.627177054062486" lon="130.37596159614623">
        <ele>322.6</ele>
        <time>2026-09-16T13:11:25.000Z</time>
      </trkpt>
      <trkpt lat="44.628756288439035" lon="130.3778545651585">
        <ele>321.8</ele>
        <time>2026-09-16T13:11:32.000Z</time>
      </trkpt>
      <trkpt lat="44.63168727234006" lon="130.38083198480308">
        <ele>319.2</ele>
        <time>2026-09-16T13:11:48.000Z</time>
      </trkpt>
      <trkpt lat="44.634491857141256" lon="130.38373145274818">
        <ele>319.8</ele>
        <time>2026-09-16T13:12:04.000Z</time>
      </trkpt>
      <trkpt lat="44.63733776472509" lon="130.38668615743518">
        <ele>319.8</ele>
        <time>2026-09-16T13:12:20.000Z</time>
      </trkpt>
      <trkpt lat="44.63934036903083" lon="130.3888667933643">
        <ele>320.8</ele>
        <time>2026-09-16T13:12:32.000Z</time>
      </trkpt>
      <trkpt lat="44.640503861010075" lon="130.3905440121889">
        <ele>320.8</ele>
        <time>2026-09-16T13:12:40.000Z</time>
      </trkpt>
      <trkpt lat="44.64164706878364" lon="130.39272632449865">
        <ele>320.2</ele>
        <time>2026-09-16T13:12:49.000Z</time>
      </trkpt>
      <trkpt lat="44.64252272620797" lon="130.39508197456598">
        <ele>319</ele>
        <time>2026-09-16T13:12:58.000Z</time>
      </trkpt>
      <trkpt lat="44.643357479944825" lon="130.398472789675">
        <ele>316.2</ele>
        <time>2026-09-16T13:13:11.000Z</time>
      </trkpt>
      <trkpt lat="44.643991654738784" lon="130.4018916003406">
        <ele>313.6</ele>
        <time>2026-09-16T13:13:27.000Z</time>
      </trkpt>
      <trkpt lat="44.644030379131436" lon="130.4030338022858">
        <ele>314.4</ele>
        <time>2026-09-16T13:13:33.000Z</time>
      </trkpt>
      <trkpt lat="44.643989307805896" lon="130.4042910039425">
        <ele>316.4</ele>
        <time>2026-09-16T13:13:40.000Z</time>
      </trkpt>
      <trkpt lat="44.6441463008523" lon="130.40483339689672">
        <ele>317.8</ele>
        <time>2026-09-16T13:13:44.000Z</time>
      </trkpt>
      <trkpt lat="44.64467553421855" lon="130.4055323638022">
        <ele>319.6</ele>
        <time>2026-09-16T13:13:49.000Z</time>
      </trkpt>
      <trkpt lat="44.64635107666254" lon="130.40723028592765">
        <ele>319</ele>
        <time>2026-09-16T13:14:05.000Z</time>
      </trkpt>
      <trkpt lat="44.64794925414026" lon="130.4089194908738">
        <ele>313</ele>
        <time>2026-09-16T13:14:21.000Z</time>
      </trkpt>
      <trkpt lat="44.64857337065041" lon="130.40958928875625">
        <ele>310.4</ele>
        <time>2026-09-16T13:14:30.000Z</time>
      </trkpt>
      <trkpt lat="44.648999674245715" lon="130.40985491126776">
        <ele>309.8</ele>
        <time>2026-09-16T13:14:45.000Z</time>
      </trkpt>
      <trkpt lat="44.650248158723116" lon="130.4104446619749">
        <ele>311.6</ele>
        <time>2026-09-16T13:15:01.000Z</time>
      </trkpt>
      <trkpt lat="44.65241001918912" lon="130.4115488100797">
        <ele>313.6</ele>
        <time>2026-09-16T13:15:17.000Z</time>
      </trkpt>
      <trkpt lat="44.654240207746625" lon="130.4124486912042">
        <ele>313.2</ele>
        <time>2026-09-16T13:15:28.000Z</time>
      </trkpt>
      <trkpt lat="44.65574702247977" lon="130.4135087504983">
        <ele>312.8</ele>
        <time>2026-09-16T13:15:37.000Z</time>
      </trkpt>
      <trkpt lat="44.65857809409499" lon="130.41574562899768">
        <ele>312.2</ele>
        <time>2026-09-16T13:15:52.000Z</time>
      </trkpt>
      <trkpt lat="44.66172139160335" lon="130.4180954117328">
        <ele>315</ele>
        <time>2026-09-16T13:16:08.000Z</time>
      </trkpt>
      <trkpt lat="44.66507809236646" lon="130.42065088637173">
        <ele>313</ele>
        <time>2026-09-16T13:16:24.000Z</time>
      </trkpt>
      <trkpt lat="44.66826061718166" lon="130.42304266244173">
        <ele>312</ele>
        <time>2026-09-16T13:16:40.000Z</time>
      </trkpt>
      <trkpt lat="44.67150466516614" lon="130.4254882503301">
        <ele>311</ele>
        <time>2026-09-16T13:16:56.000Z</time>
      </trkpt>
      <trkpt lat="44.67455039732158" lon="130.4277534596622">
        <ele>308.6</ele>
        <time>2026-09-16T13:17:12.000Z</time>
      </trkpt>
      <trkpt lat="44.67535958625376" lon="130.42853356339037">
        <ele>308.4</ele>
        <time>2026-09-16T13:17:17.000Z</time>
      </trkpt>
      <trkpt lat="44.67594439163804" lon="130.42951005510986">
        <ele>308.2</ele>
        <time>2026-09-16T13:17:22.000Z</time>
      </trkpt>
      <trkpt lat="44.676314536482096" lon="130.43061152100563">
        <ele>309</ele>
        <time>2026-09-16T13:17:27.000Z</time>
      </trkpt>
      <trkpt lat="44.67650866135955" lon="130.431976178661">
        <ele>309.8</ele>
        <time>2026-09-16T13:17:33.000Z</time>
      </trkpt>
      <trkpt lat="44.67645660974085" lon="130.43448178097606">
        <ele>310.6</ele>
        <time>2026-09-16T13:17:45.000Z</time>
      </trkpt>
      <trkpt lat="44.67638377100229" lon="130.43798466213048">
        <ele>313.2</ele>
        <time>2026-09-16T13:18:02.000Z</time>
      </trkpt>
      <trkpt lat="44.676336497068405" lon="130.4421435110271">
        <ele>316.8</ele>
        <time>2026-09-16T13:18:18.000Z</time>
      </trkpt>
      <trkpt lat="44.676273968070745" lon="130.44633069075644">
        <ele>318.6</ele>
        <time>2026-09-16T13:18:34.000Z</time>
      </trkpt>
      <trkpt lat="44.67630498111248" lon="130.44925262220204">
        <ele>321</ele>
        <time>2026-09-16T13:18:47.000Z</time>
      </trkpt>
      <trkpt lat="44.676230465993285" lon="130.45167826116085">
        <ele>323.4</ele>
        <time>2026-09-16T13:19:03.000Z</time>
      </trkpt>
      <trkpt lat="44.676230465993285" lon="130.45187255367637">
        <ele>323.6</ele>
        <time>2026-09-16T13:19:13.000Z</time>
      </trkpt>
      <trkpt lat="44.676207918673754" lon="130.45324207283556">
        <ele>326.6</ele>
        <time>2026-09-16T13:19:44.000Z</time>
      </trkpt>
      <trkpt lat="44.67620666138828" lon="130.45544299297035">
        <ele>331</ele>
        <time>2026-09-16T13:20:00.000Z</time>
      </trkpt>
      <trkpt lat="44.67640263028443" lon="130.45813400298357">
        <ele>332.8</ele>
        <time>2026-09-16T13:20:16.000Z</time>
      </trkpt>
      <trkpt lat="44.67684058472514" lon="130.460622087121">
        <ele>332.6</ele>
        <time>2026-09-16T13:20:29.000Z</time>
      </trkpt>
      <trkpt lat="44.677736358717084" lon="130.46368449926376">
        <ele>327.4</ele>
        <time>2026-09-16T13:20:41.000Z</time>
      </trkpt>
      <trkpt lat="44.67900705523789" lon="130.46758141368628">
        <ele>327.6</ele>
        <time>2026-09-16T13:20:57.000Z</time>
      </trkpt>
      <trkpt lat="44.680302226915956" lon="130.4716686811298">
        <ele>336.4</ele>
        <time>2026-09-16T13:21:11.000Z</time>
      </trkpt>
      <trkpt lat="44.68091712333262" lon="130.47421200200915">
        <ele>338.6</ele>
        <time>2026-09-16T13:21:20.000Z</time>
      </trkpt>
      <trkpt lat="44.68124100007117" lon="130.47661115415394">
        <ele>339</ele>
        <time>2026-09-16T13:21:28.000Z</time>
      </trkpt>
      <trkpt lat="44.68134451657534" lon="130.47903067432344">
        <ele>342</ele>
        <time>2026-09-16T13:21:36.000Z</time>
      </trkpt>
      <trkpt lat="44.68132473528385" lon="130.48412427306175">
        <ele>353.2</ele>
        <time>2026-09-16T13:21:52.000Z</time>
      </trkpt>
      <trkpt lat="44.68132113106549" lon="130.4890345595777">
        <ele>369.6</ele>
        <time>2026-09-16T13:22:08.000Z</time>
      </trkpt>
      <trkpt lat="44.68118333257735" lon="130.492722094059">
        <ele>381.6</ele>
        <time>2026-09-16T13:22:21.000Z</time>
      </trkpt>
      <trkpt lat="44.68085400760174" lon="130.49710675142705">
        <ele>382.4</ele>
        <time>2026-09-16T13:22:37.000Z</time>
      </trkpt>
      <trkpt lat="44.6803966909647" lon="130.50183716230094">
        <ele>373</ele>
        <time>2026-09-16T13:22:54.000Z</time>
      </trkpt>
      <trkpt lat="44.679919173941016" lon="130.5068489536643">
        <ele>359.2</ele>
        <time>2026-09-16T13:23:10.000Z</time>
      </trkpt>
      <trkpt lat="44.67949261888862" lon="130.51137618720531">
        <ele>359</ele>
        <time>2026-09-16T13:23:26.000Z</time>
      </trkpt>
      <trkpt lat="44.679225319996476" lon="130.5138387903571">
        <ele>360.6</ele>
        <time>2026-09-16T13:23:42.000Z</time>
      </trkpt>
      <trkpt lat="44.67923537828028" lon="130.51374868489802">
        <ele>360.2</ele>
        <time>2026-09-16T13:25:10.000Z</time>
      </trkpt>
      <trkpt lat="44.679243760183454" lon="130.51360451616347">
        <ele>359.8</ele>
        <time>2026-09-16T13:25:42.000Z</time>
      </trkpt>
      <trkpt lat="44.679278461262584" lon="130.51371918059886">
        <ele>360</ele>
        <time>2026-09-16T13:25:58.000Z</time>
      </trkpt>
    </trkseg>
  </trk>
</gpx>