<?xml version="1.0" encoding="UTF-8"?>
<gpx creator="IGPSPORT" xmlns:xsi="http://www.w3.org/2001/XMLSchema-instance" schemaLocation="http://www.topografix.com/GPX/1/1 http://www.topografix.com/GPX/1/1/gpx.xsd" version="1.1" xmlns="http://www.topografix.com/GPX/1/1">
  <metadata>
    <time>2026-05-28T17:34:36.000Z</time>
    <link href="https://www.igpsport.cn/">
      <text>Велоспорт на свежем воздухе</text>
    </link>
  </metadata>
  <trk>
    <name>Велоспорт на свежем воздухе</name>
    <trkseg>
      <trkpt lat="57.293021315708756" lon="47.8653213288635">
        <ele>0</ele>
        <time>2026-05-28T17:34:36.000Z</time>
      </trkpt>
      <trkpt lat="57.2929500695318" lon="47.865304397419095">
        <ele>0</ele>
        <time>2026-05-28T17:34:46.000Z</time>
      </trkpt>
      <trkpt lat="57.2928945813328" lon="47.86529056727886">
        <ele>0</ele>
        <time>2026-05-28T17:34:50.000Z</time>
      </trkpt>
      <trkpt lat="57.292709928005934" lon="47.86525569856167">
        <ele>0</ele>
        <time>2026-05-28T17:35:07.000Z</time>
      </trkpt>
      <trkpt lat="57.292524771764874" lon="47.865303391590714">
        <ele>102.8</ele>
        <time>2026-05-28T17:35:28.000Z</time>
      </trkpt>
      <trkpt lat="57.29241999797523" lon="47.86522150039673">
        <ele>103</ele>
        <time>2026-05-28T17:35:37.000Z</time>
      </trkpt>
      <trkpt lat="57.292256969958544" lon="47.86503927782178">
        <ele>103</ele>
        <time>2026-05-28T17:35:53.000Z</time>
      </trkpt>
      <trkpt lat="57.292176419869065" lon="47.86497398279607">
        <ele>103.6</ele>
        <time>2026-05-28T17:36:02.000Z</time>
      </trkpt>
      <trkpt lat="57.29215580038726" lon="47.86496543325484">
        <ele>103.8</ele>
        <time>2026-05-28T17:36:04.000Z</time>
      </trkpt>
      <trkpt lat="57.29210936464369" lon="47.86494213156402">
        <ele>103.8</ele>
        <time>2026-05-28T17:36:08.000Z</time>
      </trkpt>
      <trkpt lat="57.29198841378093" lon="47.86493668332696">
        <ele>104</ele>
        <time>2026-05-28T17:36:19.000Z</time>
      </trkpt>
      <trkpt lat="57.29185019619763" lon="47.86502812989056">
        <ele>104</ele>
        <time>2026-05-28T17:36:33.000Z</time>
      </trkpt>
      <trkpt lat="57.291486505419016" lon="47.865167520940304">
        <ele>104</ele>
        <time>2026-05-28T17:42:15.000Z</time>
      </trkpt>
      <trkpt lat="57.291335966438055" lon="47.86525930278003">
        <ele>104</ele>
        <time>2026-05-28T17:42:31.000Z</time>
      </trkpt>
      <trkpt lat="57.29119439609349" lon="47.86540715955198">
        <ele>104.2</ele>
        <time>2026-05-28T17:42:47.000Z</time>
      </trkpt>
      <trkpt lat="57.29105609469116" lon="47.86558477208018">
        <ele>104</ele>
        <time>2026-05-28T17:43:03.000Z</time>
      </trkpt>
      <trkpt lat="57.290922570973635" lon="47.86573212593794">
        <ele>103.8</ele>
        <time>2026-05-28T17:43:19.000Z</time>
      </trkpt>
      <trkpt lat="57.29079273529351" lon="47.86585827358067">
        <ele>104</ele>
        <time>2026-05-28T17:43:35.000Z</time>
      </trkpt>
      <trkpt lat="57.290651919320226" lon="47.86598660051823">
        <ele>104</ele>
        <time>2026-05-28T17:43:51.000Z</time>
      </trkpt>
      <trkpt lat="57.29049769230187" lon="47.86613227799535">
        <ele>104</ele>
        <time>2026-05-28T17:44:08.000Z</time>
      </trkpt>
      <trkpt lat="57.29035025462508" lon="47.86622850224376">
        <ele>104</ele>
        <time>2026-05-28T17:44:24.000Z</time>
      </trkpt>
      <trkpt lat="57.29021228849888" lon="47.866277284920216">
        <ele>104</ele>
        <time>2026-05-28T17:44:38.000Z</time>
      </trkpt>
      <trkpt lat="57.29007759131491" lon="47.86633562296629">
        <ele>103.8</ele>
        <time>2026-05-28T17:44:51.000Z</time>
      </trkpt>
      <trkpt lat="57.289919927716255" lon="47.866478115320206">
        <ele>104</ele>
        <time>2026-05-28T17:45:07.000Z</time>
      </trkpt>
      <trkpt lat="57.289784559980035" lon="47.86660962738097">
        <ele>104.2</ele>
        <time>2026-05-28T17:45:23.000Z</time>
      </trkpt>
      <trkpt lat="57.289651622995734" lon="47.86676066927612">
        <ele>104.2</ele>
        <time>2026-05-28T17:45:39.000Z</time>
      </trkpt>
      <trkpt lat="57.28952438570559" lon="47.86687617190182">
        <ele>104.2</ele>
        <time>2026-05-28T17:45:55.000Z</time>
      </trkpt>
      <trkpt lat="57.289484068751335" lon="47.86723910830915">
        <ele>104.2</ele>
        <time>2026-05-28T17:46:38.000Z</time>
      </trkpt>
      <trkpt lat="57.28942288085818" lon="47.8675696067512">
        <ele>104.2</ele>
        <time>2026-05-28T17:46:54.000Z</time>
      </trkpt>
      <trkpt lat="57.289336966350675" lon="47.86785953678191">
        <ele>104.4</ele>
        <time>2026-05-28T17:47:10.000Z</time>
      </trkpt>
      <trkpt lat="57.289207465946674" lon="47.8681068867445">
        <ele>104.2</ele>
        <time>2026-05-28T17:47:26.000Z</time>
      </trkpt>
      <trkpt lat="57.28905759751797" lon="47.86817737855017">
        <ele>104.2</ele>
        <time>2026-05-28T17:47:42.000Z</time>
      </trkpt>
      <trkpt lat="57.28888970799744" lon="47.86817679181695">
        <ele>104</ele>
        <time>2026-05-28T17:47:58.000Z</time>
      </trkpt>
      <trkpt lat="57.2887883707881" lon="47.86811141297221">
        <ele>104.2</ele>
        <time>2026-05-28T17:48:10.000Z</time>
      </trkpt>
      <trkpt lat="57.28866540826857" lon="47.86801711656153">
        <ele>104</ele>
        <time>2026-05-28T17:48:24.000Z</time>
      </trkpt>
      <trkpt lat="57.28848813101649" lon="47.867890717461705">
        <ele>104</ele>
        <time>2026-05-28T17:48:48.000Z</time>
      </trkpt>
      <trkpt lat="57.288284534588456" lon="47.867930782958865">
        <ele>103.8</ele>
        <time>2026-05-28T17:49:06.000Z</time>
      </trkpt>
      <trkpt lat="57.288135504350066" lon="47.868120381608605">
        <ele>104</ele>
        <time>2026-05-28T17:49:22.000Z</time>
      </trkpt>
      <trkpt lat="57.28806777857244" lon="47.86840260028839">
        <ele>103.6</ele>
        <time>2026-05-28T17:49:38.000Z</time>
      </trkpt>
      <trkpt lat="57.2880732268095" lon="47.86870049312711">
        <ele>103.8</ele>
        <time>2026-05-28T17:49:54.000Z</time>
      </trkpt>
      <trkpt lat="57.28813768364489" lon="47.86905772984028">
        <ele>103.8</ele>
        <time>2026-05-28T17:50:17.000Z</time>
      </trkpt>
      <trkpt lat="57.28823876939714" lon="47.86931128241122">
        <ele>103.8</ele>
        <time>2026-05-28T17:50:33.000Z</time>
      </trkpt>
      <trkpt lat="57.288377322256565" lon="47.869506077840924">
        <ele>103.8</ele>
        <time>2026-05-28T17:50:49.000Z</time>
      </trkpt>
      <trkpt lat="57.288536578416824" lon="47.86966918967664">
        <ele>103.6</ele>
        <time>2026-05-28T17:51:05.000Z</time>
      </trkpt>
      <trkpt lat="57.28864956647158" lon="47.86972543224692">
        <ele>103.8</ele>
        <time>2026-05-28T17:51:17.000Z</time>
      </trkpt>
      <trkpt lat="57.28880982846022" lon="47.869803216308355">
        <ele>104</ele>
        <time>2026-05-28T17:51:33.000Z</time>
      </trkpt>
      <trkpt lat="57.28895458392799" lon="47.8698390070349">
        <ele>104</ele>
        <time>2026-05-28T17:51:49.000Z</time>
      </trkpt>
      <trkpt lat="57.28913119062781" lon="47.86983238533139">
        <ele>103.8</ele>
        <time>2026-05-28T17:52:07.000Z</time>
      </trkpt>
      <trkpt lat="57.289278879761696" lon="47.86978729069233">
        <ele>103.6</ele>
        <time>2026-05-28T17:52:19.000Z</time>
      </trkpt>
      <trkpt lat="57.289461102336645" lon="47.86978326737881">
        <ele>103.4</ele>
        <time>2026-05-28T17:52:36.000Z</time>
      </trkpt>
      <trkpt lat="57.28962781839073" lon="47.86989466287196">
        <ele>103.6</ele>
        <time>2026-05-28T17:52:52.000Z</time>
      </trkpt>
      <trkpt lat="57.28977835737169" lon="47.87007319740951">
        <ele>103.6</ele>
        <time>2026-05-28T17:53:08.000Z</time>
      </trkpt>
      <trkpt lat="57.28990836068988" lon="47.87032566033304">
        <ele>103.8</ele>
        <time>2026-05-28T17:53:24.000Z</time>
      </trkpt>
      <trkpt lat="57.29000969789922" lon="47.8706038556993">
        <ele>103.8</ele>
        <time>2026-05-28T17:53:41.000Z</time>
      </trkpt>
      <trkpt lat="57.290079686790705" lon="47.870927480980754">
        <ele>103.8</ele>
        <time>2026-05-28T17:53:57.000Z</time>
      </trkpt>
      <trkpt lat="57.290132492780685" lon="47.87123668938875">
        <ele>103.8</ele>
        <time>2026-05-28T17:54:13.000Z</time>
      </trkpt>
      <trkpt lat="57.29019535705447" lon="47.87154623307288">
        <ele>103.6</ele>
        <time>2026-05-28T17:54:29.000Z</time>
      </trkpt>
      <trkpt lat="57.29031060822308" lon="47.871841695159674">
        <ele>103.4</ele>
        <time>2026-05-28T17:54:45.000Z</time>
      </trkpt>
      <trkpt lat="57.290355283766985" lon="47.87216255441308">
        <ele>103.2</ele>
        <time>2026-05-28T17:55:01.000Z</time>
      </trkpt>
      <trkpt lat="57.29037028737366" lon="47.87245416082442">
        <ele>103.2</ele>
        <time>2026-05-28T17:55:17.000Z</time>
      </trkpt>
      <trkpt lat="57.2904044855386" lon="47.87278323434293">
        <ele>103.2</ele>
        <time>2026-05-28T17:55:33.000Z</time>
      </trkpt>
      <trkpt lat="57.29041756130755" lon="47.87306067533791">
        <ele>103.2</ele>
        <time>2026-05-28T17:55:49.000Z</time>
      </trkpt>
      <trkpt lat="57.29037372395396" lon="47.8732580691576">
        <ele>103.2</ele>
        <time>2026-05-28T17:56:04.000Z</time>
      </trkpt>
      <trkpt lat="57.290293257683516" lon="47.87327189929783">
        <ele>102.6</ele>
        <time>2026-05-28T17:56:16.000Z</time>
      </trkpt>
      <trkpt lat="57.29041219688952" lon="47.873448925092816">
        <ele>103</ele>
        <time>2026-05-28T17:56:52.000Z</time>
      </trkpt>
      <trkpt lat="57.29040381498635" lon="47.87374908104539">
        <ele>102.8</ele>
        <time>2026-05-28T17:57:08.000Z</time>
      </trkpt>
      <trkpt lat="57.29043290019035" lon="47.874076226726174">
        <ele>102.6</ele>
        <time>2026-05-28T17:57:24.000Z</time>
      </trkpt>
      <trkpt lat="57.29043583385646" lon="47.87453345954418">
        <ele>102.2</ele>
        <time>2026-05-28T17:57:45.000Z</time>
      </trkpt>
      <trkpt lat="57.29044295847416" lon="47.874833699315786">
        <ele>102.2</ele>
        <time>2026-05-28T17:58:00.000Z</time>
      </trkpt>
      <trkpt lat="57.29046240448952" lon="47.87519688718021">
        <ele>102.2</ele>
        <time>2026-05-28T17:58:22.000Z</time>
      </trkpt>
      <trkpt lat="57.29045863263309" lon="47.87548505701125">
        <ele>102</ele>
        <time>2026-05-28T17:58:37.000Z</time>
      </trkpt>
      <trkpt lat="57.29047883301973" lon="47.875881772488356">
        <ele>101.8</ele>
        <time>2026-05-28T17:58:56.000Z</time>
      </trkpt>
      <trkpt lat="57.29046366177499" lon="47.87633531726897">
        <ele>102.2</ele>
        <time>2026-05-28T17:59:19.000Z</time>
      </trkpt>
      <trkpt lat="57.2904856223613" lon="47.87657495588064">
        <ele>102.4</ele>
        <time>2026-05-28T17:59:29.000Z</time>
      </trkpt>
      <trkpt lat="57.29048889130354" lon="47.876751478761435">
        <ele>102.4</ele>
        <time>2026-05-28T17:59:41.000Z</time>
      </trkpt>
      <trkpt lat="57.2905115224421" lon="47.87705423310399">
        <ele>102.2</ele>
        <time>2026-05-28T17:59:57.000Z</time>
      </trkpt>
      <trkpt lat="57.29064001701772" lon="47.87706479430199">
        <ele>102.2</ele>
        <time>2026-05-28T18:00:10.000Z</time>
      </trkpt>
      <trkpt lat="57.290767757222056" lon="47.877203430980444">
        <ele>102.2</ele>
        <time>2026-05-28T18:00:32.000Z</time>
      </trkpt>
      <trkpt lat="57.29080941528082" lon="47.877312898635864">
        <ele>102.2</ele>
        <time>2026-05-28T18:00:42.000Z</time>
      </trkpt>
      <trkpt lat="57.29122079908848" lon="47.8782641608268">
        <ele>103</ele>
        <time>2026-05-28T18:02:38.000Z</time>
      </trkpt>
      <trkpt lat="57.291383827105165" lon="47.878410927951336">
        <ele>103.4</ele>
        <time>2026-05-28T18:02:55.000Z</time>
      </trkpt>
      <trkpt lat="57.29150268249214" lon="47.878589294850826">
        <ele>103.8</ele>
        <time>2026-05-28T18:03:16.000Z</time>
      </trkpt>
    </trkseg>
  </trk>
</gpx>