<?xml version="1.0" encoding="UTF-8"?>
<gpx creator="IGPSPORT" xmlns:xsi="http://www.w3.org/2001/XMLSchema-instance" schemaLocation="http://www.topografix.com/GPX/1/1 http://www.topografix.com/GPX/1/1/gpx.xsd" version="1.1" xmlns="http://www.topografix.com/GPX/1/1">
  <metadata>
    <time>2026-09-18T06:57:54.000Z</time>
    <link href="https://www.igpsport.cn/">
      <text>Велоспорт на свежем воздухе</text>
    </link>
  </metadata>
  <trk>
    <name>Велоспорт на свежем воздухе</name>
    <trkseg>
      <trkpt lat="44.40159455873072" lon="131.15928766317666">
        <ele>529</ele>
        <time>2026-09-18T08:57:54.000Z</time>
      </trkpt>
      <trkpt lat="44.40172238275409" lon="131.15927659906447">
        <ele>528.8</ele>
        <time>2026-09-18T08:59:05.000Z</time>
      </trkpt>
      <trkpt lat="44.40173143520951" lon="131.15935086272657">
        <ele>528.2</ele>
        <time>2026-09-18T08:59:36.000Z</time>
      </trkpt>
      <trkpt lat="44.401814080774784" lon="131.1593958735466">
        <ele>527.8</ele>
        <time>2026-09-18T08:59:39.000Z</time>
      </trkpt>
      <trkpt lat="44.40187836997211" lon="131.15944138728082">
        <ele>527.4</ele>
        <time>2026-09-18T08:59:41.000Z</time>
      </trkpt>
      <trkpt lat="44.40210711210966" lon="131.159621598199">
        <ele>526</ele>
        <time>2026-09-18T08:59:48.000Z</time>
      </trkpt>
      <trkpt lat="44.40231171436608" lon="131.15981270559132">
        <ele>524.2</ele>
        <time>2026-09-18T08:59:54.000Z</time>
      </trkpt>
      <trkpt lat="44.402657970786095" lon="131.16010037250817">
        <ele>520</ele>
        <time>2026-09-18T09:00:04.000Z</time>
      </trkpt>
      <trkpt lat="44.40279358997941" lon="131.16006122902036">
        <ele>518.6</ele>
        <time>2026-09-18T09:00:08.000Z</time>
      </trkpt>
      <trkpt lat="44.40279811620712" lon="131.15965629927814">
        <ele>517.4</ele>
        <time>2026-09-18T09:00:15.000Z</time>
      </trkpt>
      <trkpt lat="44.40278369933367" lon="131.15883839316666">
        <ele>514</ele>
        <time>2026-09-18T09:00:29.000Z</time>
      </trkpt>
      <trkpt lat="44.40299383364618" lon="131.15807170048356">
        <ele>510</ele>
        <time>2026-09-18T09:00:43.000Z</time>
      </trkpt>
      <trkpt lat="44.40327437594533" lon="131.1575807724148">
        <ele>506.8</ele>
        <time>2026-09-18T09:00:53.000Z</time>
      </trkpt>
      <trkpt lat="44.4035644736141" lon="131.1569406464696">
        <ele>502.8</ele>
        <time>2026-09-18T09:01:06.000Z</time>
      </trkpt>
      <trkpt lat="44.40357687883079" lon="131.156410491094">
        <ele>500.2</ele>
        <time>2026-09-18T09:01:14.000Z</time>
      </trkpt>
      <trkpt lat="44.40355005674064" lon="131.15608669817448">
        <ele>497.6</ele>
        <time>2026-09-18T09:01:20.000Z</time>
      </trkpt>
      <trkpt lat="44.4037455227226" lon="131.15595635958016">
        <ele>494.8</ele>
        <time>2026-09-18T09:01:26.000Z</time>
      </trkpt>
      <trkpt lat="44.40399253740907" lon="131.15601184777915">
        <ele>493.2</ele>
        <time>2026-09-18T09:01:31.000Z</time>
      </trkpt>
      <trkpt lat="44.40440853126347" lon="131.15607362240553">
        <ele>490.4</ele>
        <time>2026-09-18T09:01:39.000Z</time>
      </trkpt>
      <trkpt lat="44.404524536803365" lon="131.1560835968703">
        <ele>489.8</ele>
        <time>2026-09-18T09:01:41.000Z</time>
      </trkpt>
      <trkpt lat="44.405046897009015" lon="131.15616909228265">
        <ele>488.8</ele>
        <time>2026-09-18T09:01:50.000Z</time>
      </trkpt>
      <trkpt lat="44.40556422807276" lon="131.15617646835744">
        <ele>488.8</ele>
        <time>2026-09-18T09:02:01.000Z</time>
      </trkpt>
      <trkpt lat="44.40589631907642" lon="131.15611352026463">
        <ele>488.8</ele>
        <time>2026-09-18T09:02:12.000Z</time>
      </trkpt>
      <trkpt lat="44.405994890257716" lon="131.15579148754478">
        <ele>489</ele>
        <time>2026-09-18T09:02:23.000Z</time>
      </trkpt>
      <trkpt lat="44.406085666269064" lon="131.1549952905625">
        <ele>489.2</ele>
        <time>2026-09-18T09:02:39.000Z</time>
      </trkpt>
      <trkpt lat="44.406173676252365" lon="131.1542135104537">
        <ele>489.6</ele>
        <time>2026-09-18T09:02:55.000Z</time>
      </trkpt>
      <trkpt lat="44.406266966834664" lon="131.15340415388346">
        <ele>489.8</ele>
        <time>2026-09-18T09:03:11.000Z</time>
      </trkpt>
      <trkpt lat="44.4063619337976" lon="131.1525746807456">
        <ele>490</ele>
        <time>2026-09-18T09:03:27.000Z</time>
      </trkpt>
      <trkpt lat="44.40647341310978" lon="131.1516118515283">
        <ele>489.4</ele>
        <time>2026-09-18T09:03:43.000Z</time>
      </trkpt>
      <trkpt lat="44.40657642669976" lon="131.15065321326256">
        <ele>488.8</ele>
        <time>2026-09-18T09:03:59.000Z</time>
      </trkpt>
      <trkpt lat="44.40666351467371" lon="131.15001861937344">
        <ele>489.2</ele>
        <time>2026-09-18T09:04:11.000Z</time>
      </trkpt>
      <trkpt lat="44.40685990266502" lon="131.14979616366327">
        <ele>489.4</ele>
        <time>2026-09-18T09:04:18.000Z</time>
      </trkpt>
      <trkpt lat="44.406953528523445" lon="131.14917196333408">
        <ele>489.2</ele>
        <time>2026-09-18T09:04:29.000Z</time>
      </trkpt>
      <trkpt lat="44.40706416964531" lon="131.1482668016106">
        <ele>489.6</ele>
        <time>2026-09-18T09:04:47.000Z</time>
      </trkpt>
      <trkpt lat="44.40711563453078" lon="131.1477228999138">
        <ele>490.6</ele>
        <time>2026-09-18T09:05:01.000Z</time>
      </trkpt>
      <trkpt lat="44.40712912939489" lon="131.14762441255152">
        <ele>490.8</ele>
        <time>2026-09-18T09:05:04.000Z</time>
      </trkpt>
      <trkpt lat="44.40713650546968" lon="131.1475601233542">
        <ele>491</ele>
        <time>2026-09-18T09:05:06.000Z</time>
      </trkpt>
      <trkpt lat="44.40714153461158" lon="131.14749524742365">
        <ele>491.2</ele>
        <time>2026-09-18T09:05:08.000Z</time>
      </trkpt>
      <trkpt lat="44.40714782103896" lon="131.14743229933083">
        <ele>491.4</ele>
        <time>2026-09-18T09:05:10.000Z</time>
      </trkpt>
      <trkpt lat="44.40715502947569" lon="131.14734009839594">
        <ele>491.8</ele>
        <time>2026-09-18T09:05:13.000Z</time>
      </trkpt>
      <trkpt lat="44.4071666803211" lon="131.1472495738417">
        <ele>492.2</ele>
        <time>2026-09-18T09:05:16.000Z</time>
      </trkpt>
      <trkpt lat="44.40717380493879" lon="131.14719190634787">
        <ele>492.4</ele>
        <time>2026-09-18T09:05:18.000Z</time>
      </trkpt>
      <trkpt lat="44.40717916935682" lon="131.14713415503502">
        <ele>492.8</ele>
        <time>2026-09-18T09:05:20.000Z</time>
      </trkpt>
      <trkpt lat="44.40718721598387" lon="131.14704631268978">
        <ele>493</ele>
        <time>2026-09-18T09:05:23.000Z</time>
      </trkpt>
      <trkpt lat="44.40719358623028" lon="131.14699048921466">
        <ele>493.4</ele>
        <time>2026-09-18T09:05:25.000Z</time>
      </trkpt>
      <trkpt lat="44.40719962120056" lon="131.14693340845406">
        <ele>493.8</ele>
        <time>2026-09-18T09:05:27.000Z</time>
      </trkpt>
      <trkpt lat="44.40721420571208" lon="131.14678898826241">
        <ele>494.4</ele>
        <time>2026-09-18T09:05:32.000Z</time>
      </trkpt>
      <trkpt lat="44.40725276246667" lon="131.14634935744107">
        <ele>496.6</ele>
        <time>2026-09-18T09:05:48.000Z</time>
      </trkpt>
      <trkpt lat="44.40729718655348" lon="131.14594979211688">
        <ele>498.4</ele>
        <time>2026-09-18T09:06:04.000Z</time>
      </trkpt>
      <trkpt lat="44.40731747075915" lon="131.1457125004381">
        <ele>499.6</ele>
        <time>2026-09-18T09:06:14.000Z</time>
      </trkpt>
      <trkpt lat="44.40735996700823" lon="131.1453065648675">
        <ele>501.6</ele>
        <time>2026-09-18T09:06:30.000Z</time>
      </trkpt>
      <trkpt lat="44.40740070305765" lon="131.14491538144648">
        <ele>503.6</ele>
        <time>2026-09-18T09:06:47.000Z</time>
      </trkpt>
      <trkpt lat="44.407441187649965" lon="131.14452050998807">
        <ele>505.4</ele>
        <time>2026-09-18T09:07:03.000Z</time>
      </trkpt>
      <trkpt lat="44.4074896350503" lon="131.14412907510996">
        <ele>507</ele>
        <time>2026-09-18T09:07:19.000Z</time>
      </trkpt>
      <trkpt lat="44.4075187202543" lon="131.14381316117942">
        <ele>508</ele>
        <time>2026-09-18T09:07:34.000Z</time>
      </trkpt>
      <trkpt lat="44.40756247378886" lon="131.1433014459908">
        <ele>508.8</ele>
        <time>2026-09-18T09:07:50.000Z</time>
      </trkpt>
      <trkpt lat="44.407621901482344" lon="131.1426909081638">
        <ele>509.4</ele>
        <time>2026-09-18T09:08:06.000Z</time>
      </trkpt>
      <trkpt lat="44.40767009742558" lon="131.1420983914286">
        <ele>510.2</ele>
        <time>2026-09-18T09:08:22.000Z</time>
      </trkpt>
      <trkpt lat="44.40773882903159" lon="131.14151450805366">
        <ele>510.6</ele>
        <time>2026-09-18T09:08:38.000Z</time>
      </trkpt>
      <trkpt lat="44.40778199583292" lon="131.14089030772448">
        <ele>511.2</ele>
        <time>2026-09-18T09:08:54.000Z</time>
      </trkpt>
      <trkpt lat="44.407821306958795" lon="131.1402899120003">
        <ele>512</ele>
        <time>2026-09-18T09:09:11.000Z</time>
      </trkpt>
      <trkpt lat="44.40785139799118" lon="131.13968859426677">
        <ele>512.6</ele>
        <time>2026-09-18T09:09:27.000Z</time>
      </trkpt>
      <trkpt lat="44.40787352621555" lon="131.13907302729785">
        <ele>513.4</ele>
        <time>2026-09-18T09:09:43.000Z</time>
      </trkpt>
      <trkpt lat="44.40789741463959" lon="131.13863507285714">
        <ele>514</ele>
        <time>2026-09-18T09:09:56.000Z</time>
      </trkpt>
      <trkpt lat="44.407895067706704" lon="131.13797248341143">
        <ele>514.4</ele>
        <time>2026-09-18T09:10:12.000Z</time>
      </trkpt>
      <trkpt lat="44.40786489285529" lon="131.13711811602116">
        <ele>514.2</ele>
        <time>2026-09-18T09:10:28.000Z</time>
      </trkpt>
      <trkpt lat="44.40785181708634" lon="131.13623198121786">
        <ele>513.4</ele>
        <time>2026-09-18T09:10:44.000Z</time>
      </trkpt>
      <trkpt lat="44.40778492949903" lon="131.13504736684263">
        <ele>510.2</ele>
        <time>2026-09-18T09:11:00.000Z</time>
      </trkpt>
      <trkpt lat="44.407680071890354" lon="131.13379502668977">
        <ele>505.6</ele>
        <time>2026-09-18T09:11:16.000Z</time>
      </trkpt>
      <trkpt lat="44.407593570649624" lon="131.13297276198864">
        <ele>502.2</ele>
        <time>2026-09-18T09:11:26.000Z</time>
      </trkpt>
      <trkpt lat="44.40749038942158" lon="131.13218419253826">
        <ele>498.8</ele>
        <time>2026-09-18T09:11:36.000Z</time>
      </trkpt>
      <trkpt lat="44.40730179660022" lon="131.13100519403815">
        <ele>493.8</ele>
        <time>2026-09-18T09:11:50.000Z</time>
      </trkpt>
      <trkpt lat="44.40698445774615" lon="131.13048249855638">
        <ele>491.6</ele>
        <time>2026-09-18T09:11:59.000Z</time>
      </trkpt>
      <trkpt lat="44.40646561793983" lon="131.13031771034002">
        <ele>490.8</ele>
        <time>2026-09-18T09:12:11.000Z</time>
      </trkpt>
      <trkpt lat="44.40577327273786" lon="131.13033011555672">
        <ele>489.2</ele>
        <time>2026-09-18T09:12:27.000Z</time>
      </trkpt>
      <trkpt lat="44.40498269163072" lon="131.13033631816506">
        <ele>487.4</ele>
        <time>2026-09-18T09:12:43.000Z</time>
      </trkpt>
      <trkpt lat="44.40460248850286" lon="131.1301587894559">
        <ele>487.4</ele>
        <time>2026-09-18T09:12:59.000Z</time>
      </trkpt>
      <trkpt lat="44.40474271774292" lon="131.1300959251821">
        <ele>487.4</ele>
        <time>2026-09-18T09:13:44.000Z</time>
      </trkpt>
    </trkseg>
  </trk>
</gpx>