<?xml version="1.0" encoding="UTF-8"?>
<gpx creator="IGPSPORT" xmlns:xsi="http://www.w3.org/2001/XMLSchema-instance" schemaLocation="http://www.topografix.com/GPX/1/1 http://www.topografix.com/GPX/1/1/gpx.xsd" version="1.1" xmlns="http://www.topografix.com/GPX/1/1">
  <metadata>
    <time>2026-09-16T15:48:26.000Z</time>
    <link href="https://www.igpsport.cn/">
      <text>Велоспорт на свежем воздухе</text>
    </link>
  </metadata>
  <trk>
    <name>Велоспорт на свежем воздухе</name>
    <trkseg>
      <trkpt lat="44.40092601813376" lon="131.11077505163848">
        <ele>424.6</ele>
        <time>2026-09-16T15:48:26.000Z</time>
      </trkpt>
      <trkpt lat="44.4009152892977" lon="131.1108065675944">
        <ele>424.2</ele>
        <time>2026-09-16T15:53:05.000Z</time>
      </trkpt>
      <trkpt lat="44.40097865648568" lon="131.1109328828752">
        <ele>424</ele>
        <time>2026-09-16T15:53:44.000Z</time>
      </trkpt>
      <trkpt lat="44.401018135249615" lon="131.11099859699607">
        <ele>424</ele>
        <time>2026-09-16T15:53:48.000Z</time>
      </trkpt>
      <trkpt lat="44.401077814400196" lon="131.11118777655065">
        <ele>424</ele>
        <time>2026-09-16T15:53:57.000Z</time>
      </trkpt>
      <trkpt lat="44.401095416396856" lon="131.1113136727363">
        <ele>424</ele>
        <time>2026-09-16T15:54:04.000Z</time>
      </trkpt>
      <trkpt lat="44.40108041279018" lon="131.11137729138136">
        <ele>424.2</ele>
        <time>2026-09-16T15:54:06.000Z</time>
      </trkpt>
      <trkpt lat="44.40105945803225" lon="131.11145306378603">
        <ele>424</ele>
        <time>2026-09-16T15:54:08.000Z</time>
      </trkpt>
      <trkpt lat="44.401032803580165" lon="131.11154132522643">
        <ele>424</ele>
        <time>2026-09-16T15:54:10.000Z</time>
      </trkpt>
      <trkpt lat="44.40110815688968" lon="131.11174198798835">
        <ele>423.8</ele>
        <time>2026-09-16T15:54:15.000Z</time>
      </trkpt>
      <trkpt lat="44.401507303118706" lon="131.1121765896678">
        <ele>423.8</ele>
        <time>2026-09-16T15:54:31.000Z</time>
      </trkpt>
      <trkpt lat="44.40180838108063" lon="131.112528629601">
        <ele>424.2</ele>
        <time>2026-09-16T15:54:46.000Z</time>
      </trkpt>
      <trkpt lat="44.40184576436877" lon="131.1125751491636">
        <ele>424.4</ele>
        <time>2026-09-16T15:54:48.000Z</time>
      </trkpt>
      <trkpt lat="44.40190192312002" lon="131.11264639534056">
        <ele>424.6</ele>
        <time>2026-09-16T15:54:51.000Z</time>
      </trkpt>
      <trkpt lat="44.40197417512536" lon="131.11273549497128">
        <ele>424.8</ele>
        <time>2026-09-16T15:54:55.000Z</time>
      </trkpt>
      <trkpt lat="44.402010217309" lon="131.11277304589748">
        <ele>425</ele>
        <time>2026-09-16T15:54:57.000Z</time>
      </trkpt>
      <trkpt lat="44.40205916762352" lon="131.11282945610583">
        <ele>425.2</ele>
        <time>2026-09-16T15:55:00.000Z</time>
      </trkpt>
      <trkpt lat="44.402086324989796" lon="131.11286248080432">
        <ele>425.4</ele>
        <time>2026-09-16T15:55:02.000Z</time>
      </trkpt>
      <trkpt lat="44.40212957561016" lon="131.11290170811117">
        <ele>425.6</ele>
        <time>2026-09-16T15:55:05.000Z</time>
      </trkpt>
      <trkpt lat="44.40218959003687" lon="131.11297228373587">
        <ele>425.8</ele>
        <time>2026-09-16T15:55:09.000Z</time>
      </trkpt>
      <trkpt lat="44.40226837992668" lon="131.1130878701806">
        <ele>426.4</ele>
        <time>2026-09-16T15:55:15.000Z</time>
      </trkpt>
      <trkpt lat="44.40229126252234" lon="131.11312625929713">
        <ele>426.6</ele>
        <time>2026-09-16T15:55:17.000Z</time>
      </trkpt>
      <trkpt lat="44.40233090892434" lon="131.11317210830748">
        <ele>426.8</ele>
        <time>2026-09-16T15:55:20.000Z</time>
      </trkpt>
      <trkpt lat="44.40252788364887" lon="131.113421889022">
        <ele>428.2</ele>
        <time>2026-09-16T15:55:35.000Z</time>
      </trkpt>
      <trkpt lat="44.40272066742182" lon="131.113643925637">
        <ele>429.6</ele>
        <time>2026-09-16T15:55:51.000Z</time>
      </trkpt>
      <trkpt lat="44.40291780978441" lon="131.11387551762164">
        <ele>430.8</ele>
        <time>2026-09-16T15:56:07.000Z</time>
      </trkpt>
      <trkpt lat="44.40310665406287" lon="131.11411255784333">
        <ele>432</ele>
        <time>2026-09-16T15:56:24.000Z</time>
      </trkpt>
      <trkpt lat="44.40329155884683" lon="131.11436996608973">
        <ele>433.2</ele>
        <time>2026-09-16T15:56:40.000Z</time>
      </trkpt>
      <trkpt lat="44.40339901484549" lon="131.11457599326968">
        <ele>434</ele>
        <time>2026-09-16T15:56:51.000Z</time>
      </trkpt>
      <trkpt lat="44.40344436094165" lon="131.11465017311275">
        <ele>434.2</ele>
        <time>2026-09-16T15:56:55.000Z</time>
      </trkpt>
      <trkpt lat="44.40352851524949" lon="131.1147557850927">
        <ele>435</ele>
        <time>2026-09-16T15:57:04.000Z</time>
      </trkpt>
      <trkpt lat="44.403722221031785" lon="131.11490406095982">
        <ele>436.4</ele>
        <time>2026-09-16T15:57:16.000Z</time>
      </trkpt>
      <trkpt lat="44.40384208224714" lon="131.1150644067675">
        <ele>437.2</ele>
        <time>2026-09-16T15:57:26.000Z</time>
      </trkpt>
      <trkpt lat="44.40400938503444" lon="131.11532139591873">
        <ele>438.4</ele>
        <time>2026-09-16T15:57:42.000Z</time>
      </trkpt>
      <trkpt lat="44.40417828038335" lon="131.11561199650168">
        <ele>439.8</ele>
        <time>2026-09-16T15:57:58.000Z</time>
      </trkpt>
      <trkpt lat="44.404341308400035" lon="131.11591366119683">
        <ele>441.2</ele>
        <time>2026-09-16T15:58:14.000Z</time>
      </trkpt>
      <trkpt lat="44.404484974220395" lon="131.11622747965157">
        <ele>442.6</ele>
        <time>2026-09-16T15:58:30.000Z</time>
      </trkpt>
      <trkpt lat="44.40459896810353" lon="131.11652369610965">
        <ele>444</ele>
        <time>2026-09-16T15:58:47.000Z</time>
      </trkpt>
      <trkpt lat="44.40471723675728" lon="131.1168324854225">
        <ele>445</ele>
        <time>2026-09-16T15:59:03.000Z</time>
      </trkpt>
      <trkpt lat="44.404798205941916" lon="131.11709115095437">
        <ele>446.2</ele>
        <time>2026-09-16T15:59:16.000Z</time>
      </trkpt>
      <trkpt lat="44.40489283762872" lon="131.11740404739976">
        <ele>447.4</ele>
        <time>2026-09-16T15:59:32.000Z</time>
      </trkpt>
      <trkpt lat="44.40493147820234" lon="131.11753832548857">
        <ele>448.2</ele>
        <time>2026-09-16T15:59:39.000Z</time>
      </trkpt>
      <trkpt lat="44.40500917844474" lon="131.1178756132722">
        <ele>449.4</ele>
        <time>2026-09-16T15:59:55.000Z</time>
      </trkpt>
      <trkpt lat="44.405080592259765" lon="131.11821767874062">
        <ele>450.8</ele>
        <time>2026-09-16T16:00:11.000Z</time>
      </trkpt>
      <trkpt lat="44.40514689311385" lon="131.11859201453626">
        <ele>452</ele>
        <time>2026-09-16T16:00:28.000Z</time>
      </trkpt>
      <trkpt lat="44.40520246513188" lon="131.11894380301237">
        <ele>453.2</ele>
        <time>2026-09-16T16:00:44.000Z</time>
      </trkpt>
      <trkpt lat="44.40525979734957" lon="131.11929869279265">
        <ele>454.8</ele>
        <time>2026-09-16T16:01:00.000Z</time>
      </trkpt>
      <trkpt lat="44.405308831483126" lon="131.11967202275991">
        <ele>456</ele>
        <time>2026-09-16T16:01:16.000Z</time>
      </trkpt>
      <trkpt lat="44.405362559482455" lon="131.12001148983836">
        <ele>457.4</ele>
        <time>2026-09-16T16:01:32.000Z</time>
      </trkpt>
      <trkpt lat="44.40542986616492" lon="131.1203633621335">
        <ele>458.6</ele>
        <time>2026-09-16T16:01:48.000Z</time>
      </trkpt>
      <trkpt lat="44.40548351034522" lon="131.12072420306504">
        <ele>459.8</ele>
        <time>2026-09-16T16:02:04.000Z</time>
      </trkpt>
      <trkpt lat="44.405539920553565" lon="131.1210795957595">
        <ele>461.4</ele>
        <time>2026-09-16T16:02:21.000Z</time>
      </trkpt>
      <trkpt lat="44.40559440292418" lon="131.12142241559923">
        <ele>462.6</ele>
        <time>2026-09-16T16:02:37.000Z</time>
      </trkpt>
      <trkpt lat="44.40564955584705" lon="131.12176951020956">
        <ele>463.8</ele>
        <time>2026-09-16T16:02:53.000Z</time>
      </trkpt>
      <trkpt lat="44.40570663660765" lon="131.12212498672307">
        <ele>464.8</ele>
        <time>2026-09-16T16:03:09.000Z</time>
      </trkpt>
      <trkpt lat="44.405771512538195" lon="131.12250518985093">
        <ele>465.8</ele>
        <time>2026-09-16T16:03:25.000Z</time>
      </trkpt>
      <trkpt lat="44.40583638846874" lon="131.1229570582509">
        <ele>466.4</ele>
        <time>2026-09-16T16:03:41.000Z</time>
      </trkpt>
      <trkpt lat="44.40591459162533" lon="131.12338847480714">
        <ele>466.4</ele>
        <time>2026-09-16T16:03:57.000Z</time>
      </trkpt>
      <trkpt lat="44.405997823923826" lon="131.12387336790562">
        <ele>466.2</ele>
        <time>2026-09-16T16:04:13.000Z</time>
      </trkpt>
      <trkpt lat="44.40606722608209" lon="131.1243969015777">
        <ele>465.8</ele>
        <time>2026-09-16T16:04:30.000Z</time>
      </trkpt>
      <trkpt lat="44.40612958744168" lon="131.12478129565716">
        <ele>465</ele>
        <time>2026-09-16T16:05:04.000Z</time>
      </trkpt>
      <trkpt lat="44.40622036345303" lon="131.12537037581205">
        <ele>463.4</ele>
        <time>2026-09-16T16:05:17.000Z</time>
      </trkpt>
      <trkpt lat="44.40624861046672" lon="131.1255308892578">
        <ele>463</ele>
        <time>2026-09-16T16:05:20.000Z</time>
      </trkpt>
      <trkpt lat="44.40637333318591" lon="131.12632029689848">
        <ele>461.2</ele>
        <time>2026-09-16T16:05:36.000Z</time>
      </trkpt>
      <trkpt lat="44.406486824154854" lon="131.12704214639962">
        <ele>459.8</ele>
        <time>2026-09-16T16:05:52.000Z</time>
      </trkpt>
      <trkpt lat="44.40658740699291" lon="131.12770062871277">
        <ele>458.8</ele>
        <time>2026-09-16T16:06:08.000Z</time>
      </trkpt>
      <trkpt lat="44.40665228292346" lon="131.12808510661125">
        <ele>457.8</ele>
        <time>2026-09-16T16:06:29.000Z</time>
      </trkpt>
      <trkpt lat="44.406779604032636" lon="131.12876672297716">
        <ele>456.8</ele>
        <time>2026-09-16T16:06:45.000Z</time>
      </trkpt>
      <trkpt lat="44.40686032176018" lon="131.1293427273631">
        <ele>455.6</ele>
        <time>2026-09-16T16:06:59.000Z</time>
      </trkpt>
      <trkpt lat="44.40696643665433" lon="131.13001327961683">
        <ele>455.4</ele>
        <time>2026-09-16T16:07:14.000Z</time>
      </trkpt>
      <trkpt lat="44.406866105273366" lon="131.13018276169896">
        <ele>455.8</ele>
        <time>2026-09-16T16:07:27.000Z</time>
      </trkpt>
      <trkpt lat="44.407026786357164" lon="131.1305103264749">
        <ele>455.8</ele>
        <time>2026-09-16T16:12:50.000Z</time>
      </trkpt>
      <trkpt lat="44.4070940092206" lon="131.13081039860845">
        <ele>456.8</ele>
        <time>2026-09-16T16:13:02.000Z</time>
      </trkpt>
      <trkpt lat="44.40715419128537" lon="131.13123586401343">
        <ele>458.2</ele>
        <time>2026-09-16T16:13:18.000Z</time>
      </trkpt>
      <trkpt lat="44.407210601493716" lon="131.1316123791039">
        <ele>459.8</ele>
        <time>2026-09-16T16:13:34.000Z</time>
      </trkpt>
      <trkpt lat="44.407265754416585" lon="131.13198386505246">
        <ele>461.4</ele>
        <time>2026-09-16T16:13:50.000Z</time>
      </trkpt>
      <trkpt lat="44.407304814085364" lon="131.13237831741571">
        <ele>462.6</ele>
        <time>2026-09-16T16:14:44.000Z</time>
      </trkpt>
      <trkpt lat="44.40736466087401" lon="131.13281501457095">
        <ele>464.4</ele>
        <time>2026-09-16T16:15:00.000Z</time>
      </trkpt>
      <trkpt lat="44.40741126425564" lon="131.13322497345507">
        <ele>465.4</ele>
        <time>2026-09-16T16:15:16.000Z</time>
      </trkpt>
      <trkpt lat="44.407441690564156" lon="131.1334941163659">
        <ele>467</ele>
        <time>2026-09-16T16:15:26.000Z</time>
      </trkpt>
      <trkpt lat="44.407484186813235" lon="131.13389426842332">
        <ele>468.6</ele>
        <time>2026-09-16T16:15:42.000Z</time>
      </trkpt>
      <trkpt lat="44.40751628950238" lon="131.13430079072714">
        <ele>470</ele>
        <time>2026-09-16T16:15:58.000Z</time>
      </trkpt>
      <trkpt lat="44.40755090676248" lon="131.1346984282136">
        <ele>471.8</ele>
        <time>2026-09-16T16:16:14.000Z</time>
      </trkpt>
      <trkpt lat="44.407581416890025" lon="131.13508307375014">
        <ele>473.2</ele>
        <time>2026-09-16T16:16:31.000Z</time>
      </trkpt>
      <trkpt lat="44.40760555677116" lon="131.1354884225875">
        <ele>474.6</ele>
        <time>2026-09-16T16:16:47.000Z</time>
      </trkpt>
      <trkpt lat="44.407630786299706" lon="131.1358956154436">
        <ele>476</ele>
        <time>2026-09-16T16:17:03.000Z</time>
      </trkpt>
      <trkpt lat="44.40764679573476" lon="131.13633105531335">
        <ele>477.2</ele>
        <time>2026-09-16T16:17:19.000Z</time>
      </trkpt>
      <trkpt lat="44.407650819048285" lon="131.13678275607526">
        <ele>477.8</ele>
        <time>2026-09-16T16:17:35.000Z</time>
      </trkpt>
      <trkpt lat="44.4076585303992" lon="131.1372923757881">
        <ele>478.4</ele>
        <time>2026-09-16T16:17:51.000Z</time>
      </trkpt>
      <trkpt lat="44.40766959451139" lon="131.1378563940525">
        <ele>478.4</ele>
        <time>2026-09-16T16:18:07.000Z</time>
      </trkpt>
      <trkpt lat="44.407663559541106" lon="131.13826517947018">
        <ele>478.2</ele>
        <time>2026-09-16T16:18:22.000Z</time>
      </trkpt>
      <trkpt lat="44.40765551291406" lon="131.13833567127585">
        <ele>478.2</ele>
        <time>2026-09-16T16:18:36.000Z</time>
      </trkpt>
      <trkpt lat="44.4076207280159" lon="131.1385075841099">
        <ele>477.8</ele>
        <time>2026-09-16T16:23:41.000Z</time>
      </trkpt>
      <trkpt lat="44.40735359676182" lon="131.13861269317567">
        <ele>475.8</ele>
        <time>2026-09-16T16:23:58.000Z</time>
      </trkpt>
      <trkpt lat="44.40681505948305" lon="131.13865368068218">
        <ele>472.2</ele>
        <time>2026-09-16T16:24:14.000Z</time>
      </trkpt>
      <trkpt lat="44.406230421736836" lon="131.13864161074162">
        <ele>468.8</ele>
        <time>2026-09-16T16:24:30.000Z</time>
      </trkpt>
      <trkpt lat="44.40591501072049" lon="131.13862501457334">
        <ele>467.2</ele>
        <time>2026-09-16T16:24:42.000Z</time>
      </trkpt>
      <trkpt lat="44.40553522668779" lon="131.13865736871958">
        <ele>465.2</ele>
        <time>2026-09-16T16:24:56.000Z</time>
      </trkpt>
      <trkpt lat="44.40546280704439" lon="131.13865644671023">
        <ele>464.4</ele>
        <time>2026-09-16T16:26:24.000Z</time>
      </trkpt>
      <trkpt lat="44.40575625747442" lon="131.1386281158775">
        <ele>465.6</ele>
        <time>2026-09-16T16:26:40.000Z</time>
      </trkpt>
      <trkpt lat="44.40603361465037" lon="131.138621494174">
        <ele>467.2</ele>
        <time>2026-09-16T16:26:56.000Z</time>
      </trkpt>
      <trkpt lat="44.40631155855954" lon="131.13861587829888">
        <ele>468.6</ele>
        <time>2026-09-16T16:27:12.000Z</time>
      </trkpt>
      <trkpt lat="44.40658958628774" lon="131.1385963484645">
        <ele>470</ele>
        <time>2026-09-16T16:27:28.000Z</time>
      </trkpt>
      <trkpt lat="44.40686828456819" lon="131.13861956633627">
        <ele>471.8</ele>
        <time>2026-09-16T16:27:44.000Z</time>
      </trkpt>
      <trkpt lat="44.4071423728019" lon="131.1386151239276">
        <ele>473.4</ele>
        <time>2026-09-16T16:28:00.000Z</time>
      </trkpt>
      <trkpt lat="44.40731730312109" lon="131.1385408602655">
        <ele>474.8</ele>
        <time>2026-09-16T16:28:14.000Z</time>
      </trkpt>
      <trkpt lat="44.40745208412409" lon="131.13851412199438">
        <ele>475.8</ele>
        <time>2026-09-16T16:28:31.000Z</time>
      </trkpt>
      <trkpt lat="44.407572112977505" lon="131.13843717612326">
        <ele>476.8</ele>
        <time>2026-09-16T16:28:43.000Z</time>
      </trkpt>
      <trkpt lat="44.407645454630256" lon="131.138317566365">
        <ele>478.2</ele>
        <time>2026-09-16T16:29:03.000Z</time>
      </trkpt>
      <trkpt lat="44.40763732418418" lon="131.1386024672538">
        <ele>476.8</ele>
        <time>2026-09-16T16:36:33.000Z</time>
      </trkpt>
      <trkpt lat="44.40766179934144" lon="131.13921476528049">
        <ele>476.8</ele>
        <time>2026-09-16T16:36:49.000Z</time>
      </trkpt>
      <trkpt lat="44.40763397142291" lon="131.1399688012898">
        <ele>475.6</ele>
        <time>2026-09-16T16:37:05.000Z</time>
      </trkpt>
      <trkpt lat="44.40759256482124" lon="131.14077111706138">
        <ele>475</ele>
        <time>2026-09-16T16:37:21.000Z</time>
      </trkpt>
      <trkpt lat="44.407536489889026" lon="131.14151341840625">
        <ele>474.2</ele>
        <time>2026-09-16T16:37:37.000Z</time>
      </trkpt>
      <trkpt lat="44.40747672691941" lon="131.1421283148229">
        <ele>473</ele>
        <time>2026-09-16T16:37:54.000Z</time>
      </trkpt>
      <trkpt lat="44.40742283128202" lon="131.1427018046379">
        <ele>472.4</ele>
        <time>2026-09-16T16:38:10.000Z</time>
      </trkpt>
      <trkpt lat="44.40735183656216" lon="131.14331787452102">
        <ele>471.6</ele>
        <time>2026-09-16T16:38:26.000Z</time>
      </trkpt>
      <trkpt lat="44.40729928202927" lon="131.14361006766558">
        <ele>471.2</ele>
        <time>2026-09-16T16:38:40.000Z</time>
      </trkpt>
      <trkpt lat="44.40728226676583" lon="131.14385138265789">
        <ele>470.6</ele>
        <time>2026-09-16T16:43:10.000Z</time>
      </trkpt>
      <trkpt lat="44.40724488347769" lon="131.1440958827734">
        <ele>469.4</ele>
        <time>2026-09-16T16:44:02.000Z</time>
      </trkpt>
      <trkpt lat="44.40723876468837" lon="131.14451036788523">
        <ele>468.6</ele>
        <time>2026-09-16T16:44:11.000Z</time>
      </trkpt>
      <trkpt lat="44.40720347687602" lon="131.144916722551">
        <ele>467.2</ele>
        <time>2026-09-16T16:44:17.000Z</time>
      </trkpt>
      <trkpt lat="44.407143630087376" lon="131.14546154625714">
        <ele>464.8</ele>
        <time>2026-09-16T16:44:26.000Z</time>
      </trkpt>
      <trkpt lat="44.40712041221559" lon="131.14566539414227">
        <ele>463.8</ele>
        <time>2026-09-16T16:44:29.000Z</time>
      </trkpt>
      <trkpt lat="44.40707950852811" lon="131.14602631889284">
        <ele>462.2</ele>
        <time>2026-09-16T16:44:34.000Z</time>
      </trkpt>
      <trkpt lat="44.40704313106835" lon="131.14641775377095">
        <ele>460.6</ele>
        <time>2026-09-16T16:44:39.000Z</time>
      </trkpt>
      <trkpt lat="44.40697490237653" lon="131.1471227556467">
        <ele>457.4</ele>
        <time>2026-09-16T16:44:48.000Z</time>
      </trkpt>
      <trkpt lat="44.40689602866769" lon="131.14783722907305">
        <ele>454.2</ele>
        <time>2026-09-16T16:44:58.000Z</time>
      </trkpt>
      <trkpt lat="44.40678111277521" lon="131.1490490846336">
        <ele>452.2</ele>
        <time>2026-09-16T16:45:14.000Z</time>
      </trkpt>
      <trkpt lat="44.406690588220954" lon="131.14981351420283">
        <ele>452.2</ele>
        <time>2026-09-16T16:45:30.000Z</time>
      </trkpt>
      <trkpt lat="44.406604170799255" lon="131.1505253892392">
        <ele>451.8</ele>
        <time>2026-09-16T16:45:46.000Z</time>
      </trkpt>
      <trkpt lat="44.40650777891278" lon="131.15129996091127">
        <ele>451.6</ele>
        <time>2026-09-16T16:46:02.000Z</time>
      </trkpt>
      <trkpt lat="44.40643913112581" lon="131.15203220397234">
        <ele>452.2</ele>
        <time>2026-09-16T16:46:18.000Z</time>
      </trkpt>
      <trkpt lat="44.40635405480862" lon="131.15275405347347">
        <ele>452.6</ele>
        <time>2026-09-16T16:46:34.000Z</time>
      </trkpt>
      <trkpt lat="44.40626143477857" lon="131.15354974754155">
        <ele>452.4</ele>
        <time>2026-09-16T16:46:50.000Z</time>
      </trkpt>
      <trkpt lat="44.406165378168225" lon="131.15438441745937">
        <ele>452.4</ele>
        <time>2026-09-16T16:47:06.000Z</time>
      </trkpt>
      <trkpt lat="44.40607812255621" lon="131.15516116842628">
        <ele>452</ele>
        <time>2026-09-16T16:47:23.000Z</time>
      </trkpt>
      <trkpt lat="44.40599597990513" lon="131.15582392551005">
        <ele>451.8</ele>
        <time>2026-09-16T16:47:39.000Z</time>
      </trkpt>
      <trkpt lat="44.40588810481131" lon="131.1561110895127">
        <ele>451.8</ele>
        <time>2026-09-16T16:47:48.000Z</time>
      </trkpt>
      <trkpt lat="44.40544730052352" lon="131.15608016029">
        <ele>451.8</ele>
        <time>2026-09-16T16:48:01.000Z</time>
      </trkpt>
      <trkpt lat="44.40488068386912" lon="131.1560090817511">
        <ele>451.6</ele>
        <time>2026-09-16T16:48:17.000Z</time>
      </trkpt>
      <trkpt lat="44.40437869168818" lon="131.1559416912496">
        <ele>452.2</ele>
        <time>2026-09-16T16:48:33.000Z</time>
      </trkpt>
      <trkpt lat="44.40401961095631" lon="131.15588779561222">
        <ele>454.6</ele>
        <time>2026-09-16T16:48:49.000Z</time>
      </trkpt>
      <trkpt lat="44.403693722561" lon="131.1558499932289">
        <ele>456.6</ele>
        <time>2026-09-16T16:49:05.000Z</time>
      </trkpt>
      <trkpt lat="44.40349515527487" lon="131.15585158579051">
        <ele>457.8</ele>
        <time>2026-09-16T16:49:46.000Z</time>
      </trkpt>
      <trkpt lat="44.4034746196121" lon="131.15620689466596">
        <ele>459.4</ele>
        <time>2026-09-16T16:49:59.000Z</time>
      </trkpt>
      <trkpt lat="44.40348702482879" lon="131.1562793981284">
        <ele>460</ele>
        <time>2026-09-16T16:50:02.000Z</time>
      </trkpt>
      <trkpt lat="44.403523402288556" lon="131.1564974952489">
        <ele>461.4</ele>
        <time>2026-09-16T16:50:11.000Z</time>
      </trkpt>
      <trkpt lat="44.40350127406418" lon="131.15688088349998">
        <ele>464</ele>
        <time>2026-09-16T16:50:27.000Z</time>
      </trkpt>
      <trkpt lat="44.4033934827894" lon="131.1572232004255">
        <ele>466.2</ele>
        <time>2026-09-16T16:50:43.000Z</time>
      </trkpt>
      <trkpt lat="44.403236992657185" lon="131.15751581266522">
        <ele>468</ele>
        <time>2026-09-16T16:50:59.000Z</time>
      </trkpt>
      <trkpt lat="44.40308100543916" lon="131.15776978433132">
        <ele>469.6</ele>
        <time>2026-09-16T16:51:14.000Z</time>
      </trkpt>
      <trkpt lat="44.40291755832732" lon="131.15809760056436">
        <ele>471.4</ele>
        <time>2026-09-16T16:51:30.000Z</time>
      </trkpt>
      <trkpt lat="44.402826866135" lon="131.15837898105383">
        <ele>472.6</ele>
        <time>2026-09-16T16:52:10.000Z</time>
      </trkpt>
      <trkpt lat="44.40274019725621" lon="131.15879229269922">
        <ele>474.2</ele>
        <time>2026-09-16T16:52:26.000Z</time>
      </trkpt>
      <trkpt lat="44.40272821113467" lon="131.15919705480337">
        <ele>476.6</ele>
        <time>2026-09-16T16:52:42.000Z</time>
      </trkpt>
      <trkpt lat="44.40272821113467" lon="131.15956460125744">
        <ele>478.2</ele>
        <time>2026-09-16T16:52:57.000Z</time>
      </trkpt>
      <trkpt lat="44.40274128690362" lon="131.15996290929615">
        <ele>479.4</ele>
        <time>2026-09-16T16:53:13.000Z</time>
      </trkpt>
      <trkpt lat="44.40267599187791" lon="131.16006516851485">
        <ele>480.4</ele>
        <time>2026-09-16T16:53:20.000Z</time>
      </trkpt>
      <trkpt lat="44.40255219116807" lon="131.15988889709115">
        <ele>482.4</ele>
        <time>2026-09-16T16:54:32.000Z</time>
      </trkpt>
      <trkpt lat="44.40241347067058" lon="131.15976098924875">
        <ele>484</ele>
        <time>2026-09-16T16:54:48.000Z</time>
      </trkpt>
      <trkpt lat="44.40235856920481" lon="131.15971614606678">
        <ele>484.8</ele>
        <time>2026-09-16T16:54:54.000Z</time>
      </trkpt>
      <trkpt lat="44.40227852202952" lon="131.1596025712788">
        <ele>485.4</ele>
        <time>2026-09-16T16:56:22.000Z</time>
      </trkpt>
      <trkpt lat="44.40215497277677" lon="131.1597153916955">
        <ele>486.2</ele>
        <time>2026-09-16T16:56:47.000Z</time>
      </trkpt>
      <trkpt lat="44.402045672759414" lon="131.15965210832655">
        <ele>487.2</ele>
        <time>2026-09-16T16:57:01.000Z</time>
      </trkpt>
      <trkpt lat="44.40193008631468" lon="131.15959008224308">
        <ele>488</ele>
        <time>2026-09-16T16:57:14.000Z</time>
      </trkpt>
      <trkpt lat="44.4018186070025" lon="131.15948581136763">
        <ele>488.6</ele>
        <time>2026-09-16T16:57:29.000Z</time>
      </trkpt>
      <trkpt lat="44.40167318098247" lon="131.15947164595127">
        <ele>489.8</ele>
        <time>2026-09-16T16:57:45.000Z</time>
      </trkpt>
      <trkpt lat="44.40156865864992" lon="131.15945706143975">
        <ele>490.4</ele>
        <time>2026-09-16T16:57:58.000Z</time>
      </trkpt>
    </trkseg>
  </trk>
</gpx>