<?xml version="1.0" encoding="UTF-8"?>
<TrainingCenterDatabase xmlns="http://www.garmin.com/xmlschemas/TrainingCenterDatabase/v2" xmlns:ns3="http://www.garmin.com/xmlschemas/ActivityExtension/v2" xmlns:xsi="http://www.w3.org/2001/XMLSchema-instance" xsi:schemaLocation="http://www.garmin.com/xmlschemas/TrainingCenterDatabase/v2 http://www.garmin.com/xmlschemas/TrainingCenterDatabasev2.xsd">
<Activities>
<Activity Sport="Biking">
<Id>2026-08-28T01:06:43Z</Id>
<Lap StartTime="2026-08-28T01:06:43Z">
<TotalTimeSeconds>430.0</TotalTimeSeconds>
<DistanceMeters>1440.53</DistanceMeters>
<MaximumSpeed>4.889</MaximumSpeed>
<Calories>48</Calories>
<Intensity>Active</Intensity>
<TriggerMethod>Manual</TriggerMethod>
<Track>
<Trackpoint>
<Time>2026-08-28T01:06:58Z</Time>
<Position>
<LatitudeDegrees>43.7178744</LatitudeDegrees>
<LongitudeDegrees>111.9064781</LongitudeDegrees>
</Position>
<DistanceMeters>0.0</DistanceMeters>
<Extensions>
<ns3:TPX>
<ns3:Speed>2.088</ns3:Speed>
</ns3:TPX>
</Extensions>
</Trackpoint>
<Trackpoint>
<Time>2026-08-28T01:06:59Z</Time>
<Position>
<LatitudeDegrees>43.7178575</LatitudeDegrees>
<LongitudeDegrees>111.9064875</LongitudeDegrees>
</Position>
<DistanceMeters>2.0</DistanceMeters>
<Extensions>
<ns3:TPX>
<ns3:Speed>2.272</ns3:Speed>
</ns3:TPX>
</Extensions>
</Trackpoint>
<Trackpoint>
<Time>2026-08-28T01:07:00Z</Time>
<Position>
<LatitudeDegrees>43.7178392</LatitudeDegrees>
<LongitudeDegrees>111.9064927</LongitudeDegrees>
</Position>
<DistanceMeters>6.1</DistanceMeters>
<Extensions>
<ns3:TPX>
<ns3:Speed>2.409</ns3:Speed>
</ns3:TPX>
</Extensions>
</Trackpoint>
<Trackpoint>
<Time>2026-08-28T01:07:01Z</Time>
<Position>
<LatitudeDegrees>43.7178185</LatitudeDegrees>
<LongitudeDegrees>111.9064972</LongitudeDegrees>
</Position>
<DistanceMeters>8.4</DistanceMeters>
<Extensions>
<ns3:TPX>
<ns3:Speed>2.63</ns3:Speed>
</ns3:TPX>
</Extensions>
</Trackpoint>
<Trackpoint>
<Time>2026-08-28T01:07:05Z</Time>
<Position>
<LatitudeDegrees>43.7177482</LatitudeDegrees>
<LongitudeDegrees>111.9065745</LongitudeDegrees>
</Position>
<DistanceMeters>18.5</DistanceMeters>
<Extensions>
<ns3:TPX>
<ns3:Speed>2.758</ns3:Speed>
</ns3:TPX>
</Extensions>
</Trackpoint>
<Trackpoint>
<Time>2026-08-28T01:07:08Z</Time>
<Position>
<LatitudeDegrees>43.7176986</LatitudeDegrees>
<LongitudeDegrees>111.9066233</LongitudeDegrees>
</Position>
<DistanceMeters>25.4</DistanceMeters>
<Extensions>
<ns3:TPX>
<ns3:Speed>2.039</ns3:Speed>
</ns3:TPX>
</Extensions>
</Trackpoint>
<Trackpoint>
<Time>2026-08-28T01:07:14Z</Time>
<Position>
<LatitudeDegrees>43.7175956</LatitudeDegrees>
<LongitudeDegrees>111.9066953</LongitudeDegrees>
</Position>
<DistanceMeters>38.4</DistanceMeters>
<Extensions>
<ns3:TPX>
<ns3:Speed>2.888</ns3:Speed>
</ns3:TPX>
</Extensions>
</Trackpoint>
<Trackpoint>
<Time>2026-08-28T01:07:15Z</Time>
<Position>
<LatitudeDegrees>43.7175763</LatitudeDegrees>
<LongitudeDegrees>111.9067170</LongitudeDegrees>
</Position>
<DistanceMeters>41.1</DistanceMeters>
<Extensions>
<ns3:TPX>
<ns3:Speed>2.924</ns3:Speed>
</ns3:TPX>
</Extensions>
</Trackpoint>
<Trackpoint>
<Time>2026-08-28T01:07:16Z</Time>
<Position>
<LatitudeDegrees>43.7175566</LatitudeDegrees>
<LongitudeDegrees>111.9067407</LongitudeDegrees>
</Position>
<DistanceMeters>44.0</DistanceMeters>
<Extensions>
<ns3:TPX>
<ns3:Speed>3.0</ns3:Speed>
</ns3:TPX>
</Extensions>
</Trackpoint>
<Trackpoint>
<Time>2026-08-28T01:07:17Z</Time>
<Position>
<LatitudeDegrees>43.7175375</LatitudeDegrees>
<LongitudeDegrees>111.9067635</LongitudeDegrees>
</Position>
<DistanceMeters>46.8</DistanceMeters>
<Extensions>
<ns3:TPX>
<ns3:Speed>3.045</ns3:Speed>
</ns3:TPX>
</Extensions>
</Trackpoint>
<Trackpoint>
<Time>2026-08-28T01:07:18Z</Time>
<Position>
<LatitudeDegrees>43.7175176</LatitudeDegrees>
<LongitudeDegrees>111.9067825</LongitudeDegrees>
</Position>
<DistanceMeters>49.5</DistanceMeters>
<Extensions>
<ns3:TPX>
<ns3:Speed>3.129</ns3:Speed>
</ns3:TPX>
</Extensions>
</Trackpoint>
<Trackpoint>
<Time>2026-08-28T01:07:25Z</Time>
<Position>
<LatitudeDegrees>43.7173498</LatitudeDegrees>
<LongitudeDegrees>111.9068806</LongitudeDegrees>
</Position>
<DistanceMeters>70.0</DistanceMeters>
<Extensions>
<ns3:TPX>
<ns3:Speed>2.922</ns3:Speed>
</ns3:TPX>
</Extensions>
</Trackpoint>
<Trackpoint>
<Time>2026-08-28T01:07:33Z</Time>
<Position>
<LatitudeDegrees>43.7172098</LatitudeDegrees>
<LongitudeDegrees>111.9070364</LongitudeDegrees>
</Position>
<DistanceMeters>89.9</DistanceMeters>
<Extensions>
<ns3:TPX>
<ns3:Speed>2.313</ns3:Speed>
</ns3:TPX>
</Extensions>
</Trackpoint>
<Trackpoint>
<Time>2026-08-28T01:07:36Z</Time>
<Position>
<LatitudeDegrees>43.7171643</LatitudeDegrees>
<LongitudeDegrees>111.9070774</LongitudeDegrees>
</Position>
<DistanceMeters>96.1</DistanceMeters>
<Extensions>
<ns3:TPX>
<ns3:Speed>2.38</ns3:Speed>
</ns3:TPX>
</Extensions>
</Trackpoint>
<Trackpoint>
<Time>2026-08-28T01:07:40Z</Time>
<Position>
<LatitudeDegrees>43.7170920</LatitudeDegrees>
<LongitudeDegrees>111.9069741</LongitudeDegrees>
</Position>
<DistanceMeters>108.0</DistanceMeters>
<Extensions>
<ns3:TPX>
<ns3:Speed>3.237</ns3:Speed>
</ns3:TPX>
</Extensions>
</Trackpoint>
<Trackpoint>
<Time>2026-08-28T01:07:41Z</Time>
<Position>
<LatitudeDegrees>43.7170727</LatitudeDegrees>
<LongitudeDegrees>111.9069343</LongitudeDegrees>
</Position>
<DistanceMeters>111.9</DistanceMeters>
<Extensions>
<ns3:TPX>
<ns3:Speed>3.288</ns3:Speed>
</ns3:TPX>
</Extensions>
</Trackpoint>
<Trackpoint>
<Time>2026-08-28T01:07:42Z</Time>
<Position>
<LatitudeDegrees>43.7170520</LatitudeDegrees>
<LongitudeDegrees>111.9068960</LongitudeDegrees>
</Position>
<DistanceMeters>115.7</DistanceMeters>
<Extensions>
<ns3:TPX>
<ns3:Speed>3.341</ns3:Speed>
</ns3:TPX>
</Extensions>
</Trackpoint>
<Trackpoint>
<Time>2026-08-28T01:07:43Z</Time>
<Position>
<LatitudeDegrees>43.7170308</LatitudeDegrees>
<LongitudeDegrees>111.9068587</LongitudeDegrees>
</Position>
<DistanceMeters>119.5</DistanceMeters>
<Extensions>
<ns3:TPX>
<ns3:Speed>3.392</ns3:Speed>
</ns3:TPX>
</Extensions>
</Trackpoint>
<Trackpoint>
<Time>2026-08-28T01:07:44Z</Time>
<Position>
<LatitudeDegrees>43.7170094</LatitudeDegrees>
<LongitudeDegrees>111.9068224</LongitudeDegrees>
</Position>
<AltitudeMeters>975.8</AltitudeMeters>
<DistanceMeters>123.3</DistanceMeters>
<Extensions>
<ns3:TPX>
<ns3:Speed>3.423</ns3:Speed>
</ns3:TPX>
</Extensions>
</Trackpoint>
<Trackpoint>
<Time>2026-08-28T01:07:46Z</Time>
<Position>
<LatitudeDegrees>43.7169645</LatitudeDegrees>
<LongitudeDegrees>111.9067550</LongitudeDegrees>
</Position>
<AltitudeMeters>975.8</AltitudeMeters>
<DistanceMeters>130.6</DistanceMeters>
<Extensions>
<ns3:TPX>
<ns3:Speed>3.494</ns3:Speed>
</ns3:TPX>
</Extensions>
</Trackpoint>
<Trackpoint>
<Time>2026-08-28T01:07:51Z</Time>
<Position>
<LatitudeDegrees>43.7168600</LatitudeDegrees>
<LongitudeDegrees>111.9065975</LongitudeDegrees>
</Position>
<AltitudeMeters>975.6</AltitudeMeters>
<DistanceMeters>147.8</DistanceMeters>
<Extensions>
<ns3:TPX>
<ns3:Speed>3.16</ns3:Speed>
</ns3:TPX>
</Extensions>
</Trackpoint>
<Trackpoint>
<Time>2026-08-28T01:07:56Z</Time>
<Position>
<LatitudeDegrees>43.7167585</LatitudeDegrees>
<LongitudeDegrees>111.9064680</LongitudeDegrees>
</Position>
<AltitudeMeters>975.6</AltitudeMeters>
<DistanceMeters>163.1</DistanceMeters>
<Extensions>
<ns3:TPX>
<ns3:Speed>2.699</ns3:Speed>
</ns3:TPX>
</Extensions>
</Trackpoint>
<Trackpoint>
<Time>2026-08-28T01:08:03Z</Time>
<Position>
<LatitudeDegrees>43.7166293</LatitudeDegrees>
<LongitudeDegrees>111.9064129</LongitudeDegrees>
</Position>
<AltitudeMeters>975.4</AltitudeMeters>
<DistanceMeters>178.4</DistanceMeters>
<Extensions>
<ns3:TPX>
<ns3:Speed>1.563</ns3:Speed>
</ns3:TPX>
</Extensions>
</Trackpoint>
<Trackpoint>
<Time>2026-08-28T01:08:06Z</Time>
<Position>
<LatitudeDegrees>43.7166105</LatitudeDegrees>
<LongitudeDegrees>111.9063842</LongitudeDegrees>
</Position>
<AltitudeMeters>975.4</AltitudeMeters>
<DistanceMeters>181.5</DistanceMeters>
<Extensions>
<ns3:TPX>
<ns3:Speed>1.343</ns3:Speed>
</ns3:TPX>
</Extensions>
</Trackpoint>
<Trackpoint>
<Time>2026-08-28T01:08:08Z</Time>
<Position>
<LatitudeDegrees>43.7166094</LatitudeDegrees>
<LongitudeDegrees>111.9063450</LongitudeDegrees>
</Position>
<AltitudeMeters>975.4</AltitudeMeters>
<DistanceMeters>184.8</DistanceMeters>
<Extensions>
<ns3:TPX>
<ns3:Speed>2.095</ns3:Speed>
</ns3:TPX>
</Extensions>
</Trackpoint>
<Trackpoint>
<Time>2026-08-28T01:08:10Z</Time>
<Position>
<LatitudeDegrees>43.7166423</LatitudeDegrees>
<LongitudeDegrees>111.9063282</LongitudeDegrees>
</Position>
<AltitudeMeters>975.4</AltitudeMeters>
<DistanceMeters>188.9</DistanceMeters>
<Extensions>
<ns3:TPX>
<ns3:Speed>2.659</ns3:Speed>
</ns3:TPX>
</Extensions>
</Trackpoint>
<Trackpoint>
<Time>2026-08-28T01:08:12Z</Time>
<Position>
<LatitudeDegrees>43.7166712</LatitudeDegrees>
<LongitudeDegrees>111.9063680</LongitudeDegrees>
</Position>
<AltitudeMeters>975.4</AltitudeMeters>
<DistanceMeters>193.6</DistanceMeters>
<Extensions>
<ns3:TPX>
<ns3:Speed>2.366</ns3:Speed>
</ns3:TPX>
</Extensions>
</Trackpoint>
<Trackpoint>
<Time>2026-08-28T01:08:16Z</Time>
<Position>
<LatitudeDegrees>43.7166722</LatitudeDegrees>
<LongitudeDegrees>111.9064505</LongitudeDegrees>
</Position>
<AltitudeMeters>975.4</AltitudeMeters>
<DistanceMeters>196.2</DistanceMeters>
<Extensions>
<ns3:TPX>
<ns3:Speed>0.0</ns3:Speed>
</ns3:TPX>
</Extensions>
</Trackpoint>
<Trackpoint>
<Time>2026-08-28T01:15:45Z</Time>
<Position>
<LatitudeDegrees>43.7168095</LatitudeDegrees>
<LongitudeDegrees>111.9065469</LongitudeDegrees>
</Position>
<AltitudeMeters>976.0</AltitudeMeters>
<DistanceMeters>213.4</DistanceMeters>
<Extensions>
<ns3:TPX>
<ns3:Speed>2.919</ns3:Speed>
</ns3:TPX>
</Extensions>
</Trackpoint>
<Trackpoint>
<Time>2026-08-28T01:15:53Z</Time>
<Position>
<LatitudeDegrees>43.7169789</LatitudeDegrees>
<LongitudeDegrees>111.9067896</LongitudeDegrees>
</Position>
<AltitudeMeters>976.0</AltitudeMeters>
<DistanceMeters>240.4</DistanceMeters>
<Extensions>
<ns3:TPX>
<ns3:Speed>2.993</ns3:Speed>
</ns3:TPX>
</Extensions>
</Trackpoint>
<Trackpoint>
<Time>2026-08-28T01:16:00Z</Time>
<Position>
<LatitudeDegrees>43.7170972</LatitudeDegrees>
<LongitudeDegrees>111.9069711</LongitudeDegrees>
</Position>
<AltitudeMeters>976.0</AltitudeMeters>
<DistanceMeters>260.2</DistanceMeters>
<Extensions>
<ns3:TPX>
<ns3:Speed>3.081</ns3:Speed>
</ns3:TPX>
</Extensions>
</Trackpoint>
<Trackpoint>
<Time>2026-08-28T01:16:03Z</Time>
<Position>
<LatitudeDegrees>43.7170654</LatitudeDegrees>
<LongitudeDegrees>111.9070751</LongitudeDegrees>
</Position>
<AltitudeMeters>976.0</AltitudeMeters>
<DistanceMeters>269.6</DistanceMeters>
<Extensions>
<ns3:TPX>
<ns3:Speed>3.539</ns3:Speed>
</ns3:TPX>
</Extensions>
</Trackpoint>
<Trackpoint>
<Time>2026-08-28T01:16:05Z</Time>
<Position>
<LatitudeDegrees>43.7170119</LatitudeDegrees>
<LongitudeDegrees>111.9071377</LongitudeDegrees>
</Position>
<AltitudeMeters>976.2</AltitudeMeters>
<DistanceMeters>277.4</DistanceMeters>
<Extensions>
<ns3:TPX>
<ns3:Speed>3.682</ns3:Speed>
</ns3:TPX>
</Extensions>
</Trackpoint>
<Trackpoint>
<Time>2026-08-28T01:16:06Z</Time>
<Position>
<LatitudeDegrees>43.7169848</LatitudeDegrees>
<LongitudeDegrees>111.9071708</LongitudeDegrees>
</Position>
<AltitudeMeters>976.2</AltitudeMeters>
<DistanceMeters>281.4</DistanceMeters>
<Extensions>
<ns3:TPX>
<ns3:Speed>3.741</ns3:Speed>
</ns3:TPX>
</Extensions>
</Trackpoint>
<Trackpoint>
<Time>2026-08-28T01:16:07Z</Time>
<Position>
<LatitudeDegrees>43.7169589</LatitudeDegrees>
<LongitudeDegrees>111.9072053</LongitudeDegrees>
</Position>
<AltitudeMeters>976.2</AltitudeMeters>
<DistanceMeters>285.4</DistanceMeters>
<Extensions>
<ns3:TPX>
<ns3:Speed>3.769</ns3:Speed>
</ns3:TPX>
</Extensions>
</Trackpoint>
<Trackpoint>
<Time>2026-08-28T01:16:11Z</Time>
<Position>
<LatitudeDegrees>43.7168665</LatitudeDegrees>
<LongitudeDegrees>111.9073481</LongitudeDegrees>
</Position>
<AltitudeMeters>976.0</AltitudeMeters>
<DistanceMeters>300.8</DistanceMeters>
<Extensions>
<ns3:TPX>
<ns3:Speed>3.844</ns3:Speed>
</ns3:TPX>
</Extensions>
</Trackpoint>
<Trackpoint>
<Time>2026-08-28T01:16:14Z</Time>
<Position>
<LatitudeDegrees>43.7167936</LatitudeDegrees>
<LongitudeDegrees>111.9074494</LongitudeDegrees>
</Position>
<AltitudeMeters>976.2</AltitudeMeters>
<DistanceMeters>312.3</DistanceMeters>
<Extensions>
<ns3:TPX>
<ns3:Speed>3.879</ns3:Speed>
</ns3:TPX>
</Extensions>
</Trackpoint>
<Trackpoint>
<Time>2026-08-28T01:16:19Z</Time>
<Position>
<LatitudeDegrees>43.7166668</LatitudeDegrees>
<LongitudeDegrees>111.9076137</LongitudeDegrees>
</Position>
<AltitudeMeters>976.2</AltitudeMeters>
<DistanceMeters>331.6</DistanceMeters>
<Extensions>
<ns3:TPX>
<ns3:Speed>3.907</ns3:Speed>
</ns3:TPX>
</Extensions>
</Trackpoint>
<Trackpoint>
<Time>2026-08-28T01:16:26Z</Time>
<Position>
<LatitudeDegrees>43.7165044</LatitudeDegrees>
<LongitudeDegrees>111.9078472</LongitudeDegrees>
</Position>
<AltitudeMeters>976.2</AltitudeMeters>
<DistanceMeters>357.6</DistanceMeters>
<Extensions>
<ns3:TPX>
<ns3:Speed>3.539</ns3:Speed>
</ns3:TPX>
</Extensions>
</Trackpoint>
<Trackpoint>
<Time>2026-08-28T01:16:35Z</Time>
<Position>
<LatitudeDegrees>43.7163081</LatitudeDegrees>
<LongitudeDegrees>111.9080820</LongitudeDegrees>
</Position>
<AltitudeMeters>975.8</AltitudeMeters>
<DistanceMeters>386.5</DistanceMeters>
<Extensions>
<ns3:TPX>
<ns3:Speed>3.354</ns3:Speed>
</ns3:TPX>
</Extensions>
</Trackpoint>
<Trackpoint>
<Time>2026-08-28T01:16:43Z</Time>
<Position>
<LatitudeDegrees>43.7161453</LatitudeDegrees>
<LongitudeDegrees>111.9082903</LongitudeDegrees>
</Position>
<AltitudeMeters>976.0</AltitudeMeters>
<DistanceMeters>411.2</DistanceMeters>
<Extensions>
<ns3:TPX>
<ns3:Speed>3.024</ns3:Speed>
</ns3:TPX>
</Extensions>
</Trackpoint>
<Trackpoint>
<Time>2026-08-28T01:16:51Z</Time>
<Position>
<LatitudeDegrees>43.7159901</LatitudeDegrees>
<LongitudeDegrees>111.9084972</LongitudeDegrees>
</Position>
<AltitudeMeters>976.2</AltitudeMeters>
<DistanceMeters>435.1</DistanceMeters>
<Extensions>
<ns3:TPX>
<ns3:Speed>3.344</ns3:Speed>
</ns3:TPX>
</Extensions>
</Trackpoint>
<Trackpoint>
<Time>2026-08-28T01:16:54Z</Time>
<Position>
<LatitudeDegrees>43.7159242</LatitudeDegrees>
<LongitudeDegrees>111.9085864</LongitudeDegrees>
</Position>
<AltitudeMeters>976.2</AltitudeMeters>
<DistanceMeters>445.4</DistanceMeters>
<Extensions>
<ns3:TPX>
<ns3:Speed>3.609</ns3:Speed>
</ns3:TPX>
</Extensions>
</Trackpoint>
<Trackpoint>
<Time>2026-08-28T01:17:02Z</Time>
<Position>
<LatitudeDegrees>43.7157357</LatitudeDegrees>
<LongitudeDegrees>111.9088393</LongitudeDegrees>
</Position>
<AltitudeMeters>976.2</AltitudeMeters>
<DistanceMeters>474.5</DistanceMeters>
<Extensions>
<ns3:TPX>
<ns3:Speed>4.004</ns3:Speed>
</ns3:TPX>
</Extensions>
</Trackpoint>
<Trackpoint>
<Time>2026-08-28T01:17:03Z</Time>
<Position>
<LatitudeDegrees>43.7157096</LatitudeDegrees>
<LongitudeDegrees>111.9088741</LongitudeDegrees>
</Position>
<AltitudeMeters>976.2</AltitudeMeters>
<DistanceMeters>478.5</DistanceMeters>
<Extensions>
<ns3:TPX>
<ns3:Speed>4.063</ns3:Speed>
</ns3:TPX>
</Extensions>
</Trackpoint>
<Trackpoint>
<Time>2026-08-28T01:17:05Z</Time>
<Position>
<LatitudeDegrees>43.7156571</LatitudeDegrees>
<LongitudeDegrees>111.9089463</LongitudeDegrees>
</Position>
<AltitudeMeters>976.2</AltitudeMeters>
<DistanceMeters>486.8</DistanceMeters>
<Extensions>
<ns3:TPX>
<ns3:Speed>4.129</ns3:Speed>
</ns3:TPX>
</Extensions>
</Trackpoint>
<Trackpoint>
<Time>2026-08-28T01:17:06Z</Time>
<Position>
<LatitudeDegrees>43.7156297</LatitudeDegrees>
<LongitudeDegrees>111.9089824</LongitudeDegrees>
</Position>
<AltitudeMeters>976.2</AltitudeMeters>
<DistanceMeters>491.0</DistanceMeters>
<Extensions>
<ns3:TPX>
<ns3:Speed>4.207</ns3:Speed>
</ns3:TPX>
</Extensions>
</Trackpoint>
<Trackpoint>
<Time>2026-08-28T01:17:07Z</Time>
<Position>
<LatitudeDegrees>43.7156015</LatitudeDegrees>
<LongitudeDegrees>111.9090183</LongitudeDegrees>
</Position>
<AltitudeMeters>976.2</AltitudeMeters>
<DistanceMeters>495.2</DistanceMeters>
<Extensions>
<ns3:TPX>
<ns3:Speed>4.283</ns3:Speed>
</ns3:TPX>
</Extensions>
</Trackpoint>
<Trackpoint>
<Time>2026-08-28T01:17:08Z</Time>
<Position>
<LatitudeDegrees>43.7155729</LatitudeDegrees>
<LongitudeDegrees>111.9090547</LongitudeDegrees>
</Position>
<AltitudeMeters>976.0</AltitudeMeters>
<DistanceMeters>499.5</DistanceMeters>
<Extensions>
<ns3:TPX>
<ns3:Speed>4.325</ns3:Speed>
</ns3:TPX>
</Extensions>
</Trackpoint>
<Trackpoint>
<Time>2026-08-28T01:17:10Z</Time>
<Position>
<LatitudeDegrees>43.7155155</LatitudeDegrees>
<LongitudeDegrees>111.9091293</LongitudeDegrees>
</Position>
<AltitudeMeters>976.0</AltitudeMeters>
<DistanceMeters>508.3</DistanceMeters>
<Extensions>
<ns3:TPX>
<ns3:Speed>4.365</ns3:Speed>
</ns3:TPX>
</Extensions>
</Trackpoint>
<Trackpoint>
<Time>2026-08-28T01:17:18Z</Time>
<Position>
<LatitudeDegrees>43.7153078</LatitudeDegrees>
<LongitudeDegrees>111.9094069</LongitudeDegrees>
</Position>
<AltitudeMeters>976.0</AltitudeMeters>
<DistanceMeters>540.3</DistanceMeters>
<Extensions>
<ns3:TPX>
<ns3:Speed>3.111</ns3:Speed>
</ns3:TPX>
</Extensions>
</Trackpoint>
<Trackpoint>
<Time>2026-08-28T01:17:23Z</Time>
<Position>
<LatitudeDegrees>43.7151824</LatitudeDegrees>
<LongitudeDegrees>111.9095435</LongitudeDegrees>
</Position>
<AltitudeMeters>976.0</AltitudeMeters>
<DistanceMeters>558.1</DistanceMeters>
<Extensions>
<ns3:TPX>
<ns3:Speed>4.545</ns3:Speed>
</ns3:TPX>
</Extensions>
</Trackpoint>
<Trackpoint>
<Time>2026-08-28T01:17:24Z</Time>
<Position>
<LatitudeDegrees>43.7151477</LatitudeDegrees>
<LongitudeDegrees>111.9095745</LongitudeDegrees>
</Position>
<AltitudeMeters>976.0</AltitudeMeters>
<DistanceMeters>562.7</DistanceMeters>
<Extensions>
<ns3:TPX>
<ns3:Speed>4.782</ns3:Speed>
</ns3:TPX>
</Extensions>
</Trackpoint>
<Trackpoint>
<Time>2026-08-28T01:17:25Z</Time>
<Position>
<LatitudeDegrees>43.7151113</LatitudeDegrees>
<LongitudeDegrees>111.9096079</LongitudeDegrees>
</Position>
<AltitudeMeters>976.0</AltitudeMeters>
<DistanceMeters>567.5</DistanceMeters>
<Extensions>
<ns3:TPX>
<ns3:Speed>4.83</ns3:Speed>
</ns3:TPX>
</Extensions>
</Trackpoint>
<Trackpoint>
<Time>2026-08-28T01:17:26Z</Time>
<Position>
<LatitudeDegrees>43.7150759</LatitudeDegrees>
<LongitudeDegrees>111.9096457</LongitudeDegrees>
</Position>
<AltitudeMeters>976.0</AltitudeMeters>
<DistanceMeters>572.5</DistanceMeters>
<Extensions>
<ns3:TPX>
<ns3:Speed>4.889</ns3:Speed>
</ns3:TPX>
</Extensions>
</Trackpoint>
<Trackpoint>
<Time>2026-08-28T01:17:34Z</Time>
<Position>
<LatitudeDegrees>43.7148344</LatitudeDegrees>
<LongitudeDegrees>111.9099722</LongitudeDegrees>
</Position>
<AltitudeMeters>975.8</AltitudeMeters>
<DistanceMeters>610.0</DistanceMeters>
<Extensions>
<ns3:TPX>
<ns3:Speed>4.475</ns3:Speed>
</ns3:TPX>
</Extensions>
</Trackpoint>
<Trackpoint>
<Time>2026-08-28T01:17:43Z</Time>
<Position>
<LatitudeDegrees>43.7146078</LatitudeDegrees>
<LongitudeDegrees>111.9102911</LongitudeDegrees>
</Position>
<AltitudeMeters>975.8</AltitudeMeters>
<DistanceMeters>645.8</DistanceMeters>
<Extensions>
<ns3:TPX>
<ns3:Speed>4.6</ns3:Speed>
</ns3:TPX>
</Extensions>
</Trackpoint>
<Trackpoint>
<Time>2026-08-28T01:17:51Z</Time>
<Position>
<LatitudeDegrees>43.7143665</LatitudeDegrees>
<LongitudeDegrees>111.9106135</LongitudeDegrees>
</Position>
<AltitudeMeters>976.0</AltitudeMeters>
<DistanceMeters>683.1</DistanceMeters>
<Extensions>
<ns3:TPX>
<ns3:Speed>4.675</ns3:Speed>
</ns3:TPX>
</Extensions>
</Trackpoint>
<Trackpoint>
<Time>2026-08-28T01:17:59Z</Time>
<Position>
<LatitudeDegrees>43.7140936</LatitudeDegrees>
<LongitudeDegrees>111.9109724</LongitudeDegrees>
</Position>
<AltitudeMeters>976.0</AltitudeMeters>
<DistanceMeters>724.9</DistanceMeters>
<Extensions>
<ns3:TPX>
<ns3:Speed>4.482</ns3:Speed>
</ns3:TPX>
</Extensions>
</Trackpoint>
<Trackpoint>
<Time>2026-08-28T01:18:07Z</Time>
<Position>
<LatitudeDegrees>43.7138651</LatitudeDegrees>
<LongitudeDegrees>111.9112719</LongitudeDegrees>
</Position>
<AltitudeMeters>975.6</AltitudeMeters>
<DistanceMeters>759.8</DistanceMeters>
<Extensions>
<ns3:TPX>
<ns3:Speed>4.52</ns3:Speed>
</ns3:TPX>
</Extensions>
</Trackpoint>
<Trackpoint>
<Time>2026-08-28T01:18:15Z</Time>
<Position>
<LatitudeDegrees>43.7136396</LatitudeDegrees>
<LongitudeDegrees>111.9115841</LongitudeDegrees>
</Position>
<AltitudeMeters>975.4</AltitudeMeters>
<DistanceMeters>795.2</DistanceMeters>
<Extensions>
<ns3:TPX>
<ns3:Speed>4.342</ns3:Speed>
</ns3:TPX>
</Extensions>
</Trackpoint>
<Trackpoint>
<Time>2026-08-28T01:18:23Z</Time>
<Position>
<LatitudeDegrees>43.7134334</LatitudeDegrees>
<LongitudeDegrees>111.9118596</LongitudeDegrees>
</Position>
<AltitudeMeters>975.6</AltitudeMeters>
<DistanceMeters>827.1</DistanceMeters>
<Extensions>
<ns3:TPX>
<ns3:Speed>3.543</ns3:Speed>
</ns3:TPX>
</Extensions>
</Trackpoint>
<Trackpoint>
<Time>2026-08-28T01:18:31Z</Time>
<Position>
<LatitudeDegrees>43.7132438</LatitudeDegrees>
<LongitudeDegrees>111.9120966</LongitudeDegrees>
</Position>
<AltitudeMeters>975.6</AltitudeMeters>
<DistanceMeters>855.5</DistanceMeters>
<Extensions>
<ns3:TPX>
<ns3:Speed>3.888</ns3:Speed>
</ns3:TPX>
</Extensions>
</Trackpoint>
<Trackpoint>
<Time>2026-08-28T01:18:39Z</Time>
<Position>
<LatitudeDegrees>43.7130383</LatitudeDegrees>
<LongitudeDegrees>111.9123671</LongitudeDegrees>
</Position>
<AltitudeMeters>975.4</AltitudeMeters>
<DistanceMeters>887.0</DistanceMeters>
<Extensions>
<ns3:TPX>
<ns3:Speed>3.949</ns3:Speed>
</ns3:TPX>
</Extensions>
</Trackpoint>
<Trackpoint>
<Time>2026-08-28T01:18:47Z</Time>
<Position>
<LatitudeDegrees>43.7128263</LatitudeDegrees>
<LongitudeDegrees>111.9126505</LongitudeDegrees>
</Position>
<AltitudeMeters>975.4</AltitudeMeters>
<DistanceMeters>919.7</DistanceMeters>
<Extensions>
<ns3:TPX>
<ns3:Speed>4.088</ns3:Speed>
</ns3:TPX>
</Extensions>
</Trackpoint>
<Trackpoint>
<Time>2026-08-28T01:18:55Z</Time>
<Position>
<LatitudeDegrees>43.7126031</LatitudeDegrees>
<LongitudeDegrees>111.9129426</LongitudeDegrees>
</Position>
<AltitudeMeters>975.2</AltitudeMeters>
<DistanceMeters>953.8</DistanceMeters>
<Extensions>
<ns3:TPX>
<ns3:Speed>4.325</ns3:Speed>
</ns3:TPX>
</Extensions>
</Trackpoint>
<Trackpoint>
<Time>2026-08-28T01:19:03Z</Time>
<Position>
<LatitudeDegrees>43.7123807</LatitudeDegrees>
<LongitudeDegrees>111.9132560</LongitudeDegrees>
</Position>
<AltitudeMeters>975.4</AltitudeMeters>
<DistanceMeters>989.0</DistanceMeters>
<Extensions>
<ns3:TPX>
<ns3:Speed>4.538</ns3:Speed>
</ns3:TPX>
</Extensions>
</Trackpoint>
<Trackpoint>
<Time>2026-08-28T01:19:11Z</Time>
<Position>
<LatitudeDegrees>43.7121435</LatitudeDegrees>
<LongitudeDegrees>111.9135780</LongitudeDegrees>
</Position>
<AltitudeMeters>975.4</AltitudeMeters>
<DistanceMeters>1025.9</DistanceMeters>
<Extensions>
<ns3:TPX>
<ns3:Speed>4.448</ns3:Speed>
</ns3:TPX>
</Extensions>
</Trackpoint>
<Trackpoint>
<Time>2026-08-28T01:19:19Z</Time>
<Position>
<LatitudeDegrees>43.7119280</LatitudeDegrees>
<LongitudeDegrees>111.9138852</LongitudeDegrees>
</Position>
<AltitudeMeters>975.4</AltitudeMeters>
<DistanceMeters>1060.3</DistanceMeters>
<Extensions>
<ns3:TPX>
<ns3:Speed>4.323</ns3:Speed>
</ns3:TPX>
</Extensions>
</Trackpoint>
<Trackpoint>
<Time>2026-08-28T01:19:27Z</Time>
<Position>
<LatitudeDegrees>43.7117022</LatitudeDegrees>
<LongitudeDegrees>111.9141933</LongitudeDegrees>
</Position>
<AltitudeMeters>975.4</AltitudeMeters>
<DistanceMeters>1095.5</DistanceMeters>
<Extensions>
<ns3:TPX>
<ns3:Speed>4.602</ns3:Speed>
</ns3:TPX>
</Extensions>
</Trackpoint>
<Trackpoint>
<Time>2026-08-28T01:19:35Z</Time>
<Position>
<LatitudeDegrees>43.7114742</LatitudeDegrees>
<LongitudeDegrees>111.9144946</LongitudeDegrees>
</Position>
<AltitudeMeters>975.2</AltitudeMeters>
<DistanceMeters>1130.5</DistanceMeters>
<Extensions>
<ns3:TPX>
<ns3:Speed>3.456</ns3:Speed>
</ns3:TPX>
</Extensions>
</Trackpoint>
<Trackpoint>
<Time>2026-08-28T01:19:41Z</Time>
<Position>
<LatitudeDegrees>43.7113783</LatitudeDegrees>
<LongitudeDegrees>111.9146299</LongitudeDegrees>
</Position>
<AltitudeMeters>975.2</AltitudeMeters>
<DistanceMeters>1145.8</DistanceMeters>
<Extensions>
<ns3:TPX>
<ns3:Speed>2.503</ns3:Speed>
</ns3:TPX>
</Extensions>
</Trackpoint>
<Trackpoint>
<Time>2026-08-28T01:19:49Z</Time>
<Position>
<LatitudeDegrees>43.7112228</LatitudeDegrees>
<LongitudeDegrees>111.9148759</LongitudeDegrees>
</Position>
<AltitudeMeters>975.4</AltitudeMeters>
<DistanceMeters>1172.1</DistanceMeters>
<Extensions>
<ns3:TPX>
<ns3:Speed>3.877</ns3:Speed>
</ns3:TPX>
</Extensions>
</Trackpoint>
<Trackpoint>
<Time>2026-08-28T01:19:53Z</Time>
<Position>
<LatitudeDegrees>43.7111110</LatitudeDegrees>
<LongitudeDegrees>111.9149852</LongitudeDegrees>
</Position>
<AltitudeMeters>975.0</AltitudeMeters>
<DistanceMeters>1187.3</DistanceMeters>
<Extensions>
<ns3:TPX>
<ns3:Speed>3.016</ns3:Speed>
</ns3:TPX>
</Extensions>
</Trackpoint>
<Trackpoint>
<Time>2026-08-28T01:19:59Z</Time>
<Position>
<LatitudeDegrees>43.7109730</LatitudeDegrees>
<LongitudeDegrees>111.9150201</LongitudeDegrees>
</Position>
<AltitudeMeters>974.8</AltitudeMeters>
<DistanceMeters>1203.0</DistanceMeters>
<Extensions>
<ns3:TPX>
<ns3:Speed>3.363</ns3:Speed>
</ns3:TPX>
</Extensions>
</Trackpoint>
<Trackpoint>
<Time>2026-08-28T01:20:02Z</Time>
<Position>
<LatitudeDegrees>43.7109215</LatitudeDegrees>
<LongitudeDegrees>111.9151198</LongitudeDegrees>
</Position>
<AltitudeMeters>974.8</AltitudeMeters>
<DistanceMeters>1213.1</DistanceMeters>
<Extensions>
<ns3:TPX>
<ns3:Speed>3.658</ns3:Speed>
</ns3:TPX>
</Extensions>
</Trackpoint>
<Trackpoint>
<Time>2026-08-28T01:20:05Z</Time>
<Position>
<LatitudeDegrees>43.7108971</LatitudeDegrees>
<LongitudeDegrees>111.9152504</LongitudeDegrees>
</Position>
<AltitudeMeters>974.8</AltitudeMeters>
<DistanceMeters>1224.0</DistanceMeters>
<Extensions>
<ns3:TPX>
<ns3:Speed>3.151</ns3:Speed>
</ns3:TPX>
</Extensions>
</Trackpoint>
<Trackpoint>
<Time>2026-08-28T01:20:13Z</Time>
<Position>
<LatitudeDegrees>43.7107708</LatitudeDegrees>
<LongitudeDegrees>111.9154672</LongitudeDegrees>
</Position>
<AltitudeMeters>974.8</AltitudeMeters>
<DistanceMeters>1246.4</DistanceMeters>
<Extensions>
<ns3:TPX>
<ns3:Speed>2.526</ns3:Speed>
</ns3:TPX>
</Extensions>
</Trackpoint>
<Trackpoint>
<Time>2026-08-28T01:20:19Z</Time>
<Position>
<LatitudeDegrees>43.7107119</LatitudeDegrees>
<LongitudeDegrees>111.9155358</LongitudeDegrees>
</Position>
<AltitudeMeters>975.0</AltitudeMeters>
<DistanceMeters>1254.0</DistanceMeters>
<Extensions>
<ns3:TPX>
<ns3:Speed>0.0</ns3:Speed>
</ns3:TPX>
</Extensions>
</Trackpoint>
<Trackpoint>
<Time>2026-08-28T01:20:40Z</Time>
<Position>
<LatitudeDegrees>43.7105034</LatitudeDegrees>
<LongitudeDegrees>111.9158466</LongitudeDegrees>
</Position>
<AltitudeMeters>974.8</AltitudeMeters>
<DistanceMeters>1288.0</DistanceMeters>
<Extensions>
<ns3:TPX>
<ns3:Speed>3.841</ns3:Speed>
</ns3:TPX>
</Extensions>
</Trackpoint>
<Trackpoint>
<Time>2026-08-28T01:20:48Z</Time>
<Position>
<LatitudeDegrees>43.7103193</LatitudeDegrees>
<LongitudeDegrees>111.9161014</LongitudeDegrees>
</Position>
<AltitudeMeters>974.6</AltitudeMeters>
<DistanceMeters>1317.0</DistanceMeters>
<Extensions>
<ns3:TPX>
<ns3:Speed>3.402</ns3:Speed>
</ns3:TPX>
</Extensions>
</Trackpoint>
<Trackpoint>
<Time>2026-08-28T01:20:56Z</Time>
<Position>
<LatitudeDegrees>43.7101981</LatitudeDegrees>
<LongitudeDegrees>111.9162653</LongitudeDegrees>
</Position>
<AltitudeMeters>974.6</AltitudeMeters>
<DistanceMeters>1335.8</DistanceMeters>
<Extensions>
<ns3:TPX>
<ns3:Speed>1.159</ns3:Speed>
</ns3:TPX>
</Extensions>
</Trackpoint>
<Trackpoint>
<Time>2026-08-28T01:21:01Z</Time>
<Position>
<LatitudeDegrees>43.7101785</LatitudeDegrees>
<LongitudeDegrees>111.9162862</LongitudeDegrees>
</Position>
<AltitudeMeters>974.6</AltitudeMeters>
<DistanceMeters>1336.5</DistanceMeters>
<Extensions>
<ns3:TPX>
<ns3:Speed>0.0</ns3:Speed>
</ns3:TPX>
</Extensions>
</Trackpoint>
<Trackpoint>
<Time>2026-08-28T01:21:11Z</Time>
<Position>
<LatitudeDegrees>43.7100948</LatitudeDegrees>
<LongitudeDegrees>111.9163887</LongitudeDegrees>
</Position>
<AltitudeMeters>974.6</AltitudeMeters>
<DistanceMeters>1347.1</DistanceMeters>
<Extensions>
<ns3:TPX>
<ns3:Speed>0.0</ns3:Speed>
</ns3:TPX>
</Extensions>
</Trackpoint>
<Trackpoint>
<Time>2026-08-28T01:21:29Z</Time>
<Position>
<LatitudeDegrees>43.7101439</LatitudeDegrees>
<LongitudeDegrees>111.9163669</LongitudeDegrees>
</Position>
<AltitudeMeters>974.6</AltitudeMeters>
<DistanceMeters>1352.8</DistanceMeters>
<Extensions>
<ns3:TPX>
<ns3:Speed>1.537</ns3:Speed>
</ns3:TPX>
</Extensions>
</Trackpoint>
<Trackpoint>
<Time>2026-08-28T01:21:37Z</Time>
<Position>
<LatitudeDegrees>43.7102033</LatitudeDegrees>
<LongitudeDegrees>111.9162522</LongitudeDegrees>
</Position>
<AltitudeMeters>974.8</AltitudeMeters>
<DistanceMeters>1362.6</DistanceMeters>
<Extensions>
<ns3:TPX>
<ns3:Speed>0.0</ns3:Speed>
</ns3:TPX>
</Extensions>
</Trackpoint>
<Trackpoint>
<Time>2026-08-28T01:21:50Z</Time>
<Position>
<LatitudeDegrees>43.7103018</LatitudeDegrees>
<LongitudeDegrees>111.9161368</LongitudeDegrees>
</Position>
<AltitudeMeters>974.6</AltitudeMeters>
<DistanceMeters>1376.6</DistanceMeters>
<Extensions>
<ns3:TPX>
<ns3:Speed>1.98</ns3:Speed>
</ns3:TPX>
</Extensions>
</Trackpoint>
<Trackpoint>
<Time>2026-08-28T01:21:54Z</Time>
<Position>
<LatitudeDegrees>43.7103770</LatitudeDegrees>
<LongitudeDegrees>111.9161109</LongitudeDegrees>
</Position>
<AltitudeMeters>974.8</AltitudeMeters>
<DistanceMeters>1385.4</DistanceMeters>
<Extensions>
<ns3:TPX>
<ns3:Speed>2.762</ns3:Speed>
</ns3:TPX>
</Extensions>
</Trackpoint>
<Trackpoint>
<Time>2026-08-28T01:21:59Z</Time>
<Position>
<LatitudeDegrees>43.7104656</LatitudeDegrees>
<LongitudeDegrees>111.9159682</LongitudeDegrees>
</Position>
<AltitudeMeters>975.0</AltitudeMeters>
<DistanceMeters>1400.6</DistanceMeters>
<Extensions>
<ns3:TPX>
<ns3:Speed>3.046</ns3:Speed>
</ns3:TPX>
</Extensions>
</Trackpoint>
<Trackpoint>
<Time>2026-08-28T01:22:07Z</Time>
<Position>
<LatitudeDegrees>43.7106182</LatitudeDegrees>
<LongitudeDegrees>111.9157409</LongitudeDegrees>
</Position>
<AltitudeMeters>975.0</AltitudeMeters>
<DistanceMeters>1425.6</DistanceMeters>
<Extensions>
<ns3:TPX>
<ns3:Speed>3.077</ns3:Speed>
</ns3:TPX>
</Extensions>
</Trackpoint>
<Trackpoint>
<Time>2026-08-28T01:22:15Z</Time>
<Position>
<LatitudeDegrees>43.7106965</LatitudeDegrees>
<LongitudeDegrees>111.9155748</LongitudeDegrees>
</Position>
<AltitudeMeters>974.8</AltitudeMeters>
<DistanceMeters>1440.5</DistanceMeters>
<Extensions>
<ns3:TPX>
<ns3:Speed>0.0</ns3:Speed>
</ns3:TPX>
</Extensions>
</Trackpoint>
<Trackpoint>
<Time>2026-08-28T01:22:25Z</Time>
<Position>
<LatitudeDegrees>43.7107041</LatitudeDegrees>
<LongitudeDegrees>111.9155406</LongitudeDegrees>
</Position>
<AltitudeMeters>974.8</AltitudeMeters>
<DistanceMeters>1440.5</DistanceMeters>
<Extensions>
<ns3:TPX>
<ns3:Speed>0.0</ns3:Speed>
</ns3:TPX>
</Extensions>
</Trackpoint>
<Trackpoint>
<Time>2026-08-28T01:25:43Z</Time>
<Position>
<LatitudeDegrees>43.7107415</LatitudeDegrees>
<LongitudeDegrees>111.9154814</LongitudeDegrees>
</Position>
<AltitudeMeters>974.6</AltitudeMeters>
<DistanceMeters>1440.5</DistanceMeters>
<Extensions>
<ns3:TPX>
<ns3:Speed>0.0</ns3:Speed>
</ns3:TPX>
</Extensions>
</Trackpoint>
<Trackpoint>
<Time>2026-08-28T01:25:45Z</Time>
<Position>
<LatitudeDegrees>43.7107499</LatitudeDegrees>
<LongitudeDegrees>111.9154705</LongitudeDegrees>
</Position>
<AltitudeMeters>974.6</AltitudeMeters>
<DistanceMeters>1440.5</DistanceMeters>
<Extensions>
<ns3:TPX>
<ns3:Speed>0.0</ns3:Speed>
</ns3:TPX>
</Extensions>
</Trackpoint>
<Trackpoint>
<Time>2026-08-28T01:30:45Z</Time>
<Position>
<LatitudeDegrees>43.7107961</LatitudeDegrees>
<LongitudeDegrees>111.9154989</LongitudeDegrees>
</Position>
<AltitudeMeters>974.2</AltitudeMeters>
<DistanceMeters>1440.5</DistanceMeters>
<Extensions>
<ns3:TPX>
<ns3:Speed>0.0</ns3:Speed>
</ns3:TPX>
</Extensions>
</Trackpoint>
</Track>
</Lap>
</Activity>
</Activities>
</TrainingCenterDatabase>