<?xml version="1.0" encoding="UTF-8"?>
<gpx creator="IGPSPORT" xmlns:xsi="http://www.w3.org/2001/XMLSchema-instance" schemaLocation="http://www.topografix.com/GPX/1/1 http://www.topografix.com/GPX/1/1/gpx.xsd" version="1.1" xmlns="http://www.topografix.com/GPX/1/1">
  <metadata>
    <time>2026-08-28T09:06:43.000Z</time>
    <link href="https://www.igpsport.cn/">
      <text>Велоспорт на свежем воздухе</text>
    </link>
  </metadata>
  <trk>
    <name>Велоспорт на свежем воздухе</name>
    <trkseg>
      <trkpt lat="43.717857487499714" lon="111.90648749470711">
        <ele>0</ele>
        <time>2026-08-28T09:06:59.000Z</time>
      </trkpt>
      <trkpt lat="43.717818511649966" lon="111.90649721771479">
        <ele>0</ele>
        <time>2026-08-28T09:07:01.000Z</time>
      </trkpt>
      <trkpt lat="43.71769856661558" lon="111.90662328153849">
        <ele>0</ele>
        <time>2026-08-28T09:07:08.000Z</time>
      </trkpt>
      <trkpt lat="43.71757627464831" lon="111.90671699121594">
        <ele>0</ele>
        <time>2026-08-28T09:07:15.000Z</time>
      </trkpt>
      <trkpt lat="43.717537466436625" lon="111.90676351077855">
        <ele>0</ele>
        <time>2026-08-28T09:07:17.000Z</time>
      </trkpt>
      <trkpt lat="43.717349795624614" lon="111.90688060596585">
        <ele>0</ele>
        <time>2026-08-28T09:07:25.000Z</time>
      </trkpt>
      <trkpt lat="43.71716430410743" lon="111.90707741305232">
        <ele>0</ele>
        <time>2026-08-28T09:07:36.000Z</time>
      </trkpt>
      <trkpt lat="43.71707268990576" lon="111.90693425014615">
        <ele>0</ele>
        <time>2026-08-28T09:07:41.000Z</time>
      </trkpt>
      <trkpt lat="43.717030780389905" lon="111.90685872919858">
        <ele>0</ele>
        <time>2026-08-28T09:07:43.000Z</time>
      </trkpt>
      <trkpt lat="43.71696447953582" lon="111.90675496123731">
        <ele>975.8</ele>
        <time>2026-08-28T09:07:46.000Z</time>
      </trkpt>
      <trkpt lat="43.71675853617489" lon="111.90646796487272">
        <ele>975.6</ele>
        <time>2026-08-28T09:07:56.000Z</time>
      </trkpt>
      <trkpt lat="43.716610511764884" lon="111.90638422966003">
        <ele>975.4</ele>
        <time>2026-08-28T09:08:06.000Z</time>
      </trkpt>
      <trkpt lat="43.716642279177904" lon="111.90632815472782">
        <ele>975.4</ele>
        <time>2026-08-28T09:08:10.000Z</time>
      </trkpt>
      <trkpt lat="43.71667220257223" lon="111.90645053051412">
        <ele>975.4</ele>
        <time>2026-08-28T09:08:16.000Z</time>
      </trkpt>
      <trkpt lat="43.71697889640927" lon="111.90678957849741">
        <ele>976</ele>
        <time>2026-08-28T09:15:53.000Z</time>
      </trkpt>
      <trkpt lat="43.71706539765" lon="111.90707514993846">
        <ele>976</ele>
        <time>2026-08-28T09:16:03.000Z</time>
      </trkpt>
      <trkpt lat="43.71698476374149" lon="111.90717078745365">
        <ele>976.2</ele>
        <time>2026-08-28T09:16:06.000Z</time>
      </trkpt>
      <trkpt lat="43.71686649508774" lon="111.90734814852476">
        <ele>976</ele>
        <time>2026-08-28T09:16:11.000Z</time>
      </trkpt>
      <trkpt lat="43.716666754335165" lon="111.90761368721724">
        <ele>976.2</ele>
        <time>2026-08-28T09:16:19.000Z</time>
      </trkpt>
      <trkpt lat="43.716308092698455" lon="111.90808198414743">
        <ele>975.8</ele>
        <time>2026-08-28T09:16:35.000Z</time>
      </trkpt>
      <trkpt lat="43.71599008329213" lon="111.90849722363055">
        <ele>976.2</ele>
        <time>2026-08-28T09:16:51.000Z</time>
      </trkpt>
      <trkpt lat="43.71573569253087" lon="111.90883928909898">
        <ele>976.2</ele>
        <time>2026-08-28T09:17:02.000Z</time>
      </trkpt>
      <trkpt lat="43.71565707027912" lon="111.90894632600248">
        <ele>976.2</ele>
        <time>2026-08-28T09:17:05.000Z</time>
      </trkpt>
      <trkpt lat="43.715601498261094" lon="111.90901832655072">
        <ele>976.2</ele>
        <time>2026-08-28T09:17:07.000Z</time>
      </trkpt>
      <trkpt lat="43.715515499934554" lon="111.90912930294871">
        <ele>976</ele>
        <time>2026-08-28T09:17:10.000Z</time>
      </trkpt>
      <trkpt lat="43.71518240310252" lon="111.90954345278442">
        <ele>976</ele>
        <time>2026-08-28T09:17:23.000Z</time>
      </trkpt>
      <trkpt lat="43.71511132456362" lon="111.90960790961981">
        <ele>976</ele>
        <time>2026-08-28T09:17:25.000Z</time>
      </trkpt>
      <trkpt lat="43.714834386482835" lon="111.90997218713164">
        <ele>975.8</ele>
        <time>2026-08-28T09:17:34.000Z</time>
      </trkpt>
      <trkpt lat="43.7143665086478" lon="111.9106134865433">
        <ele>976</ele>
        <time>2026-08-28T09:17:51.000Z</time>
      </trkpt>
      <trkpt lat="43.71386510320008" lon="111.91127188503742">
        <ele>975.6</ele>
        <time>2026-08-28T09:18:07.000Z</time>
      </trkpt>
      <trkpt lat="43.713433435186744" lon="111.91185962408781">
        <ele>975.6</ele>
        <time>2026-08-28T09:18:23.000Z</time>
      </trkpt>
      <trkpt lat="43.71303831227124" lon="111.91236714832485">
        <ele>975.4</ele>
        <time>2026-08-28T09:18:39.000Z</time>
      </trkpt>
      <trkpt lat="43.71260312385857" lon="111.9129426497966">
        <ele>975.2</ele>
        <time>2026-08-28T09:18:55.000Z</time>
      </trkpt>
      <trkpt lat="43.712143460288644" lon="111.91357799805701">
        <ele>975.4</ele>
        <time>2026-08-28T09:19:11.000Z</time>
      </trkpt>
      <trkpt lat="43.711702236905694" lon="111.91419331356883">
        <ele>975.4</ele>
        <time>2026-08-28T09:19:27.000Z</time>
      </trkpt>
      <trkpt lat="43.711378276348114" lon="111.91462992690504">
        <ele>975.2</ele>
        <time>2026-08-28T09:19:41.000Z</time>
      </trkpt>
      <trkpt lat="43.711110977455974" lon="111.91498515196145">
        <ele>975</ele>
        <time>2026-08-28T09:19:53.000Z</time>
      </trkpt>
      <trkpt lat="43.710921462625265" lon="111.91511976532638">
        <ele>974.8</ele>
        <time>2026-08-28T09:20:02.000Z</time>
      </trkpt>
      <trkpt lat="43.71077075600624" lon="111.91546719521284">
        <ele>974.8</ele>
        <time>2026-08-28T09:20:13.000Z</time>
      </trkpt>
      <trkpt lat="43.71050337329507" lon="111.91584656015038">
        <ele>974.8</ele>
        <time>2026-08-28T09:20:40.000Z</time>
      </trkpt>
      <trkpt lat="43.71019810438156" lon="111.91626532003284">
        <ele>974.6</ele>
        <time>2026-08-28T09:20:56.000Z</time>
      </trkpt>
      <trkpt lat="43.710094755515456" lon="111.91638870164752">
        <ele>974.6</ele>
        <time>2026-08-28T09:21:11.000Z</time>
      </trkpt>
      <trkpt lat="43.71020330116153" lon="111.91625216044486">
        <ele>974.8</ele>
        <time>2026-08-28T09:21:37.000Z</time>
      </trkpt>
      <trkpt lat="43.71037697419524" lon="111.91611092537642">
        <ele>974.8</ele>
        <time>2026-08-28T09:21:54.000Z</time>
      </trkpt>
      <trkpt lat="43.71061820536852" lon="111.91574094817042">
        <ele>975</ele>
        <time>2026-08-28T09:22:07.000Z</time>
      </trkpt>
      <trkpt lat="43.71070411987603" lon="111.91554062068462">
        <ele>974.8</ele>
        <time>2026-08-28T09:22:25.000Z</time>
      </trkpt>
      <trkpt lat="43.710749885067344" lon="111.91547046415508">
        <ele>974.6</ele>
        <time>2026-08-28T09:25:45.000Z</time>
      </trkpt>
    </trkseg>
  </trk>
</gpx>