<?xml version="1.0" encoding="UTF-8"?>
<gpx creator="IGPSPORT" xmlns:xsi="http://www.w3.org/2001/XMLSchema-instance" schemaLocation="http://www.topografix.com/GPX/1/1 http://www.topografix.com/GPX/1/1/gpx.xsd" version="1.1" xmlns="http://www.topografix.com/GPX/1/1">
  <metadata>
    <time>2026-09-22T10:52:02.000Z</time>
    <link href="https://www.igpsport.cn/">
      <text>Велоспорт на свежем воздухе</text>
    </link>
  </metadata>
  <trk>
    <name>Велоспорт на свежем воздухе</name>
    <trkseg>
      <trkpt lat="43.264306001365185" lon="131.97622465901077">
        <ele>29</ele>
        <time>2026-09-22T10:57:50.000Z</time>
      </trkpt>
      <trkpt lat="43.264442794024944" lon="131.97641417384148">
        <ele>29.4</ele>
        <time>2026-09-22T10:58:07.000Z</time>
      </trkpt>
      <trkpt lat="43.26447539962828" lon="131.9764237292111">
        <ele>29.8</ele>
        <time>2026-09-22T10:58:10.000Z</time>
      </trkpt>
      <trkpt lat="43.26449677348137" lon="131.9764274172485">
        <ele>29.8</ele>
        <time>2026-09-22T10:58:12.000Z</time>
      </trkpt>
      <trkpt lat="43.264519488438964" lon="131.97643227875233">
        <ele>30</ele>
        <time>2026-09-22T10:58:14.000Z</time>
      </trkpt>
      <trkpt lat="43.26457388699055" lon="131.97643655352294">
        <ele>30.8</ele>
        <time>2026-09-22T10:58:20.000Z</time>
      </trkpt>
      <trkpt lat="43.26459391973913" lon="131.97643018327653">
        <ele>31</ele>
        <time>2026-09-22T10:58:22.000Z</time>
      </trkpt>
      <trkpt lat="43.26461512595415" lon="131.97642096318305">
        <ele>31.2</ele>
        <time>2026-09-22T10:58:24.000Z</time>
      </trkpt>
      <trkpt lat="43.264650916680694" lon="131.97640855796635">
        <ele>31.6</ele>
        <time>2026-09-22T10:58:28.000Z</time>
      </trkpt>
      <trkpt lat="43.26466818340123" lon="131.97640042752028">
        <ele>31.8</ele>
        <time>2026-09-22T10:58:30.000Z</time>
      </trkpt>
      <trkpt lat="43.26468586921692" lon="131.9763904530555">
        <ele>32.2</ele>
        <time>2026-09-22T10:58:32.000Z</time>
      </trkpt>
      <trkpt lat="43.26475133188069" lon="131.9763399939984">
        <ele>33.6</ele>
        <time>2026-09-22T10:58:42.000Z</time>
      </trkpt>
      <trkpt lat="43.26488368213177" lon="131.97619867511094">
        <ele>36.4</ele>
        <time>2026-09-22T10:59:05.000Z</time>
      </trkpt>
      <trkpt lat="43.265007734298706" lon="131.97602299042046">
        <ele>38.4</ele>
        <time>2026-09-22T10:59:30.000Z</time>
      </trkpt>
      <trkpt lat="43.265148382633924" lon="131.97582425549626">
        <ele>41</ele>
        <time>2026-09-22T10:59:57.000Z</time>
      </trkpt>
      <trkpt lat="43.265341920778155" lon="131.97562308982015">
        <ele>43</ele>
        <time>2026-09-22T11:00:24.000Z</time>
      </trkpt>
      <trkpt lat="43.26547846198082" lon="131.97553147561848">
        <ele>44.2</ele>
        <time>2026-09-22T11:00:40.000Z</time>
      </trkpt>
      <trkpt lat="43.26566562987864" lon="131.97540541179478">
        <ele>44.8</ele>
        <time>2026-09-22T11:01:01.000Z</time>
      </trkpt>
      <trkpt lat="43.265770487487316" lon="131.975221009925">
        <ele>45</ele>
        <time>2026-09-22T11:01:16.000Z</time>
      </trkpt>
      <trkpt lat="43.26579957269132" lon="131.97501515038311">
        <ele>45.2</ele>
        <time>2026-09-22T11:01:30.000Z</time>
      </trkpt>
      <trkpt lat="43.26565590687096" lon="131.97485715150833">
        <ele>45.2</ele>
        <time>2026-09-22T11:01:46.000Z</time>
      </trkpt>
      <trkpt lat="43.26550981029868" lon="131.97471256367862">
        <ele>45</ele>
        <time>2026-09-22T11:02:02.000Z</time>
      </trkpt>
      <trkpt lat="43.26535541564226" lon="131.97457258589566">
        <ele>45</ele>
        <time>2026-09-22T11:02:18.000Z</time>
      </trkpt>
      <trkpt lat="43.26519523747265" lon="131.97442011907697">
        <ele>45.2</ele>
        <time>2026-09-22T11:02:35.000Z</time>
      </trkpt>
      <trkpt lat="43.26503271237016" lon="131.97427628561854">
        <ele>45</ele>
        <time>2026-09-22T11:02:51.000Z</time>
      </trkpt>
      <trkpt lat="43.264873372390866" lon="131.97413831949234">
        <ele>45.4</ele>
        <time>2026-09-22T11:03:07.000Z</time>
      </trkpt>
      <trkpt lat="43.26472023501992" lon="131.97399876080453">
        <ele>45.8</ele>
        <time>2026-09-22T11:03:31.000Z</time>
      </trkpt>
      <trkpt lat="43.26456089504063" lon="131.97384897619486">
        <ele>46</ele>
        <time>2026-09-22T11:03:47.000Z</time>
      </trkpt>
      <trkpt lat="43.26442007906735" lon="131.97370816022158">
        <ele>46</ele>
        <time>2026-09-22T11:04:03.000Z</time>
      </trkpt>
      <trkpt lat="43.26436668634415" lon="131.9736477266997">
        <ele>45.8</ele>
        <time>2026-09-22T11:04:10.000Z</time>
      </trkpt>
      <trkpt lat="43.264156971126795" lon="131.9734455551952">
        <ele>45.6</ele>
        <time>2026-09-22T11:04:25.000Z</time>
      </trkpt>
      <trkpt lat="43.263915069401264" lon="131.97324497625232">
        <ele>45.2</ele>
        <time>2026-09-22T11:04:41.000Z</time>
      </trkpt>
      <trkpt lat="43.26375061646104" lon="131.97305948473513">
        <ele>45</ele>
        <time>2026-09-22T11:04:55.000Z</time>
      </trkpt>
      <trkpt lat="43.26353369280696" lon="131.97287139482796">
        <ele>44.8</ele>
        <time>2026-09-22T11:05:11.000Z</time>
      </trkpt>
      <trkpt lat="43.26331618241966" lon="131.9726404733956">
        <ele>44.6</ele>
        <time>2026-09-22T11:05:27.000Z</time>
      </trkpt>
      <trkpt lat="43.26310755684972" lon="131.97244266048074">
        <ele>44.6</ele>
        <time>2026-09-22T11:05:43.000Z</time>
      </trkpt>
      <trkpt lat="43.26295416802168" lon="131.9724745117128">
        <ele>44.8</ele>
        <time>2026-09-22T11:05:54.000Z</time>
      </trkpt>
      <trkpt lat="43.2628426887095" lon="131.9728400465101">
        <ele>45.4</ele>
        <time>2026-09-22T11:06:09.000Z</time>
      </trkpt>
      <trkpt lat="43.262894321233034" lon="131.9729156512767">
        <ele>45.4</ele>
        <time>2026-09-22T11:06:16.000Z</time>
      </trkpt>
      <trkpt lat="43.26279398985207" lon="131.97266838513315">
        <ele>45</ele>
        <time>2026-09-22T11:06:42.000Z</time>
      </trkpt>
      <trkpt lat="43.26269952580333" lon="131.97259646840394">
        <ele>44.6</ele>
        <time>2026-09-22T11:06:47.000Z</time>
      </trkpt>
      <trkpt lat="43.26261352747679" lon="131.97252782061696">
        <ele>44.4</ele>
        <time>2026-09-22T11:06:51.000Z</time>
      </trkpt>
      <trkpt lat="43.262448236346245" lon="131.97230637073517">
        <ele>43.8</ele>
        <time>2026-09-22T11:07:00.000Z</time>
      </trkpt>
      <trkpt lat="43.262226870283484" lon="131.97201224975288">
        <ele>43.2</ele>
        <time>2026-09-22T11:07:17.000Z</time>
      </trkpt>
      <trkpt lat="43.26205017976463" lon="131.97179406881332">
        <ele>41.8</ele>
        <time>2026-09-22T11:07:32.000Z</time>
      </trkpt>
      <trkpt lat="43.26197859831154" lon="131.97167756035924">
        <ele>41.6</ele>
        <time>2026-09-22T11:07:36.000Z</time>
      </trkpt>
      <trkpt lat="43.261825209483504" lon="131.9715696014464">
        <ele>41</ele>
        <time>2026-09-22T11:07:41.000Z</time>
      </trkpt>
      <trkpt lat="43.261757818982005" lon="131.97153020650148">
        <ele>40.6</ele>
        <time>2026-09-22T11:07:43.000Z</time>
      </trkpt>
      <trkpt lat="43.26139630749822" lon="131.97129048407078">
        <ele>37.6</ele>
        <time>2026-09-22T11:07:54.000Z</time>
      </trkpt>
      <trkpt lat="43.26087805442512" lon="131.97095428593457">
        <ele>32.8</ele>
        <time>2026-09-22T11:08:10.000Z</time>
      </trkpt>
      <trkpt lat="43.26074159704149" lon="131.97068841196597">
        <ele>31.2</ele>
        <time>2026-09-22T11:08:15.000Z</time>
      </trkpt>
      <trkpt lat="43.2607495598495" lon="131.97055455297232">
        <ele>30.6</ele>
        <time>2026-09-22T11:08:17.000Z</time>
      </trkpt>
      <trkpt lat="43.26097821816802" lon="131.96999095380306">
        <ele>30.6</ele>
        <time>2026-09-22T11:08:28.000Z</time>
      </trkpt>
      <trkpt lat="43.261169493198395" lon="131.9698985852301">
        <ele>31</ele>
        <time>2026-09-22T11:08:35.000Z</time>
      </trkpt>
      <trkpt lat="43.26139312237501" lon="131.9700492080301">
        <ele>32.4</ele>
        <time>2026-09-22T11:08:48.000Z</time>
      </trkpt>
      <trkpt lat="43.261609291657805" lon="131.97026780806482">
        <ele>35</ele>
        <time>2026-09-22T11:09:04.000Z</time>
      </trkpt>
      <trkpt lat="43.261801321059465" lon="131.97046168148518">
        <ele>37.2</ele>
        <time>2026-09-22T11:09:20.000Z</time>
      </trkpt>
      <trkpt lat="43.26198371127248" lon="131.9706636853516">
        <ele>39.2</ele>
        <time>2026-09-22T11:09:37.000Z</time>
      </trkpt>
      <trkpt lat="43.26217741705477" lon="131.97086736559868">
        <ele>40.6</ele>
        <time>2026-09-22T11:09:53.000Z</time>
      </trkpt>
      <trkpt lat="43.26232183724642" lon="131.97109174914658">
        <ele>41.4</ele>
        <time>2026-09-22T11:10:06.000Z</time>
      </trkpt>
      <trkpt lat="43.262249836698174" lon="131.97119266726077">
        <ele>41.4</ele>
        <time>2026-09-22T11:10:12.000Z</time>
      </trkpt>
      <trkpt lat="43.26191112399101" lon="131.97091857902706">
        <ele>40.8</ele>
        <time>2026-09-22T11:10:25.000Z</time>
      </trkpt>
      <trkpt lat="43.26134232804179" lon="131.97045321576297">
        <ele>39.4</ele>
        <time>2026-09-22T11:10:39.000Z</time>
      </trkpt>
      <trkpt lat="43.260946199297905" lon="131.97010352276266">
        <ele>38.8</ele>
        <time>2026-09-22T11:10:50.000Z</time>
      </trkpt>
      <trkpt lat="43.26034932397306" lon="131.96958912536502">
        <ele>38.2</ele>
        <time>2026-09-22T11:11:06.000Z</time>
      </trkpt>
      <trkpt lat="43.25976250693202" lon="131.9691165536642">
        <ele>37.6</ele>
        <time>2026-09-22T11:11:22.000Z</time>
      </trkpt>
      <trkpt lat="43.25917870737612" lon="131.96867139078677">
        <ele>37</ele>
        <time>2026-09-22T11:11:38.000Z</time>
      </trkpt>
      <trkpt lat="43.258655089884996" lon="131.96829554624856">
        <ele>36.4</ele>
        <time>2026-09-22T11:11:55.000Z</time>
      </trkpt>
      <trkpt lat="43.25809467583895" lon="131.96791207417846">
        <ele>36.2</ele>
        <time>2026-09-22T11:12:11.000Z</time>
      </trkpt>
      <trkpt lat="43.25754323042929" lon="131.96755232289433">
        <ele>36.6</ele>
        <time>2026-09-22T11:12:27.000Z</time>
      </trkpt>
      <trkpt lat="43.25698717497289" lon="131.9672107603401">
        <ele>36.4</ele>
        <time>2026-09-22T11:12:43.000Z</time>
      </trkpt>
      <trkpt lat="43.25647059828043" lon="131.96691420860589">
        <ele>36.6</ele>
        <time>2026-09-22T11:12:59.000Z</time>
      </trkpt>
      <trkpt lat="43.255878668278456" lon="131.9665925949812">
        <ele>36.8</ele>
        <time>2026-09-22T11:13:15.000Z</time>
      </trkpt>
      <trkpt lat="43.25534482486546" lon="131.9663148187101">
        <ele>36.8</ele>
        <time>2026-09-22T11:13:31.000Z</time>
      </trkpt>
      <trkpt lat="43.254845682531595" lon="131.96607610210776">
        <ele>36.4</ele>
        <time>2026-09-22T11:13:47.000Z</time>
      </trkpt>
      <trkpt lat="43.25432441197336" lon="131.96583772078156">
        <ele>36.4</ele>
        <time>2026-09-22T11:14:03.000Z</time>
      </trkpt>
      <trkpt lat="43.25375008396804" lon="131.9655938912183">
        <ele>36.6</ele>
        <time>2026-09-22T11:14:20.000Z</time>
      </trkpt>
      <trkpt lat="43.25314876623452" lon="131.96535827592015">
        <ele>36.4</ele>
        <time>2026-09-22T11:14:36.000Z</time>
      </trkpt>
      <trkpt lat="43.252537390217185" lon="131.96514344774187">
        <ele>36.6</ele>
        <time>2026-09-22T11:14:52.000Z</time>
      </trkpt>
      <trkpt lat="43.25199340470135" lon="131.96496902033687">
        <ele>36.6</ele>
        <time>2026-09-22T11:15:08.000Z</time>
      </trkpt>
      <trkpt lat="43.251429554075" lon="131.96480247192085">
        <ele>36.8</ele>
        <time>2026-09-22T11:15:24.000Z</time>
      </trkpt>
      <trkpt lat="43.250816417858005" lon="131.96464145556092">
        <ele>36.4</ele>
        <time>2026-09-22T11:15:40.000Z</time>
      </trkpt>
      <trkpt lat="43.25021811760962" lon="131.96450172923505">
        <ele>36.4</ele>
        <time>2026-09-22T11:15:56.000Z</time>
      </trkpt>
      <trkpt lat="43.24966021813452" lon="131.9643910881132">
        <ele>36.4</ele>
        <time>2026-09-22T11:16:12.000Z</time>
      </trkpt>
      <trkpt lat="43.2491572201252" lon="131.9642999768257">
        <ele>36.4</ele>
        <time>2026-09-22T11:16:28.000Z</time>
      </trkpt>
      <trkpt lat="43.24863586574793" lon="131.96422060020268">
        <ele>36.4</ele>
        <time>2026-09-22T11:16:45.000Z</time>
      </trkpt>
      <trkpt lat="43.24808148667216" lon="131.96415136568248">
        <ele>36.4</ele>
        <time>2026-09-22T11:17:01.000Z</time>
      </trkpt>
      <trkpt lat="43.24750137515366" lon="131.96409436874092">
        <ele>36.4</ele>
        <time>2026-09-22T11:17:17.000Z</time>
      </trkpt>
      <trkpt lat="43.24700877070427" lon="131.96406167931855">
        <ele>36.4</ele>
        <time>2026-09-22T11:17:33.000Z</time>
      </trkpt>
      <trkpt lat="43.24643209576607" lon="131.96403519250453">
        <ele>36.6</ele>
        <time>2026-09-22T11:17:49.000Z</time>
      </trkpt>
      <trkpt lat="43.24584871530533" lon="131.96402488276362">
        <ele>36.6</ele>
        <time>2026-09-22T11:18:05.000Z</time>
      </trkpt>
      <trkpt lat="43.24525418691337" lon="131.9640290737152">
        <ele>36.4</ele>
        <time>2026-09-22T11:18:21.000Z</time>
      </trkpt>
      <trkpt lat="43.244705591350794" lon="131.9640488550067">
        <ele>36.6</ele>
        <time>2026-09-22T11:18:37.000Z</time>
      </trkpt>
      <trkpt lat="43.24421089142561" lon="131.96406830102205">
        <ele>36.2</ele>
        <time>2026-09-22T11:18:53.000Z</time>
      </trkpt>
      <trkpt lat="43.24365911073983" lon="131.9640895910561">
        <ele>36.6</ele>
        <time>2026-09-22T11:19:10.000Z</time>
      </trkpt>
      <trkpt lat="43.24309140443802" lon="131.96410895325243">
        <ele>36.6</ele>
        <time>2026-09-22T11:19:26.000Z</time>
      </trkpt>
      <trkpt lat="43.24250131845474" lon="131.96413166821003">
        <ele>36.6</ele>
        <time>2026-09-22T11:19:42.000Z</time>
      </trkpt>
      <trkpt lat="43.24199941009283" lon="131.9641524553299">
        <ele>36.4</ele>
        <time>2026-09-22T11:19:58.000Z</time>
      </trkpt>
      <trkpt lat="43.24139432050288" lon="131.96417558938265">
        <ele>36.6</ele>
        <time>2026-09-22T11:20:14.000Z</time>
      </trkpt>
      <trkpt lat="43.240821585059166" lon="131.96419939398766">
        <ele>36.6</ele>
        <time>2026-09-22T11:20:30.000Z</time>
      </trkpt>
      <trkpt lat="43.24027508497238" lon="131.96422420442104">
        <ele>36.4</ele>
        <time>2026-09-22T11:20:46.000Z</time>
      </trkpt>
      <trkpt lat="43.23974099010229" lon="131.9642436504364">
        <ele>36.8</ele>
        <time>2026-09-22T11:21:02.000Z</time>
      </trkpt>
      <trkpt lat="43.2391965854913" lon="131.96426368318498">
        <ele>36.8</ele>
        <time>2026-09-22T11:21:18.000Z</time>
      </trkpt>
      <trkpt lat="43.23864363133907" lon="131.9642840512097">
        <ele>36.6</ele>
        <time>2026-09-22T11:21:35.000Z</time>
      </trkpt>
      <trkpt lat="43.238084306940436" lon="131.96430567651987">
        <ele>36.6</ele>
        <time>2026-09-22T11:21:51.000Z</time>
      </trkpt>
      <trkpt lat="43.23752900585532" lon="131.96432596072555">
        <ele>36.8</ele>
        <time>2026-09-22T11:22:07.000Z</time>
      </trkpt>
      <trkpt lat="43.23698996566236" lon="131.9643485918641">
        <ele>36.6</ele>
        <time>2026-09-22T11:22:23.000Z</time>
      </trkpt>
      <trkpt lat="43.236402310431004" lon="131.9643704686314">
        <ele>36.6</ele>
        <time>2026-09-22T11:22:39.000Z</time>
      </trkpt>
      <trkpt lat="43.235823791474104" lon="131.96439125575125">
        <ele>36.8</ele>
        <time>2026-09-22T11:22:55.000Z</time>
      </trkpt>
      <trkpt lat="43.23527050204575" lon="131.96441179141402">
        <ele>36.6</ele>
        <time>2026-09-22T11:23:11.000Z</time>
      </trkpt>
      <trkpt lat="43.23472257703543" lon="131.96443308144808">
        <ele>36.8</ele>
        <time>2026-09-22T11:23:27.000Z</time>
      </trkpt>
      <trkpt lat="43.2341696228832" lon="131.96445495821536">
        <ele>36.8</ele>
        <time>2026-09-22T11:23:43.000Z</time>
      </trkpt>
      <trkpt lat="43.233604012057185" lon="131.96447691880167">
        <ele>37</ele>
        <time>2026-09-22T11:24:00.000Z</time>
      </trkpt>
      <trkpt lat="43.2330453582108" lon="131.96450072340667">
        <ele>36.8</ele>
        <time>2026-09-22T11:24:16.000Z</time>
      </trkpt>
      <trkpt lat="43.232489470392466" lon="131.96451857686043">
        <ele>37</ele>
        <time>2026-09-22T11:24:32.000Z</time>
      </trkpt>
      <trkpt lat="43.2319749891758" lon="131.96453902870417">
        <ele>36.8</ele>
        <time>2026-09-22T11:24:48.000Z</time>
      </trkpt>
      <trkpt lat="43.23139068670571" lon="131.9645629171282">
        <ele>37</ele>
        <time>2026-09-22T11:25:04.000Z</time>
      </trkpt>
      <trkpt lat="43.230882408097386" lon="131.96458261460066">
        <ele>36.8</ele>
        <time>2026-09-22T11:25:20.000Z</time>
      </trkpt>
      <trkpt lat="43.23036700487137" lon="131.96460382081568">
        <ele>37</ele>
        <time>2026-09-22T11:25:36.000Z</time>
      </trkpt>
      <trkpt lat="43.22986191138625" lon="131.96462326683104">
        <ele>36.8</ele>
        <time>2026-09-22T11:25:52.000Z</time>
      </trkpt>
      <trkpt lat="43.229351956397295" lon="131.96464329957962">
        <ele>36.8</ele>
        <time>2026-09-22T11:26:08.000Z</time>
      </trkpt>
      <trkpt lat="43.22880738414824" lon="131.96466375142336">
        <ele>36.8</ele>
        <time>2026-09-22T11:26:25.000Z</time>
      </trkpt>
      <trkpt lat="43.22826591320336" lon="131.9646862987429">
        <ele>37</ele>
        <time>2026-09-22T11:26:41.000Z</time>
      </trkpt>
      <trkpt lat="43.22779451496899" lon="131.96470314636827">
        <ele>37.2</ele>
        <time>2026-09-22T11:26:57.000Z</time>
      </trkpt>
      <trkpt lat="43.227297803387046" lon="131.9647185690701">
        <ele>37</ele>
        <time>2026-09-22T11:27:13.000Z</time>
      </trkpt>
      <trkpt lat="43.22678558528423" lon="131.96473910473287">
        <ele>37.6</ele>
        <time>2026-09-22T11:27:29.000Z</time>
      </trkpt>
      <trkpt lat="43.22629583068192" lon="131.9647582154721">
        <ele>38.8</ele>
        <time>2026-09-22T11:27:45.000Z</time>
      </trkpt>
      <trkpt lat="43.22588670998812" lon="131.96477397345006">
        <ele>39.6</ele>
        <time>2026-09-22T11:28:01.000Z</time>
      </trkpt>
      <trkpt lat="43.22550231590867" lon="131.9647930841893">
        <ele>41.2</ele>
        <time>2026-09-22T11:28:17.000Z</time>
      </trkpt>
      <trkpt lat="43.22516620159149" lon="131.96480222046375">
        <ele>42.8</ele>
        <time>2026-09-22T11:28:34.000Z</time>
      </trkpt>
      <trkpt lat="43.22483628988266" lon="131.96481672115624">
        <ele>44</ele>
        <time>2026-09-22T11:28:50.000Z</time>
      </trkpt>
      <trkpt lat="43.22450637817383" lon="131.96482309140265">
        <ele>45.4</ele>
        <time>2026-09-22T11:29:06.000Z</time>
      </trkpt>
      <trkpt lat="43.22418065741658" lon="131.9647997058928">
        <ele>46.6</ele>
        <time>2026-09-22T11:29:22.000Z</time>
      </trkpt>
      <trkpt lat="43.22385627776384" lon="131.96478336118162">
        <ele>47.8</ele>
        <time>2026-09-22T11:29:38.000Z</time>
      </trkpt>
      <trkpt lat="43.223504489287734" lon="131.96477070450783">
        <ele>49</ele>
        <time>2026-09-22T11:29:54.000Z</time>
      </trkpt>
      <trkpt lat="43.22319058701396" lon="131.96475930511951">
        <ele>50</ele>
        <time>2026-09-22T11:30:10.000Z</time>
      </trkpt>
      <trkpt lat="43.22285799309611" lon="131.96473902091384">
        <ele>50.8</ele>
        <time>2026-09-22T11:30:26.000Z</time>
      </trkpt>
      <trkpt lat="43.22249949909747" lon="131.96471312083304">
        <ele>51.4</ele>
        <time>2026-09-22T11:30:42.000Z</time>
      </trkpt>
      <trkpt lat="43.22215131483972" lon="131.9646225962788">
        <ele>52</ele>
        <time>2026-09-22T11:30:59.000Z</time>
      </trkpt>
      <trkpt lat="43.22182911448181" lon="131.96427365764976">
        <ele>51.6</ele>
        <time>2026-09-22T11:31:14.000Z</time>
      </trkpt>
      <trkpt lat="43.22147883474827" lon="131.9637354556471">
        <ele>49.2</ele>
        <time>2026-09-22T11:31:30.000Z</time>
      </trkpt>
      <trkpt lat="43.22102109901607" lon="131.96302802301943">
        <ele>46</ele>
        <time>2026-09-22T11:31:46.000Z</time>
      </trkpt>
      <trkpt lat="43.22060418315232" lon="131.96267581544816">
        <ele>43.6</ele>
        <time>2026-09-22T11:31:57.000Z</time>
      </trkpt>
      <trkpt lat="43.22018265724182" lon="131.96243609301746">
        <ele>41</ele>
        <time>2026-09-22T11:32:06.000Z</time>
      </trkpt>
      <trkpt lat="43.21943742223084" lon="131.96206720545888">
        <ele>37</ele>
        <time>2026-09-22T11:32:22.000Z</time>
      </trkpt>
      <trkpt lat="43.21888539008796" lon="131.96146320551634">
        <ele>34.8</ele>
        <time>2026-09-22T11:32:38.000Z</time>
      </trkpt>
      <trkpt lat="43.21850426495075" lon="131.96099708788097">
        <ele>34.4</ele>
        <time>2026-09-22T11:32:48.000Z</time>
      </trkpt>
      <trkpt lat="43.217883836477995" lon="131.96016618981957">
        <ele>33.6</ele>
        <time>2026-09-22T11:33:04.000Z</time>
      </trkpt>
      <trkpt lat="43.21741838939488" lon="131.9594954699278">
        <ele>34</ele>
        <time>2026-09-22T11:33:21.000Z</time>
      </trkpt>
      <trkpt lat="43.217150419950485" lon="131.95913462899625">
        <ele>34.8</ele>
        <time>2026-09-22T11:33:37.000Z</time>
      </trkpt>
      <trkpt lat="43.216861076653004" lon="131.95872441865504">
        <ele>35.2</ele>
        <time>2026-09-22T11:33:53.000Z</time>
      </trkpt>
      <trkpt lat="43.216609954833984" lon="131.95838092826307">
        <ele>35.4</ele>
        <time>2026-09-22T11:34:09.000Z</time>
      </trkpt>
      <trkpt lat="43.216435527428985" lon="131.9581106118858">
        <ele>35.6</ele>
        <time>2026-09-22T11:34:25.000Z</time>
      </trkpt>
      <trkpt lat="43.216124726459384" lon="131.95769277401268">
        <ele>36.2</ele>
        <time>2026-09-22T11:34:41.000Z</time>
      </trkpt>
      <trkpt lat="43.21613763459027" lon="131.957542989403">
        <ele>35.8</ele>
        <time>2026-09-22T11:34:48.000Z</time>
      </trkpt>
      <trkpt lat="43.216050462797284" lon="131.9574647024274">
        <ele>36</ele>
        <time>2026-09-22T11:34:58.000Z</time>
      </trkpt>
      <trkpt lat="43.21590528823435" lon="131.9574144948274">
        <ele>37.4</ele>
        <time>2026-09-22T11:35:10.000Z</time>
      </trkpt>
      <trkpt lat="43.2156990095973" lon="131.95713839493692">
        <ele>39.4</ele>
        <time>2026-09-22T11:35:26.000Z</time>
      </trkpt>
      <trkpt lat="43.21549608372152" lon="131.95691878907382">
        <ele>41.6</ele>
        <time>2026-09-22T11:35:43.000Z</time>
      </trkpt>
      <trkpt lat="43.21533062495291" lon="131.95669708773494">
        <ele>43.4</ele>
        <time>2026-09-22T11:35:59.000Z</time>
      </trkpt>
      <trkpt lat="43.21516240015626" lon="131.95647270418704">
        <ele>45.4</ele>
        <time>2026-09-22T11:36:15.000Z</time>
      </trkpt>
      <trkpt lat="43.214999036863446" lon="131.95625418797135">
        <ele>47.2</ele>
        <time>2026-09-22T11:36:31.000Z</time>
      </trkpt>
      <trkpt lat="43.21483466774225" lon="131.95605008862913">
        <ele>49</ele>
        <time>2026-09-22T11:36:47.000Z</time>
      </trkpt>
      <trkpt lat="43.21466007269919" lon="131.9558195862919">
        <ele>50.8</ele>
        <time>2026-09-22T11:37:03.000Z</time>
      </trkpt>
      <trkpt lat="43.214495703577995" lon="131.95559562183917">
        <ele>52.4</ele>
        <time>2026-09-22T11:37:19.000Z</time>
      </trkpt>
      <trkpt lat="43.21430618874729" lon="131.95535908453166">
        <ele>54.4</ele>
        <time>2026-09-22T11:37:35.000Z</time>
      </trkpt>
      <trkpt lat="43.21410778909922" lon="131.95508030243218">
        <ele>56</ele>
        <time>2026-09-22T11:37:51.000Z</time>
      </trkpt>
      <trkpt lat="43.214018354192376" lon="131.95486480370164">
        <ele>56.2</ele>
        <time>2026-09-22T11:38:01.000Z</time>
      </trkpt>
      <trkpt lat="43.21382909081876" lon="131.9547090679407">
        <ele>58.2</ele>
        <time>2026-09-22T11:38:16.000Z</time>
      </trkpt>
      <trkpt lat="43.213702607899904" lon="131.95452550426126">
        <ele>58.6</ele>
        <time>2026-09-22T11:38:30.000Z</time>
      </trkpt>
      <trkpt lat="43.213493982329965" lon="131.95425678044558">
        <ele>61.2</ele>
        <time>2026-09-22T11:59:31.000Z</time>
      </trkpt>
      <trkpt lat="43.21323766373098" lon="131.95390289649367">
        <ele>61.6</ele>
        <time>2026-09-22T11:59:47.000Z</time>
      </trkpt>
      <trkpt lat="43.21294555440545" lon="131.95348422043025">
        <ele>61.2</ele>
        <time>2026-09-22T12:00:03.000Z</time>
      </trkpt>
      <trkpt lat="43.212658474221826" lon="131.9530437514186">
        <ele>61</ele>
        <time>2026-09-22T12:00:18.000Z</time>
      </trkpt>
      <trkpt lat="43.21239251643419" lon="131.952666901052">
        <ele>60.8</ele>
        <time>2026-09-22T12:00:34.000Z</time>
      </trkpt>
      <trkpt lat="43.21229076012969" lon="131.95249850861728">
        <ele>60</ele>
        <time>2026-09-22T12:00:50.000Z</time>
      </trkpt>
      <trkpt lat="43.21193897165358" lon="131.95207128301263">
        <ele>59.8</ele>
        <time>2026-09-22T12:01:11.000Z</time>
      </trkpt>
      <trkpt lat="43.21160486899316" lon="131.9516102783382">
        <ele>60.2</ele>
        <time>2026-09-22T12:01:27.000Z</time>
      </trkpt>
      <trkpt lat="43.211324997246265" lon="131.95118858478963">
        <ele>60.8</ele>
        <time>2026-09-22T12:01:44.000Z</time>
      </trkpt>
      <trkpt lat="43.211022494360805" lon="131.95086227729917">
        <ele>62.2</ele>
        <time>2026-09-22T12:02:00.000Z</time>
      </trkpt>
      <trkpt lat="43.210755279287696" lon="131.95055189542472">
        <ele>63.4</ele>
        <time>2026-09-22T12:02:16.000Z</time>
      </trkpt>
      <trkpt lat="43.21049812249839" lon="131.95029817521572">
        <ele>65.4</ele>
        <time>2026-09-22T12:02:32.000Z</time>
      </trkpt>
      <trkpt lat="43.210248090326786" lon="131.95010907948017">
        <ele>67.6</ele>
        <time>2026-09-22T12:02:48.000Z</time>
      </trkpt>
      <trkpt lat="43.20999822579324" lon="131.94993398152292">
        <ele>69.6</ele>
        <time>2026-09-22T12:03:04.000Z</time>
      </trkpt>
      <trkpt lat="43.20976889692247" lon="131.94975829683244">
        <ele>72</ele>
        <time>2026-09-22T12:03:20.000Z</time>
      </trkpt>
      <trkpt lat="43.20953202433884" lon="131.94963256828487">
        <ele>74</ele>
        <time>2026-09-22T12:03:36.000Z</time>
      </trkpt>
      <trkpt lat="43.2093043718487" lon="131.94954472593963">
        <ele>75.8</ele>
        <time>2026-09-22T12:03:52.000Z</time>
      </trkpt>
      <trkpt lat="43.20905903354287" lon="131.94949896074831">
        <ele>77.8</ele>
        <time>2026-09-22T12:04:09.000Z</time>
      </trkpt>
      <trkpt lat="43.20880782790482" lon="131.94944162853062">
        <ele>79.4</ele>
        <time>2026-09-22T12:04:25.000Z</time>
      </trkpt>
      <trkpt lat="43.20856098085642" lon="131.94940181449056">
        <ele>81</ele>
        <time>2026-09-22T12:04:41.000Z</time>
      </trkpt>
      <trkpt lat="43.20831296034157" lon="131.9493889901787">
        <ele>82.6</ele>
        <time>2026-09-22T12:04:57.000Z</time>
      </trkpt>
      <trkpt lat="43.208048259839416" lon="131.9493889901787">
        <ele>84.4</ele>
        <time>2026-09-22T12:05:13.000Z</time>
      </trkpt>
      <trkpt lat="43.20778087712824" lon="131.94939301349223">
        <ele>86.4</ele>
        <time>2026-09-22T12:05:29.000Z</time>
      </trkpt>
      <trkpt lat="43.20751676335931" lon="131.94939309731126">
        <ele>88</ele>
        <time>2026-09-22T12:05:45.000Z</time>
      </trkpt>
      <trkpt lat="43.20724753662944" lon="131.94939728826284">
        <ele>90.2</ele>
        <time>2026-09-22T12:06:01.000Z</time>
      </trkpt>
      <trkpt lat="43.20698920637369" lon="131.94940357469022">
        <ele>92.2</ele>
        <time>2026-09-22T12:06:17.000Z</time>
      </trkpt>
      <trkpt lat="43.2067368272692" lon="131.94941346533597">
        <ele>94.4</ele>
        <time>2026-09-22T12:06:34.000Z</time>
      </trkpt>
      <trkpt lat="43.2064966019243" lon="131.9493876490742">
        <ele>96.4</ele>
        <time>2026-09-22T12:06:50.000Z</time>
      </trkpt>
      <trkpt lat="43.206252017989755" lon="131.94938748143613">
        <ele>98.2</ele>
        <time>2026-09-22T12:07:06.000Z</time>
      </trkpt>
      <trkpt lat="43.20603526197374" lon="131.9493926782161">
        <ele>100.4</ele>
        <time>2026-09-22T12:07:22.000Z</time>
      </trkpt>
      <trkpt lat="43.20580811239779" lon="131.94939334876835">
        <ele>102</ele>
        <time>2026-09-22T12:07:38.000Z</time>
      </trkpt>
      <trkpt lat="43.20555598475039" lon="131.94939837791026">
        <ele>103.6</ele>
        <time>2026-09-22T12:07:54.000Z</time>
      </trkpt>
      <trkpt lat="43.20531466975808" lon="131.94940340705216">
        <ele>105.4</ele>
        <time>2026-09-22T12:08:10.000Z</time>
      </trkpt>
      <trkpt lat="43.20508006028831" lon="131.94939871318638">
        <ele>107.4</ele>
        <time>2026-09-22T12:08:26.000Z</time>
      </trkpt>
      <trkpt lat="43.20484880357981" lon="131.949408268556">
        <ele>109.2</ele>
        <time>2026-09-22T12:08:43.000Z</time>
      </trkpt>
      <trkpt lat="43.20461243391037" lon="131.9494119565934">
        <ele>110.8</ele>
        <time>2026-09-22T12:08:59.000Z</time>
      </trkpt>
      <trkpt lat="43.20440917275846" lon="131.9494183268398">
        <ele>112.6</ele>
        <time>2026-09-22T12:09:15.000Z</time>
      </trkpt>
      <trkpt lat="43.204613188281655" lon="131.94908782839775">
        <ele>113.4</ele>
        <time>2026-09-22T12:09:22.000Z</time>
      </trkpt>
      <trkpt lat="43.2040651794523" lon="131.9493982102722">
        <ele>115.4</ele>
        <time>2026-09-22T12:09:39.000Z</time>
      </trkpt>
      <trkpt lat="43.203818164765835" lon="131.94942159578204">
        <ele>116.8</ele>
        <time>2026-09-22T12:09:55.000Z</time>
      </trkpt>
      <trkpt lat="43.20357609540224" lon="131.94943249225616">
        <ele>118.8</ele>
        <time>2026-09-22T12:10:11.000Z</time>
      </trkpt>
      <trkpt lat="43.20333746261895" lon="131.94942712783813">
        <ele>120.4</ele>
        <time>2026-09-22T12:10:27.000Z</time>
      </trkpt>
      <trkpt lat="43.20311123505235" lon="131.94942846894264">
        <ele>122.2</ele>
        <time>2026-09-22T12:10:43.000Z</time>
      </trkpt>
      <trkpt lat="43.20289137773216" lon="131.9494386948645">
        <ele>124</ele>
        <time>2026-09-22T12:10:59.000Z</time>
      </trkpt>
      <trkpt lat="43.202669424936175" lon="131.94943056441844">
        <ele>125.6</ele>
        <time>2026-09-22T12:11:16.000Z</time>
      </trkpt>
      <trkpt lat="43.202442694455385" lon="131.94943752139807">
        <ele>127.8</ele>
        <time>2026-09-22T12:11:32.000Z</time>
      </trkpt>
      <trkpt lat="43.202229626476765" lon="131.94943517446518">
        <ele>129.6</ele>
        <time>2026-09-22T12:11:48.000Z</time>
      </trkpt>
      <trkpt lat="43.202010188251734" lon="131.94944187998772">
        <ele>131.6</ele>
        <time>2026-09-22T12:12:04.000Z</time>
      </trkpt>
      <trkpt lat="43.20181170478463" lon="131.9494220148772">
        <ele>133.2</ele>
        <time>2026-09-22T12:12:20.000Z</time>
      </trkpt>
      <trkpt lat="43.20158748887479" lon="131.9493876490742">
        <ele>134.8</ele>
        <time>2026-09-22T12:12:36.000Z</time>
      </trkpt>
      <trkpt lat="43.20137961767614" lon="131.94933651946485">
        <ele>136.4</ele>
        <time>2026-09-22T12:12:52.000Z</time>
      </trkpt>
      <trkpt lat="43.20116160437465" lon="131.94926351308823">
        <ele>138</ele>
        <time>2026-09-22T12:13:08.000Z</time>
      </trkpt>
      <trkpt lat="43.200955828651786" lon="131.94916401989758">
        <ele>140</ele>
        <time>2026-09-22T12:13:24.000Z</time>
      </trkpt>
      <trkpt lat="43.200755417346954" lon="131.9490543846041">
        <ele>141.8</ele>
        <time>2026-09-22T12:13:41.000Z</time>
      </trkpt>
      <trkpt lat="43.20056221447885" lon="131.94893511012197">
        <ele>143.8</ele>
        <time>2026-09-22T12:13:57.000Z</time>
      </trkpt>
      <trkpt lat="43.20037798024714" lon="131.94879865273833">
        <ele>145.6</ele>
        <time>2026-09-22T12:14:13.000Z</time>
      </trkpt>
      <trkpt lat="43.20018502883613" lon="131.94865649566054">
        <ele>147.2</ele>
        <time>2026-09-22T12:14:29.000Z</time>
      </trkpt>
      <trkpt lat="43.20003147237003" lon="131.94849045015872">
        <ele>148.8</ele>
        <time>2026-09-22T12:14:44.000Z</time>
      </trkpt>
      <trkpt lat="43.2001416105777" lon="131.94833312183619">
        <ele>147.4</ele>
        <time>2026-09-22T12:14:55.000Z</time>
      </trkpt>
      <trkpt lat="43.200048822909594" lon="131.9482647255063">
        <ele>147.2</ele>
        <time>2026-09-22T12:15:03.000Z</time>
      </trkpt>
      <trkpt lat="43.199978498741984" lon="131.9482126738876">
        <ele>147.2</ele>
        <time>2026-09-22T12:15:10.000Z</time>
      </trkpt>
      <trkpt lat="43.19989426061511" lon="131.9483479578048">
        <ele>149.2</ele>
        <time>2026-09-22T12:15:20.000Z</time>
      </trkpt>
      <trkpt lat="43.1998707074672" lon="131.94834812544286">
        <ele>149.6</ele>
        <time>2026-09-22T12:15:22.000Z</time>
      </trkpt>
      <trkpt lat="43.19984740577638" lon="131.94833337329328">
        <ele>150</ele>
        <time>2026-09-22T12:15:24.000Z</time>
      </trkpt>
      <trkpt lat="43.19973626174033" lon="131.94821351207793">
        <ele>151.2</ele>
        <time>2026-09-22T12:15:33.000Z</time>
      </trkpt>
      <trkpt lat="43.19955521263182" lon="131.94797035306692">
        <ele>152.6</ele>
        <time>2026-09-22T12:15:49.000Z</time>
      </trkpt>
      <trkpt lat="43.19937877357006" lon="131.94771269336343">
        <ele>153.6</ele>
        <time>2026-09-22T12:16:06.000Z</time>
      </trkpt>
      <trkpt lat="43.19920820184052" lon="131.94742360152304">
        <ele>154.4</ele>
        <time>2026-09-22T12:16:22.000Z</time>
      </trkpt>
      <trkpt lat="43.19904416799545" lon="131.9470637664199">
        <ele>155</ele>
        <time>2026-09-22T12:16:38.000Z</time>
      </trkpt>
      <trkpt lat="43.198851300403476" lon="131.94670309312642">
        <ele>155.8</ele>
        <time>2026-09-22T12:16:54.000Z</time>
      </trkpt>
      <trkpt lat="43.198691457509995" lon="131.94632808677852">
        <ele>156.4</ele>
        <time>2026-09-22T12:17:10.000Z</time>
      </trkpt>
      <trkpt lat="43.19848098792136" lon="131.94590421393514">
        <ele>156.8</ele>
        <time>2026-09-22T12:17:26.000Z</time>
      </trkpt>
      <trkpt lat="43.19827378727496" lon="131.94557539187372">
        <ele>157.4</ele>
        <time>2026-09-22T12:17:42.000Z</time>
      </trkpt>
      <trkpt lat="43.19811645895243" lon="131.94525117985904">
        <ele>157.6</ele>
        <time>2026-09-22T12:17:58.000Z</time>
      </trkpt>
      <trkpt lat="43.197945300489664" lon="131.94487508386374">
        <ele>157.4</ele>
        <time>2026-09-22T12:18:15.000Z</time>
      </trkpt>
      <trkpt lat="43.197703482583165" lon="131.94433227181435">
        <ele>157</ele>
        <time>2026-09-22T12:18:31.000Z</time>
      </trkpt>
      <trkpt lat="43.19740039296448" lon="131.94369298405945">
        <ele>154.8</ele>
        <time>2026-09-22T12:18:47.000Z</time>
      </trkpt>
      <trkpt lat="43.19705028086901" lon="131.94303039461374">
        <ele>153</ele>
        <time>2026-09-22T12:19:03.000Z</time>
      </trkpt>
      <trkpt lat="43.19662791676819" lon="131.9423550646752">
        <ele>151</ele>
        <time>2026-09-22T12:19:19.000Z</time>
      </trkpt>
      <trkpt lat="43.19627143442631" lon="131.94177579134703">
        <ele>149.2</ele>
        <time>2026-09-22T12:19:35.000Z</time>
      </trkpt>
      <trkpt lat="43.195913610979915" lon="131.9411303009838">
        <ele>147.6</ele>
        <time>2026-09-22T12:19:51.000Z</time>
      </trkpt>
      <trkpt lat="43.19555327296257" lon="131.94056938402355">
        <ele>145.8</ele>
        <time>2026-09-22T12:20:07.000Z</time>
      </trkpt>
      <trkpt lat="43.195383958518505" lon="131.94030116312206">
        <ele>143.8</ele>
        <time>2026-09-22T12:20:23.000Z</time>
      </trkpt>
      <trkpt lat="43.19489227607846" lon="131.93948367610574">
        <ele>139.6</ele>
        <time>2026-09-22T12:20:40.000Z</time>
      </trkpt>
      <trkpt lat="43.194584492594004" lon="131.93888386711478">
        <ele>136</ele>
        <time>2026-09-22T12:20:53.000Z</time>
      </trkpt>
      <trkpt lat="43.19429129362106" lon="131.9382382929325">
        <ele>132</ele>
        <time>2026-09-22T12:21:07.000Z</time>
      </trkpt>
      <trkpt lat="43.194054923951626" lon="131.93760780617595">
        <ele>128</ele>
        <time>2026-09-22T12:21:21.000Z</time>
      </trkpt>
      <trkpt lat="43.19388980045915" lon="131.93692275322974">
        <ele>125</ele>
        <time>2026-09-22T12:21:34.000Z</time>
      </trkpt>
      <trkpt lat="43.193814530968666" lon="131.93621372804046">
        <ele>123.8</ele>
        <time>2026-09-22T12:21:43.000Z</time>
      </trkpt>
      <trkpt lat="43.1937472242862" lon="131.9354135915637">
        <ele>123.4</ele>
        <time>2026-09-22T12:21:56.000Z</time>
      </trkpt>
      <trkpt lat="43.19367681629956" lon="131.93488586694002">
        <ele>123.8</ele>
        <time>2026-09-22T12:22:09.000Z</time>
      </trkpt>
      <trkpt lat="43.193620992824435" lon="131.93439351394773">
        <ele>124.2</ele>
        <time>2026-09-22T12:22:25.000Z</time>
      </trkpt>
      <trkpt lat="43.19356558844447" lon="131.93375146016479">
        <ele>124</ele>
        <time>2026-09-22T12:22:41.000Z</time>
      </trkpt>
      <trkpt lat="43.193470956757665" lon="131.93287781439722">
        <ele>122</ele>
        <time>2026-09-22T12:22:57.000Z</time>
      </trkpt>
      <trkpt lat="43.193367859348655" lon="131.93213869817555">
        <ele>119.6</ele>
        <time>2026-09-22T12:23:14.000Z</time>
      </trkpt>
      <trkpt lat="43.19324682466686" lon="131.9311799760908">
        <ele>118</ele>
        <time>2026-09-22T12:23:29.000Z</time>
      </trkpt>
      <trkpt lat="43.19314925931394" lon="131.93044387735426">
        <ele>117</ele>
        <time>2026-09-22T12:23:42.000Z</time>
      </trkpt>
      <trkpt lat="43.19302353076637" lon="131.9295295793563">
        <ele>116</ele>
        <time>2026-09-22T12:23:58.000Z</time>
      </trkpt>
      <trkpt lat="43.192905178293586" lon="131.92875232547522">
        <ele>114.6</ele>
        <time>2026-09-22T12:24:14.000Z</time>
      </trkpt>
      <trkpt lat="43.192743826657534" lon="131.92796819843352">
        <ele>114</ele>
        <time>2026-09-22T12:24:30.000Z</time>
      </trkpt>
      <trkpt lat="43.19257996045053" lon="131.92732111550868">
        <ele>114.4</ele>
        <time>2026-09-22T12:24:46.000Z</time>
      </trkpt>
      <trkpt lat="43.192447274923325" lon="131.9268296007067">
        <ele>115.4</ele>
        <time>2026-09-22T12:25:02.000Z</time>
      </trkpt>
      <trkpt lat="43.192261196672916" lon="131.92639055661857">
        <ele>116.8</ele>
        <time>2026-09-22T12:25:18.000Z</time>
      </trkpt>
      <trkpt lat="43.19206430576742" lon="131.9260095153004">
        <ele>117.8</ele>
        <time>2026-09-22T12:25:35.000Z</time>
      </trkpt>
      <trkpt lat="43.19192617200315" lon="131.92570148035884">
        <ele>117.8</ele>
        <time>2026-09-22T12:25:46.000Z</time>
      </trkpt>
      <trkpt lat="43.191604893654585" lon="131.9253620132804">
        <ele>118.4</ele>
        <time>2026-09-22T12:26:02.000Z</time>
      </trkpt>
      <trkpt lat="43.1913345772773" lon="131.92512111738324">
        <ele>118</ele>
        <time>2026-09-22T12:26:18.000Z</time>
      </trkpt>
      <trkpt lat="43.19084138609469" lon="131.9247626233846">
        <ele>116</ele>
        <time>2026-09-22T12:26:55.000Z</time>
      </trkpt>
      <trkpt lat="43.19027812220156" lon="131.9243509043008">
        <ele>113.4</ele>
        <time>2026-09-22T12:27:11.000Z</time>
      </trkpt>
      <trkpt lat="43.18984746001661" lon="131.9239349104464">
        <ele>110.6</ele>
        <time>2026-09-22T12:27:27.000Z</time>
      </trkpt>
      <trkpt lat="43.18981770426035" lon="131.92378629930317">
        <ele>108.4</ele>
        <time>2026-09-22T12:27:36.000Z</time>
      </trkpt>
      <trkpt lat="43.18953238427639" lon="131.92352562211454">
        <ele>108</ele>
        <time>2026-09-22T12:27:50.000Z</time>
      </trkpt>
      <trkpt lat="43.18913659080863" lon="131.92304282449186">
        <ele>106.6</ele>
        <time>2026-09-22T12:28:06.000Z</time>
      </trkpt>
      <trkpt lat="43.18881397135556" lon="131.92274996079504">
        <ele>105.6</ele>
        <time>2026-09-22T12:28:22.000Z</time>
      </trkpt>
      <trkpt lat="43.18848146125674" lon="131.92235492169857">
        <ele>104.2</ele>
        <time>2026-09-22T12:28:38.000Z</time>
      </trkpt>
      <trkpt lat="43.188069155439734" lon="131.9218874629587">
        <ele>102.8</ele>
        <time>2026-09-22T12:28:54.000Z</time>
      </trkpt>
      <trkpt lat="43.187636230140924" lon="131.92139586433768">
        <ele>101.4</ele>
        <time>2026-09-22T12:29:10.000Z</time>
      </trkpt>
      <trkpt lat="43.18700951524079" lon="131.92096947692335">
        <ele>98</ele>
        <time>2026-09-22T12:29:24.000Z</time>
      </trkpt>
      <trkpt lat="43.18637005984783" lon="131.92073620855808">
        <ele>95.4</ele>
        <time>2026-09-22T12:29:40.000Z</time>
      </trkpt>
      <trkpt lat="43.185710571706295" lon="131.92073277197778">
        <ele>94.2</ele>
        <time>2026-09-22T12:29:56.000Z</time>
      </trkpt>
      <trkpt lat="43.18520589731634" lon="131.92075406201184">
        <ele>94.6</ele>
        <time>2026-09-22T12:30:13.000Z</time>
      </trkpt>
      <trkpt lat="43.18478940054774" lon="131.92076604813337">
        <ele>94.8</ele>
        <time>2026-09-22T12:30:29.000Z</time>
      </trkpt>
      <trkpt lat="43.18447667174041" lon="131.92076831124723">
        <ele>95.6</ele>
        <time>2026-09-22T12:30:45.000Z</time>
      </trkpt>
      <trkpt lat="43.18422596901655" lon="131.92074961960316">
        <ele>96</ele>
        <time>2026-09-22T12:31:15.000Z</time>
      </trkpt>
      <trkpt lat="43.183770664036274" lon="131.9206622801721">
        <ele>96.6</ele>
        <time>2026-09-22T12:31:31.000Z</time>
      </trkpt>
      <trkpt lat="43.183301109820604" lon="131.9205486215651">
        <ele>97</ele>
        <time>2026-09-22T12:31:47.000Z</time>
      </trkpt>
      <trkpt lat="43.182922415435314" lon="131.92041325382888">
        <ele>97.4</ele>
        <time>2026-09-22T12:32:01.000Z</time>
      </trkpt>
      <trkpt lat="43.18248488008976" lon="131.92025927826762">
        <ele>97.8</ele>
        <time>2026-09-22T12:32:17.000Z</time>
      </trkpt>
      <trkpt lat="43.18207525648177" lon="131.9201037939638">
        <ele>97.6</ele>
        <time>2026-09-22T12:32:34.000Z</time>
      </trkpt>
      <trkpt lat="43.18161316215992" lon="131.9199293665588">
        <ele>97.8</ele>
        <time>2026-09-22T12:32:50.000Z</time>
      </trkpt>
      <trkpt lat="43.18114989437163" lon="131.91970489919186">
        <ele>97.4</ele>
        <time>2026-09-22T12:33:06.000Z</time>
      </trkpt>
      <trkpt lat="43.18064287304878" lon="131.91953541710973">
        <ele>96.4</ele>
        <time>2026-09-22T12:33:20.000Z</time>
      </trkpt>
      <trkpt lat="43.18009662441909" lon="131.91930986009538">
        <ele>95.6</ele>
        <time>2026-09-22T12:33:36.000Z</time>
      </trkpt>
      <trkpt lat="43.17986176349223" lon="131.91922260448337">
        <ele>96.2</ele>
        <time>2026-09-22T12:35:35.000Z</time>
      </trkpt>
      <trkpt lat="43.17947342991829" lon="131.91908388398588">
        <ele>96.6</ele>
        <time>2026-09-22T12:35:51.000Z</time>
      </trkpt>
      <trkpt lat="43.1790463719517" lon="131.91894558258355">
        <ele>96.8</ele>
        <time>2026-09-22T12:36:07.000Z</time>
      </trkpt>
      <trkpt lat="43.178592659533024" lon="131.91878456622362">
        <ele>96.6</ele>
        <time>2026-09-22T12:36:23.000Z</time>
      </trkpt>
      <trkpt lat="43.17808999679983" lon="131.9186124857515">
        <ele>96</ele>
        <time>2026-09-22T12:36:39.000Z</time>
      </trkpt>
      <trkpt lat="43.17764692939818" lon="131.9184647127986">
        <ele>94.8</ele>
        <time>2026-09-22T12:36:55.000Z</time>
      </trkpt>
      <trkpt lat="43.17721953615546" lon="131.91831450909376">
        <ele>92.8</ele>
        <time>2026-09-22T12:37:11.000Z</time>
      </trkpt>
      <trkpt lat="43.176881996914744" lon="131.91820026375353">
        <ele>90.8</ele>
        <time>2026-09-22T12:37:28.000Z</time>
      </trkpt>
      <trkpt lat="43.17651101388037" lon="131.9180653989315">
        <ele>89</ele>
        <time>2026-09-22T12:37:44.000Z</time>
      </trkpt>
      <trkpt lat="43.176126116886735" lon="131.9179295282811">
        <ele>87</ele>
        <time>2026-09-22T12:38:00.000Z</time>
      </trkpt>
      <trkpt lat="43.17571833729744" lon="131.91778980195522">
        <ele>84.8</ele>
        <time>2026-09-22T12:38:16.000Z</time>
      </trkpt>
      <trkpt lat="43.17528021521866" lon="131.91762870177627">
        <ele>83.4</ele>
        <time>2026-09-22T12:38:32.000Z</time>
      </trkpt>
      <trkpt lat="43.17503177560866" lon="131.91750171594322">
        <ele>83</ele>
        <time>2026-09-22T12:38:50.000Z</time>
      </trkpt>
      <trkpt lat="43.17469758912921" lon="131.91739509813488">
        <ele>82.6</ele>
        <time>2026-09-22T12:39:06.000Z</time>
      </trkpt>
      <trkpt lat="43.1743629835546" lon="131.91728856414557">
        <ele>81.8</ele>
        <time>2026-09-22T12:39:37.000Z</time>
      </trkpt>
      <trkpt lat="43.17388068884611" lon="131.91708865575492">
        <ele>80.6</ele>
        <time>2026-09-22T12:39:54.000Z</time>
      </trkpt>
      <trkpt lat="43.17338431254029" lon="131.91690291278064">
        <ele>78.8</ele>
        <time>2026-09-22T12:40:10.000Z</time>
      </trkpt>
      <trkpt lat="43.17308072000742" lon="131.91679931245744">
        <ele>77.4</ele>
        <time>2026-09-22T12:40:23.000Z</time>
      </trkpt>
      <trkpt lat="43.17257068119943" lon="131.91659479402006">
        <ele>75.2</ele>
        <time>2026-09-22T12:40:39.000Z</time>
      </trkpt>
      <trkpt lat="43.17200917750597" lon="131.9163871742785">
        <ele>71.4</ele>
        <time>2026-09-22T12:40:55.000Z</time>
      </trkpt>
      <trkpt lat="43.17151766270399" lon="131.916192965582">
        <ele>68.4</ele>
        <time>2026-09-22T12:41:11.000Z</time>
      </trkpt>
      <trkpt lat="43.17104299552739" lon="131.9160151015967">
        <ele>65</ele>
        <time>2026-09-22T12:41:27.000Z</time>
      </trkpt>
      <trkpt lat="43.17082808353007" lon="131.91592038609087">
        <ele>63.2</ele>
        <time>2026-09-22T12:41:37.000Z</time>
      </trkpt>
      <trkpt lat="43.17036590538919" lon="131.9157552625984">
        <ele>60.4</ele>
        <time>2026-09-22T12:41:59.000Z</time>
      </trkpt>
      <trkpt lat="43.169958125799894" lon="131.91559919156134">
        <ele>57.4</ele>
        <time>2026-09-22T12:42:16.000Z</time>
      </trkpt>
      <trkpt lat="43.16954741254449" lon="131.91545435227454">
        <ele>54.8</ele>
        <time>2026-09-22T12:42:32.000Z</time>
      </trkpt>
      <trkpt lat="43.169165616855025" lon="131.91530741751194">
        <ele>52.4</ele>
        <time>2026-09-22T12:42:46.000Z</time>
      </trkpt>
      <trkpt lat="43.16873042844236" lon="131.91514229401946">
        <ele>49.2</ele>
        <time>2026-09-22T12:43:02.000Z</time>
      </trkpt>
      <trkpt lat="43.168272860348225" lon="131.91496342420578">
        <ele>46.4</ele>
        <time>2026-09-22T12:43:18.000Z</time>
      </trkpt>
      <trkpt lat="43.16816565580666" lon="131.91482068039477">
        <ele>46.8</ele>
        <time>2026-09-22T12:43:24.000Z</time>
      </trkpt>
      <trkpt lat="43.167984187603" lon="131.91464851610363">
        <ele>45.8</ele>
        <time>2026-09-22T12:43:36.000Z</time>
      </trkpt>
      <trkpt lat="43.16785527393222" lon="131.91469000652432">
        <ele>45</ele>
        <time>2026-09-22T12:44:11.000Z</time>
      </trkpt>
      <trkpt lat="43.16757967695594" lon="131.91458841785789">
        <ele>44.2</ele>
        <time>2026-09-22T12:46:48.000Z</time>
      </trkpt>
      <trkpt lat="43.167319586500525" lon="131.91442798823118">
        <ele>42.8</ele>
        <time>2026-09-22T12:47:03.000Z</time>
      </trkpt>
      <trkpt lat="43.167165610939264" lon="131.9144761003554">
        <ele>42.8</ele>
        <time>2026-09-22T12:47:13.000Z</time>
      </trkpt>
      <trkpt lat="43.16695178858936" lon="131.91434039734304">
        <ele>42.4</ele>
        <time>2026-09-22T12:47:24.000Z</time>
      </trkpt>
      <trkpt lat="43.166795717552304" lon="131.91408466547728">
        <ele>41.8</ele>
        <time>2026-09-22T12:47:34.000Z</time>
      </trkpt>
      <trkpt lat="43.16653688438237" lon="131.91421081312">
        <ele>42</ele>
        <time>2026-09-22T12:47:45.000Z</time>
      </trkpt>
      <trkpt lat="43.166313003748655" lon="131.91413260996342">
        <ele>42</ele>
        <time>2026-09-22T12:47:54.000Z</time>
      </trkpt>
      <trkpt lat="43.166294479742646" lon="131.9139605294913">
        <ele>41.8</ele>
        <time>2026-09-22T12:48:01.000Z</time>
      </trkpt>
      <trkpt lat="43.1662277597934" lon="131.9140270818025">
        <ele>42.4</ele>
        <time>2026-09-22T12:50:49.000Z</time>
      </trkpt>
      <trkpt lat="43.166159614920616" lon="131.91414878703654">
        <ele>42.2</ele>
        <time>2026-09-22T12:50:57.000Z</time>
      </trkpt>
      <trkpt lat="43.16556181758642" lon="131.9139153510332">
        <ele>42</ele>
        <time>2026-09-22T12:51:13.000Z</time>
      </trkpt>
      <trkpt lat="43.164917416870594" lon="131.9136816635728">
        <ele>42</ele>
        <time>2026-09-22T12:51:29.000Z</time>
      </trkpt>
      <trkpt lat="43.16454593092203" lon="131.91350262612104">
        <ele>42.8</ele>
        <time>2026-09-22T12:51:40.000Z</time>
      </trkpt>
      <trkpt lat="43.164002783596516" lon="131.91329861059785">
        <ele>43.4</ele>
        <time>2026-09-22T12:51:56.000Z</time>
      </trkpt>
      <trkpt lat="43.16386071033776" lon="131.91310649737716">
        <ele>43</ele>
        <time>2026-09-22T12:52:03.000Z</time>
      </trkpt>
      <trkpt lat="43.163769682869315" lon="131.91312250681221">
        <ele>43.2</ele>
        <time>2026-09-22T12:52:08.000Z</time>
      </trkpt>
      <trkpt lat="43.163260482251644" lon="131.91289460286498">
        <ele>42.8</ele>
        <time>2026-09-22T12:52:24.000Z</time>
      </trkpt>
      <trkpt lat="43.16272831521928" lon="131.9126840494573">
        <ele>43.4</ele>
        <time>2026-09-22T12:52:40.000Z</time>
      </trkpt>
      <trkpt lat="43.16221542656422" lon="131.91247777082026">
        <ele>43.6</ele>
        <time>2026-09-22T12:52:56.000Z</time>
      </trkpt>
      <trkpt lat="43.161641266196966" lon="131.91224332898855">
        <ele>44.4</ele>
        <time>2026-09-22T12:53:12.000Z</time>
      </trkpt>
      <trkpt lat="43.16121286712587" lon="131.91210485994816">
        <ele>45.2</ele>
        <time>2026-09-22T12:53:28.000Z</time>
      </trkpt>
      <trkpt lat="43.16090357489884" lon="131.9120439235121">
        <ele>45.8</ele>
        <time>2026-09-22T12:53:43.000Z</time>
      </trkpt>
      <trkpt lat="43.16048766486347" lon="131.91192925907671">
        <ele>46.2</ele>
        <time>2026-09-22T12:54:00.000Z</time>
      </trkpt>
      <trkpt lat="43.160265209153295" lon="131.91187125630677">
        <ele>46.2</ele>
        <time>2026-09-22T12:54:13.000Z</time>
      </trkpt>
      <trkpt lat="43.15992875955999" lon="131.91176421940327">
        <ele>46.4</ele>
        <time>2026-09-22T12:54:29.000Z</time>
      </trkpt>
      <trkpt lat="43.159580156207085" lon="131.91169037483633">
        <ele>46.6</ele>
        <time>2026-09-22T12:54:45.000Z</time>
      </trkpt>
      <trkpt lat="43.15918469801545" lon="131.91160270012915">
        <ele>46.8</ele>
        <time>2026-09-22T12:55:01.000Z</time>
      </trkpt>
      <trkpt lat="43.158703576773405" lon="131.91147604957223">
        <ele>47.2</ele>
        <time>2026-09-22T12:55:17.000Z</time>
      </trkpt>
      <trkpt lat="43.15823812969029" lon="131.91136540845037">
        <ele>47.8</ele>
        <time>2026-09-22T12:55:33.000Z</time>
      </trkpt>
      <trkpt lat="43.157805958762765" lon="131.9112986046821">
        <ele>48.6</ele>
        <time>2026-09-22T12:55:46.000Z</time>
      </trkpt>
      <trkpt lat="43.15722852945328" lon="131.91121528856456">
        <ele>49.4</ele>
        <time>2026-09-22T12:56:02.000Z</time>
      </trkpt>
      <trkpt lat="43.15679803490639" lon="131.91116340458393">
        <ele>51.2</ele>
        <time>2026-09-22T12:56:19.000Z</time>
      </trkpt>
      <trkpt lat="43.15657256171107" lon="131.91115150228143">
        <ele>53.2</ele>
        <time>2026-09-22T12:56:49.000Z</time>
      </trkpt>
      <trkpt lat="43.15626251511276" lon="131.9111138675362">
        <ele>55.2</ele>
        <time>2026-09-22T12:57:05.000Z</time>
      </trkpt>
      <trkpt lat="43.155969735234976" lon="131.91103482618928">
        <ele>57.2</ele>
        <time>2026-09-22T12:57:21.000Z</time>
      </trkpt>
      <trkpt lat="43.15572179853916" lon="131.91091370768845">
        <ele>58.4</ele>
        <time>2026-09-22T12:57:34.000Z</time>
      </trkpt>
      <trkpt lat="43.15550093539059" lon="131.91071631386876">
        <ele>58.8</ele>
        <time>2026-09-22T12:57:47.000Z</time>
      </trkpt>
      <trkpt lat="43.155368668958545" lon="131.91068882122636">
        <ele>60.2</ele>
        <time>2026-09-22T12:57:54.000Z</time>
      </trkpt>
      <trkpt lat="43.15514529123902" lon="131.91057046875358">
        <ele>62.4</ele>
        <time>2026-09-22T12:58:06.000Z</time>
      </trkpt>
      <trkpt lat="43.154791574925184" lon="131.91032571718097">
        <ele>63</ele>
        <time>2026-09-22T12:58:22.000Z</time>
      </trkpt>
      <trkpt lat="43.15446241758764" lon="131.91007979214191">
        <ele>64</ele>
        <time>2026-09-22T12:58:38.000Z</time>
      </trkpt>
      <trkpt lat="43.15438295714557" lon="131.90986890345812">
        <ele>64.2</ele>
        <time>2026-09-22T12:58:46.000Z</time>
      </trkpt>
      <trkpt lat="43.15402035601437" lon="131.90957788378">
        <ele>64.2</ele>
        <time>2026-09-22T12:59:02.000Z</time>
      </trkpt>
      <trkpt lat="43.153684325516224" lon="131.90931142307818">
        <ele>64</ele>
        <time>2026-09-22T12:59:18.000Z</time>
      </trkpt>
      <trkpt lat="43.15333480015397" lon="131.9090450461954">
        <ele>64.6</ele>
        <time>2026-09-22T12:59:34.000Z</time>
      </trkpt>
      <trkpt lat="43.152978736907244" lon="131.90874069929123">
        <ele>64.6</ele>
        <time>2026-09-22T12:59:50.000Z</time>
      </trkpt>
      <trkpt lat="43.15266617573798" lon="131.9085067603737">
        <ele>65.6</ele>
        <time>2026-09-22T13:00:06.000Z</time>
      </trkpt>
      <trkpt lat="43.15235059708357" lon="131.90826670266688">
        <ele>65.8</ele>
        <time>2026-09-22T13:00:22.000Z</time>
      </trkpt>
      <trkpt lat="43.152210703119636" lon="131.9080812111497">
        <ele>66.4</ele>
        <time>2026-09-22T13:00:32.000Z</time>
      </trkpt>
      <trkpt lat="43.15188691020012" lon="131.9078301731497">
        <ele>66.6</ele>
        <time>2026-09-22T13:00:47.000Z</time>
      </trkpt>
      <trkpt lat="43.15165682695806" lon="131.90766697749496">
        <ele>66.4</ele>
        <time>2026-09-22T13:00:57.000Z</time>
      </trkpt>
      <trkpt lat="43.15138081088662" lon="131.9074871018529">
        <ele>66</ele>
        <time>2026-09-22T13:01:12.000Z</time>
      </trkpt>
      <trkpt lat="43.15127863548696" lon="131.9074284285307">
        <ele>65.8</ele>
        <time>2026-09-22T13:03:27.000Z</time>
      </trkpt>
      <trkpt lat="43.15122038125992" lon="131.90708678215742">
        <ele>66.2</ele>
        <time>2026-09-22T13:03:41.000Z</time>
      </trkpt>
      <trkpt lat="43.151103956624866" lon="131.9071501493454">
        <ele>66.4</ele>
        <time>2026-09-22T13:03:50.000Z</time>
      </trkpt>
      <trkpt lat="43.15098728053272" lon="131.90720077604055">
        <ele>66</ele>
        <time>2026-09-22T13:04:04.000Z</time>
      </trkpt>
      <trkpt lat="43.15066088922322" lon="131.906900703907">
        <ele>63.8</ele>
        <time>2026-09-22T13:04:17.000Z</time>
      </trkpt>
      <trkpt lat="43.15011388622224" lon="131.9065108615905">
        <ele>59.6</ele>
        <time>2026-09-22T13:04:33.000Z</time>
      </trkpt>
      <trkpt lat="43.149637626484036" lon="131.90618061460555">
        <ele>55.6</ele>
        <time>2026-09-22T13:04:49.000Z</time>
      </trkpt>
      <trkpt lat="43.149439310655" lon="131.90624850802124">
        <ele>54.6</ele>
        <time>2026-09-22T13:05:13.000Z</time>
      </trkpt>
      <trkpt lat="43.14870312809944" lon="131.90606980584562">
        <ele>51.6</ele>
        <time>2026-09-22T13:05:33.000Z</time>
      </trkpt>
      <trkpt lat="43.14837170764804" lon="131.90591826103628">
        <ele>49.8</ele>
        <time>2026-09-22T13:05:40.000Z</time>
      </trkpt>
      <trkpt lat="43.1482423748821" lon="131.9058993179351">
        <ele>49.4</ele>
        <time>2026-09-22T13:05:42.000Z</time>
      </trkpt>
      <trkpt lat="43.14809996634722" lon="131.90588775090873">
        <ele>48.8</ele>
        <time>2026-09-22T13:05:44.000Z</time>
      </trkpt>
      <trkpt lat="43.14794749952853" lon="131.9058739207685">
        <ele>48.2</ele>
        <time>2026-09-22T13:05:46.000Z</time>
      </trkpt>
      <trkpt lat="43.14778883010149" lon="131.90585841424763">
        <ele>47.4</ele>
        <time>2026-09-22T13:05:49.000Z</time>
      </trkpt>
      <trkpt lat="43.14716496504843" lon="131.90578917972744">
        <ele>46.6</ele>
        <time>2026-09-22T13:05:58.000Z</time>
      </trkpt>
      <trkpt lat="43.14693697728217" lon="131.90575514920056">
        <ele>47.2</ele>
        <time>2026-09-22T13:06:13.000Z</time>
      </trkpt>
      <trkpt lat="43.14659398980439" lon="131.9057105574757">
        <ele>48.8</ele>
        <time>2026-09-22T13:06:29.000Z</time>
      </trkpt>
      <trkpt lat="43.14628520049155" lon="131.90567560493946">
        <ele>50.4</ele>
        <time>2026-09-22T13:06:45.000Z</time>
      </trkpt>
      <trkpt lat="43.1459888163954" lon="131.9056429155171">
        <ele>52.4</ele>
        <time>2026-09-22T13:07:01.000Z</time>
      </trkpt>
      <trkpt lat="43.14570877701044" lon="131.90560561604798">
        <ele>53.8</ele>
        <time>2026-09-22T13:07:17.000Z</time>
      </trkpt>
      <trkpt lat="43.14538565464318" lon="131.9056291691959">
        <ele>54.4</ele>
        <time>2026-09-22T13:07:33.000Z</time>
      </trkpt>
      <trkpt lat="43.145054737105966" lon="131.9056953024119">
        <ele>55.4</ele>
        <time>2026-09-22T13:07:49.000Z</time>
      </trkpt>
      <trkpt lat="43.144786432385445" lon="131.90584609284997">
        <ele>56.2</ele>
        <time>2026-09-22T13:08:05.000Z</time>
      </trkpt>
      <trkpt lat="43.14447848126292" lon="131.90608992241323">
        <ele>56</ele>
        <time>2026-09-22T13:08:22.000Z</time>
      </trkpt>
      <trkpt lat="43.14413893036544" lon="131.90648647025228">
        <ele>55.8</ele>
        <time>2026-09-22T13:08:38.000Z</time>
      </trkpt>
      <trkpt lat="43.14376660622656" lon="131.9068882148713">
        <ele>55.6</ele>
        <time>2026-09-22T13:08:54.000Z</time>
      </trkpt>
      <trkpt lat="43.14350391738117" lon="131.90714755095541">
        <ele>55.2</ele>
        <time>2026-09-22T13:09:10.000Z</time>
      </trkpt>
      <trkpt lat="43.14332781359553" lon="131.90741250291467">
        <ele>54.8</ele>
        <time>2026-09-22T13:09:26.000Z</time>
      </trkpt>
      <trkpt lat="43.14296999014914" lon="131.90780284814537">
        <ele>54</ele>
        <time>2026-09-22T13:09:42.000Z</time>
      </trkpt>
      <trkpt lat="43.14251032657921" lon="131.9082186743617">
        <ele>53.8</ele>
        <time>2026-09-22T13:09:58.000Z</time>
      </trkpt>
      <trkpt lat="43.14202853478491" lon="131.90869459882379">
        <ele>53.4</ele>
        <time>2026-09-22T13:10:14.000Z</time>
      </trkpt>
      <trkpt lat="43.14155336469412" lon="131.90911469981074">
        <ele>53.4</ele>
        <time>2026-09-22T13:10:30.000Z</time>
      </trkpt>
      <trkpt lat="43.14108598977327" lon="131.90951250493526">
        <ele>53</ele>
        <time>2026-09-22T13:10:47.000Z</time>
      </trkpt>
      <trkpt lat="43.140588607639074" lon="131.9098815601319">
        <ele>53.2</ele>
        <time>2026-09-22T13:11:03.000Z</time>
      </trkpt>
      <trkpt lat="43.14013481140137" lon="131.9100818876177">
        <ele>53.8</ele>
        <time>2026-09-22T13:11:19.000Z</time>
      </trkpt>
      <trkpt lat="43.13969861716032" lon="131.91018858924508">
        <ele>54.2</ele>
        <time>2026-09-22T13:11:35.000Z</time>
      </trkpt>
      <trkpt lat="43.139423774555326" lon="131.91023326478899">
        <ele>53.8</ele>
        <time>2026-09-22T13:11:47.000Z</time>
      </trkpt>
      <trkpt lat="43.13872271217406" lon="131.91035128198564">
        <ele>52</ele>
        <time>2026-09-22T13:12:32.000Z</time>
      </trkpt>
      <trkpt lat="43.13798242248595" lon="131.91045789979398">
        <ele>49.8</ele>
        <time>2026-09-22T13:12:48.000Z</time>
      </trkpt>
      <trkpt lat="43.13761160708964" lon="131.9105192553252">
        <ele>49.6</ele>
        <time>2026-09-22T13:13:05.000Z</time>
      </trkpt>
      <trkpt lat="43.13713660463691" lon="131.9105879869312">
        <ele>50.8</ele>
        <time>2026-09-22T13:13:21.000Z</time>
      </trkpt>
      <trkpt lat="43.13672832213342" lon="131.91065655089915">
        <ele>52.4</ele>
        <time>2026-09-22T13:13:37.000Z</time>
      </trkpt>
      <trkpt lat="43.13632599078119" lon="131.91071916371584">
        <ele>53.8</ele>
        <time>2026-09-22T13:13:53.000Z</time>
      </trkpt>
      <trkpt lat="43.13593472354114" lon="131.9107713829726">
        <ele>55.2</ele>
        <time>2026-09-22T13:14:09.000Z</time>
      </trkpt>
      <trkpt lat="43.13555217348039" lon="131.91083257086575">
        <ele>56.6</ele>
        <time>2026-09-22T13:14:25.000Z</time>
      </trkpt>
      <trkpt lat="43.135219160467386" lon="131.9108598958701">
        <ele>58.2</ele>
        <time>2026-09-22T13:14:41.000Z</time>
      </trkpt>
      <trkpt lat="43.134922524914145" lon="131.91083810292184">
        <ele>59</ele>
        <time>2026-09-22T13:14:57.000Z</time>
      </trkpt>
      <trkpt lat="43.13465053215623" lon="131.9108350854367">
        <ele>60</ele>
        <time>2026-09-22T13:15:13.000Z</time>
      </trkpt>
      <trkpt lat="43.134447103366256" lon="131.91084346733987">
        <ele>60.2</ele>
        <time>2026-09-22T13:15:30.000Z</time>
      </trkpt>
      <trkpt lat="43.134234454482794" lon="131.91086366772652">
        <ele>59.8</ele>
        <time>2026-09-22T13:15:46.000Z</time>
      </trkpt>
      <trkpt lat="43.134021470323205" lon="131.91087942570448">
        <ele>58.8</ele>
        <time>2026-09-22T13:16:02.000Z</time>
      </trkpt>
      <trkpt lat="43.133813263848424" lon="131.910896692425">
        <ele>57.4</ele>
        <time>2026-09-22T13:16:18.000Z</time>
      </trkpt>
      <trkpt lat="43.13360581174493" lon="131.91084715537727">
        <ele>55.6</ele>
        <time>2026-09-22T13:16:34.000Z</time>
      </trkpt>
      <trkpt lat="43.133473712950945" lon="131.91060475073755">
        <ele>54.6</ele>
        <time>2026-09-22T13:16:50.000Z</time>
      </trkpt>
      <trkpt lat="43.13347647897899" lon="131.91018850542605">
        <ele>56.4</ele>
        <time>2026-09-22T13:20:15.000Z</time>
      </trkpt>
      <trkpt lat="43.133458122611046" lon="131.90964510664344">
        <ele>55.8</ele>
        <time>2026-09-22T13:20:31.000Z</time>
      </trkpt>
      <trkpt lat="43.13344521448016" lon="131.90924394875765">
        <ele>56.8</ele>
        <time>2026-09-22T13:20:47.000Z</time>
      </trkpt>
      <trkpt lat="43.133456110954285" lon="131.90891420468688">
        <ele>57.8</ele>
        <time>2026-09-22T13:20:59.000Z</time>
      </trkpt>
      <trkpt lat="43.13346239738166" lon="131.90872276201844">
        <ele>58.4</ele>
        <time>2026-09-22T13:21:07.000Z</time>
      </trkpt>
      <trkpt lat="43.13339366577566" lon="131.9083159044385">
        <ele>59.4</ele>
        <time>2026-09-22T13:21:20.000Z</time>
      </trkpt>
      <trkpt lat="43.13337522558868" lon="131.9077281653881">
        <ele>61.2</ele>
        <time>2026-09-22T13:21:36.000Z</time>
      </trkpt>
      <trkpt lat="43.13335971906781" lon="131.90714210271835">
        <ele>62.8</ele>
        <time>2026-09-22T13:21:52.000Z</time>
      </trkpt>
      <trkpt lat="43.13336072489619" lon="131.9067034777254">
        <ele>64.6</ele>
        <time>2026-09-22T13:22:08.000Z</time>
      </trkpt>
      <trkpt lat="43.13333759084344" lon="131.90625110641122">
        <ele>66</ele>
        <time>2026-09-22T13:22:24.000Z</time>
      </trkpt>
      <trkpt lat="43.13333239406347" lon="131.90579328686">
        <ele>67.6</ele>
        <time>2026-09-22T13:22:41.000Z</time>
      </trkpt>
      <trkpt lat="43.133310517296195" lon="131.90531141124666">
        <ele>69.4</ele>
        <time>2026-09-22T13:22:57.000Z</time>
      </trkpt>
      <trkpt lat="43.133301213383675" lon="131.9048371631652">
        <ele>70.4</ele>
        <time>2026-09-22T13:23:13.000Z</time>
      </trkpt>
      <trkpt lat="43.13329182565212" lon="131.90456760115921">
        <ele>72</ele>
        <time>2026-09-22T13:23:26.000Z</time>
      </trkpt>
      <trkpt lat="43.13325117342174" lon="131.9042062573135">
        <ele>73.8</ele>
        <time>2026-09-22T13:23:38.000Z</time>
      </trkpt>
      <trkpt lat="43.13328570686281" lon="131.9039417244494">
        <ele>74.6</ele>
        <time>2026-09-22T13:23:52.000Z</time>
      </trkpt>
      <trkpt lat="43.13327858224511" lon="131.90351961180568">
        <ele>75.8</ele>
        <time>2026-09-22T13:24:08.000Z</time>
      </trkpt>
      <trkpt lat="43.133274307474494" lon="131.9033129978925">
        <ele>76.4</ele>
        <time>2026-09-22T13:24:51.000Z</time>
      </trkpt>
      <trkpt lat="43.133246479555964" lon="131.90287152305245">
        <ele>77.4</ele>
        <time>2026-09-22T13:25:14.000Z</time>
      </trkpt>
      <trkpt lat="43.13323407433927" lon="131.90251026302576">
        <ele>78.8</ele>
        <time>2026-09-22T13:25:30.000Z</time>
      </trkpt>
      <trkpt lat="43.1332116946578" lon="131.90211229026318">
        <ele>80.6</ele>
        <time>2026-09-22T13:25:46.000Z</time>
      </trkpt>
      <trkpt lat="43.133195685222745" lon="131.90173485316336">
        <ele>81.6</ele>
        <time>2026-09-22T13:26:02.000Z</time>
      </trkpt>
      <trkpt lat="43.13320423476398" lon="131.9014233816415">
        <ele>83.6</ele>
        <time>2026-09-22T13:26:18.000Z</time>
      </trkpt>
      <trkpt lat="43.133204989135265" lon="131.90109338611364">
        <ele>86</ele>
        <time>2026-09-22T13:26:34.000Z</time>
      </trkpt>
      <trkpt lat="43.13318906351924" lon="131.90077152103186">
        <ele>87.4</ele>
        <time>2026-09-22T13:26:50.000Z</time>
      </trkpt>
      <trkpt lat="43.133168360218406" lon="131.90046608448029">
        <ele>89.4</ele>
        <time>2026-09-22T13:27:10.000Z</time>
      </trkpt>
      <trkpt lat="43.133257292211056" lon="131.90021127462387">
        <ele>91</ele>
        <time>2026-09-22T13:27:27.000Z</time>
      </trkpt>
      <trkpt lat="43.1333536002785" lon="131.9001027289778">
        <ele>90.6</ele>
        <time>2026-09-22T13:27:43.000Z</time>
      </trkpt>
      <trkpt lat="43.13333507627249" lon="131.89983065240085">
        <ele>90.6</ele>
        <time>2026-09-22T13:27:52.000Z</time>
      </trkpt>
      <trkpt lat="43.13304631970823" lon="131.89952538348734">
        <ele>93.8</ele>
        <time>2026-09-22T13:28:08.000Z</time>
      </trkpt>
      <trkpt lat="43.132841885089874" lon="131.89918415620923">
        <ele>95.6</ele>
        <time>2026-09-22T13:28:24.000Z</time>
      </trkpt>
      <trkpt lat="43.13276502303779" lon="131.89904510043561">
        <ele>95.4</ele>
        <time>2026-09-22T13:28:53.000Z</time>
      </trkpt>
      <trkpt lat="43.132629403844476" lon="131.89847244881094">
        <ele>95</ele>
        <time>2026-09-22T13:29:09.000Z</time>
      </trkpt>
      <trkpt lat="43.132484313100576" lon="131.89839919097722">
        <ele>93</ele>
        <time>2026-09-22T13:29:20.000Z</time>
      </trkpt>
      <trkpt lat="43.132392866536975" lon="131.89811437390745">
        <ele>91.6</ele>
        <time>2026-09-22T13:29:37.000Z</time>
      </trkpt>
      <trkpt lat="43.132250206544995" lon="131.8977574724704">
        <ele>90.2</ele>
        <time>2026-09-22T13:29:53.000Z</time>
      </trkpt>
      <trkpt lat="43.13208868727088" lon="131.89734449610114">
        <ele>88.2</ele>
        <time>2026-09-22T13:30:09.000Z</time>
      </trkpt>
      <trkpt lat="43.1318823248148" lon="131.89680319279432">
        <ele>85.8</ele>
        <time>2026-09-22T13:30:25.000Z</time>
      </trkpt>
      <trkpt lat="43.131674621254206" lon="131.89628846012056">
        <ele>83.4</ele>
        <time>2026-09-22T13:30:41.000Z</time>
      </trkpt>
      <trkpt lat="43.131456188857555" lon="131.895737266168">
        <ele>80.8</ele>
        <time>2026-09-22T13:30:57.000Z</time>
      </trkpt>
      <trkpt lat="43.1311447173357" lon="131.8949283286929">
        <ele>77</ele>
        <time>2026-09-22T13:31:13.000Z</time>
      </trkpt>
      <trkpt lat="43.13093148171902" lon="131.8943862710148">
        <ele>73.2</ele>
        <time>2026-09-22T13:31:29.000Z</time>
      </trkpt>
      <trkpt lat="43.1306491792202" lon="131.89363298937678">
        <ele>68.2</ele>
        <time>2026-09-22T13:31:45.000Z</time>
      </trkpt>
      <trkpt lat="43.1304211076349" lon="131.89302052371204">
        <ele>63.8</ele>
        <time>2026-09-22T13:32:02.000Z</time>
      </trkpt>
      <trkpt lat="43.13029789365828" lon="131.89266722649336">
        <ele>61.8</ele>
        <time>2026-09-22T13:32:18.000Z</time>
      </trkpt>
      <trkpt lat="43.13013696111739" lon="131.89243596978486">
        <ele>60.6</ele>
        <time>2026-09-22T13:32:34.000Z</time>
      </trkpt>
      <trkpt lat="43.12996261753142" lon="131.8923779670149">
        <ele>60</ele>
        <time>2026-09-22T13:34:25.000Z</time>
      </trkpt>
      <trkpt lat="43.129850970581174" lon="131.8925629556179">
        <ele>59.8</ele>
        <time>2026-09-22T13:34:33.000Z</time>
      </trkpt>
      <trkpt lat="43.12945006415248" lon="131.8924818187952">
        <ele>58.8</ele>
        <time>2026-09-22T13:34:49.000Z</time>
      </trkpt>
      <trkpt lat="43.12907447107136" lon="131.89245549961925">
        <ele>58</ele>
        <time>2026-09-22T13:35:05.000Z</time>
      </trkpt>
      <trkpt lat="43.12886768952012" lon="131.89232968725264">
        <ele>58</ele>
        <time>2026-09-22T13:35:14.000Z</time>
      </trkpt>
      <trkpt lat="43.128555212169886" lon="131.89227839000523">
        <ele>60.6</ele>
        <time>2026-09-22T13:35:30.000Z</time>
      </trkpt>
      <trkpt lat="43.12827626243234" lon="131.89223505556583">
        <ele>63</ele>
        <time>2026-09-22T13:35:46.000Z</time>
      </trkpt>
      <trkpt lat="43.12801449559629" lon="131.89217696897686">
        <ele>64.4</ele>
        <time>2026-09-22T13:36:02.000Z</time>
      </trkpt>
      <trkpt lat="43.127727415412664" lon="131.89208971336484">
        <ele>67</ele>
        <time>2026-09-22T13:36:18.000Z</time>
      </trkpt>
      <trkpt lat="43.12749456614256" lon="131.8919058982283">
        <ele>68.6</ele>
        <time>2026-09-22T13:36:34.000Z</time>
      </trkpt>
      <trkpt lat="43.12727361917496" lon="131.8916942551732">
        <ele>70.2</ele>
        <time>2026-09-22T13:36:51.000Z</time>
      </trkpt>
      <trkpt lat="43.127036578953266" lon="131.89152636565268">
        <ele>72.2</ele>
        <time>2026-09-22T13:37:07.000Z</time>
      </trkpt>
      <trkpt lat="43.126993998885155" lon="131.89160641282797">
        <ele>73</ele>
        <time>2026-09-22T13:37:13.000Z</time>
      </trkpt>
      <trkpt lat="43.12686022371054" lon="131.8914561253041">
        <ele>74.4</ele>
        <time>2026-09-22T13:37:25.000Z</time>
      </trkpt>
      <trkpt lat="43.12668210826814" lon="131.89120919443667">
        <ele>76.6</ele>
        <time>2026-09-22T13:37:47.000Z</time>
      </trkpt>
      <trkpt lat="43.12647323124111" lon="131.89101045951247">
        <ele>78.6</ele>
        <time>2026-09-22T13:38:03.000Z</time>
      </trkpt>
      <trkpt lat="43.126252787187696" lon="131.89085078425705">
        <ele>80.6</ele>
        <time>2026-09-22T13:38:19.000Z</time>
      </trkpt>
      <trkpt lat="43.12603200785816" lon="131.89066872932017">
        <ele>82.6</ele>
        <time>2026-09-22T13:38:35.000Z</time>
      </trkpt>
      <trkpt lat="43.12582841143012" lon="131.8905171006918">
        <ele>84.8</ele>
        <time>2026-09-22T13:38:51.000Z</time>
      </trkpt>
      <trkpt lat="43.125645434483886" lon="131.89030176959932">
        <ele>86.4</ele>
        <time>2026-09-22T13:39:12.000Z</time>
      </trkpt>
      <trkpt lat="43.125562872737646" lon="131.88996506854892">
        <ele>88.4</ele>
        <time>2026-09-22T13:39:28.000Z</time>
      </trkpt>
      <trkpt lat="43.125471426174045" lon="131.8896204046905">
        <ele>90.6</ele>
        <time>2026-09-22T13:39:44.000Z</time>
      </trkpt>
      <trkpt lat="43.1253613717854" lon="131.88928856514394">
        <ele>92.8</ele>
        <time>2026-09-22T13:40:00.000Z</time>
      </trkpt>
      <trkpt lat="43.125188956037164" lon="131.8889834638685">
        <ele>93.6</ele>
        <time>2026-09-22T13:40:16.000Z</time>
      </trkpt>
      <trkpt lat="43.12492500990629" lon="131.88878900371492">
        <ele>94.2</ele>
        <time>2026-09-22T13:40:32.000Z</time>
      </trkpt>
      <trkpt lat="43.124601133167744" lon="131.88862052746117">
        <ele>95</ele>
        <time>2026-09-22T13:40:48.000Z</time>
      </trkpt>
      <trkpt lat="43.124559726566076" lon="131.88847292214632">
        <ele>94.6</ele>
        <time>2026-09-22T13:40:56.000Z</time>
      </trkpt>
      <trkpt lat="43.12448169104755" lon="131.88831022940576">
        <ele>93.8</ele>
        <time>2026-09-22T13:41:26.000Z</time>
      </trkpt>
      <trkpt lat="43.124398961663246" lon="131.8881633784622">
        <ele>92.6</ele>
        <time>2026-09-22T13:41:43.000Z</time>
      </trkpt>
      <trkpt lat="43.12442586757243" lon="131.8875909782946">
        <ele>89.8</ele>
        <time>2026-09-22T13:41:59.000Z</time>
      </trkpt>
      <trkpt lat="43.12433760613203" lon="131.8868752475828">
        <ele>85.6</ele>
        <time>2026-09-22T13:42:13.000Z</time>
      </trkpt>
      <trkpt lat="43.12419787980616" lon="131.8861360475421">
        <ele>81.2</ele>
        <time>2026-09-22T13:42:29.000Z</time>
      </trkpt>
      <trkpt lat="43.12397542409599" lon="131.8853894714266">
        <ele>76.6</ele>
        <time>2026-09-22T13:42:45.000Z</time>
      </trkpt>
      <trkpt lat="43.123702090233564" lon="131.88507582060993">
        <ele>73.8</ele>
        <time>2026-09-22T13:42:59.000Z</time>
      </trkpt>
      <trkpt lat="43.12322658486664" lon="131.8848625011742">
        <ele>70.2</ele>
        <time>2026-09-22T13:43:15.000Z</time>
      </trkpt>
      <trkpt lat="43.12299490906298" lon="131.8847754970193">
        <ele>68.6</ele>
        <time>2026-09-22T13:43:35.000Z</time>
      </trkpt>
      <trkpt lat="43.12280145473778" lon="131.88469461165369">
        <ele>68</ele>
        <time>2026-09-22T13:43:55.000Z</time>
      </trkpt>
      <trkpt lat="43.122490318492055" lon="131.884534265846">
        <ele>66.8</ele>
        <time>2026-09-22T13:44:11.000Z</time>
      </trkpt>
      <trkpt lat="43.122341288253665" lon="131.88447508960962">
        <ele>66.2</ele>
        <time>2026-09-22T13:44:43.000Z</time>
      </trkpt>
      <trkpt lat="43.122032918035984" lon="131.8844055198133">
        <ele>65.4</ele>
        <time>2026-09-22T13:44:56.000Z</time>
      </trkpt>
      <trkpt lat="43.121428079903126" lon="131.8841850757599">
        <ele>63.2</ele>
        <time>2026-09-22T13:45:12.000Z</time>
      </trkpt>
      <trkpt lat="43.12063925899565" lon="131.88391031697392">
        <ele>58.6</ele>
        <time>2026-09-22T13:45:28.000Z</time>
      </trkpt>
      <trkpt lat="43.11990341171622" lon="131.88363849185407">
        <ele>54.6</ele>
        <time>2026-09-22T13:45:41.000Z</time>
      </trkpt>
      <trkpt lat="43.11900579370558" lon="131.88332626596093">
        <ele>52.4</ele>
        <time>2026-09-22T13:45:57.000Z</time>
      </trkpt>
      <trkpt lat="43.11854143626988" lon="131.88315435312688">
        <ele>53.2</ele>
        <time>2026-09-22T13:46:10.000Z</time>
      </trkpt>
      <trkpt lat="43.11828352510929" lon="131.88303750939667">
        <ele>54.8</ele>
        <time>2026-09-22T13:46:22.000Z</time>
      </trkpt>
      <trkpt lat="43.1179997138679" lon="131.88295947387815">
        <ele>56.4</ele>
        <time>2026-09-22T13:46:35.000Z</time>
      </trkpt>
      <trkpt lat="43.11747785657644" lon="131.8827836215496">
        <ele>56.8</ele>
        <time>2026-09-22T13:46:51.000Z</time>
      </trkpt>
      <trkpt lat="43.116800263524055" lon="131.88253602012992">
        <ele>54</ele>
        <time>2026-09-22T13:47:06.000Z</time>
      </trkpt>
      <trkpt lat="43.116068271920085" lon="131.88229621388018">
        <ele>53</ele>
        <time>2026-09-22T13:47:22.000Z</time>
      </trkpt>
      <trkpt lat="43.11565370298922" lon="131.88210879452527">
        <ele>54.6</ele>
        <time>2026-09-22T13:47:37.000Z</time>
      </trkpt>
      <trkpt lat="43.11551137827337" lon="131.88204391859472">
        <ele>56</ele>
        <time>2026-09-22T13:58:55.000Z</time>
      </trkpt>
      <trkpt lat="43.11509370803833" lon="131.88194677233696">
        <ele>57.4</ele>
        <time>2026-09-22T13:59:11.000Z</time>
      </trkpt>
      <trkpt lat="43.11467980965972" lon="131.8817932996899">
        <ele>59</ele>
        <time>2026-09-22T13:59:27.000Z</time>
      </trkpt>
      <trkpt lat="43.11423380859196" lon="131.88164016231894">
        <ele>60.2</ele>
        <time>2026-09-22T13:59:43.000Z</time>
      </trkpt>
      <trkpt lat="43.113762494176626" lon="131.88149482011795">
        <ele>61.2</ele>
        <time>2026-09-22T13:59:59.000Z</time>
      </trkpt>
      <trkpt lat="43.113366113975644" lon="131.88136246986687">
        <ele>61.4</ele>
        <time>2026-09-22T14:00:15.000Z</time>
      </trkpt>
      <trkpt lat="43.112927908077836" lon="131.88122106716037">
        <ele>59.6</ele>
        <time>2026-09-22T14:00:30.000Z</time>
      </trkpt>
      <trkpt lat="43.112323405221105" lon="131.88097807578743">
        <ele>55.6</ele>
        <time>2026-09-22T14:00:45.000Z</time>
      </trkpt>
      <trkpt lat="43.11204026453197" lon="131.88082912936807">
        <ele>53.8</ele>
        <time>2026-09-22T14:00:54.000Z</time>
      </trkpt>
      <trkpt lat="43.11212777160108" lon="131.88044372946024">
        <ele>55.6</ele>
        <time>2026-09-22T14:01:07.000Z</time>
      </trkpt>
      <trkpt lat="43.11218552291393" lon="131.88013452105224">
        <ele>57.8</ele>
        <time>2026-09-22T14:01:21.000Z</time>
      </trkpt>
      <trkpt lat="43.11224050819874" lon="131.87978834845126">
        <ele>60.4</ele>
        <time>2026-09-22T14:01:37.000Z</time>
      </trkpt>
      <trkpt lat="43.11233296059072" lon="131.87950797379017">
        <ele>63</ele>
        <time>2026-09-22T14:01:53.000Z</time>
      </trkpt>
      <trkpt lat="43.11242105439305" lon="131.8791412655264">
        <ele>66.8</ele>
        <time>2026-09-22T14:02:29.000Z</time>
      </trkpt>
      <trkpt lat="43.11246539466083" lon="131.87885611318052">
        <ele>69.6</ele>
        <time>2026-09-22T14:02:46.000Z</time>
      </trkpt>
      <trkpt lat="43.112509064376354" lon="131.8785603158176">
        <ele>71.6</ele>
        <time>2026-09-22T14:03:16.000Z</time>
      </trkpt>
      <trkpt lat="43.11256245709956" lon="131.87835780903697">
        <ele>73.2</ele>
        <time>2026-09-22T14:03:32.000Z</time>
      </trkpt>
      <trkpt lat="43.11259891837835" lon="131.87823618762195">
        <ele>74</ele>
        <time>2026-09-22T14:03:55.000Z</time>
      </trkpt>
      <trkpt lat="43.112643426284194" lon="131.8779418990016">
        <ele>75</ele>
        <time>2026-09-22T14:04:18.000Z</time>
      </trkpt>
      <trkpt lat="43.11265197582543" lon="131.8778335209936">
        <ele>75.2</ele>
        <time>2026-09-22T14:04:28.000Z</time>
      </trkpt>
      <trkpt lat="43.112389873713255" lon="131.87779672443867">
        <ele>74</ele>
        <time>2026-09-22T14:05:16.000Z</time>
      </trkpt>
      <trkpt lat="43.11170507222414" lon="131.87753537669778">
        <ele>67.4</ele>
        <time>2026-09-22T14:05:32.000Z</time>
      </trkpt>
      <trkpt lat="43.11094860546291" lon="131.87729640863836">
        <ele>64.4</ele>
        <time>2026-09-22T14:05:48.000Z</time>
      </trkpt>
      <trkpt lat="43.110502269119024" lon="131.87711502425373">
        <ele>63.6</ele>
        <time>2026-09-22T14:06:03.000Z</time>
      </trkpt>
      <trkpt lat="43.11050796881318" lon="131.87699558213353">
        <ele>62.8</ele>
        <time>2026-09-22T14:06:11.000Z</time>
      </trkpt>
      <trkpt lat="43.11064476147294" lon="131.8761862255633">
        <ele>57</ele>
        <time>2026-09-22T14:06:53.000Z</time>
      </trkpt>
      <trkpt lat="43.11074039898813" lon="131.87582957558334">
        <ele>54.2</ele>
        <time>2026-09-22T14:07:06.000Z</time>
      </trkpt>
      <trkpt lat="43.11069522053003" lon="131.87560812570155">
        <ele>53.4</ele>
        <time>2026-09-22T14:07:34.000Z</time>
      </trkpt>
      <trkpt lat="43.110607797279954" lon="131.87522909604013">
        <ele>50.2</ele>
        <time>2026-09-22T14:07:50.000Z</time>
      </trkpt>
      <trkpt lat="43.11039397493005" lon="131.87496732920408">
        <ele>48.8</ele>
        <time>2026-09-22T14:08:04.000Z</time>
      </trkpt>
      <trkpt lat="43.11001888476312" lon="131.87471377663314">
        <ele>47.6</ele>
        <time>2026-09-22T14:08:20.000Z</time>
      </trkpt>
      <trkpt lat="43.109797686338425" lon="131.87458427622914">
        <ele>45.6</ele>
        <time>2026-09-22T14:08:33.000Z</time>
      </trkpt>
      <trkpt lat="43.10965972021222" lon="131.87460808083415">
        <ele>45.6</ele>
        <time>2026-09-22T14:08:42.000Z</time>
      </trkpt>
      <trkpt lat="43.10955427587032" lon="131.87440490350127">
        <ele>45.6</ele>
        <time>2026-09-22T14:28:48.000Z</time>
      </trkpt>
      <trkpt lat="43.1094310618937" lon="131.87452015466988">
        <ele>49.6</ele>
        <time>2026-09-22T14:34:11.000Z</time>
      </trkpt>
      <trkpt lat="43.10932352207601" lon="131.87453859485686">
        <ele>49.4</ele>
        <time>2026-09-22T14:34:15.000Z</time>
      </trkpt>
      <trkpt lat="43.10900928452611" lon="131.87467438168824">
        <ele>49.4</ele>
        <time>2026-09-22T14:34:24.000Z</time>
      </trkpt>
      <trkpt lat="43.108817087486386" lon="131.87451219186187">
        <ele>49.6</ele>
        <time>2026-09-22T14:34:36.000Z</time>
      </trkpt>
      <trkpt lat="43.109877314418554" lon="131.87476448714733">
        <ele>48.6</ele>
        <time>2026-09-22T14:39:55.000Z</time>
      </trkpt>
      <trkpt lat="43.10992358252406" lon="131.87489029951394">
        <ele>48.6</ele>
        <time>2026-09-22T14:40:05.000Z</time>
      </trkpt>
      <trkpt lat="43.10982132330537" lon="131.8749287724495">
        <ele>48.6</ele>
        <time>2026-09-22T14:40:12.000Z</time>
      </trkpt>
      <trkpt lat="43.10978268273175" lon="131.87492592260242">
        <ele>48.6</ele>
        <time>2026-09-22T14:40:17.000Z</time>
      </trkpt>
      <trkpt lat="43.10988578014076" lon="131.87524192035198">
        <ele>48.6</ele>
        <time>2026-09-22T14:40:37.000Z</time>
      </trkpt>
      <trkpt lat="43.10985250398517" lon="131.87540067359805">
        <ele>48.6</ele>
        <time>2026-09-22T14:40:42.000Z</time>
      </trkpt>
      <trkpt lat="43.10974622145295" lon="131.8754320219159">
        <ele>48.4</ele>
        <time>2026-09-22T14:41:10.000Z</time>
      </trkpt>
      <trkpt lat="43.10965670272708" lon="131.87505466863513">
        <ele>48.6</ele>
        <time>2026-09-22T14:41:59.000Z</time>
      </trkpt>
      <trkpt lat="43.10959216207266" lon="131.87491837888956">
        <ele>48.6</ele>
        <time>2026-09-22T14:42:17.000Z</time>
      </trkpt>
      <trkpt lat="43.10960741713643" lon="131.87492039054632">
        <ele>48.6</ele>
        <time>2026-09-22T14:42:34.000Z</time>
      </trkpt>
      <trkpt lat="43.10973012819886" lon="131.87509666197002">
        <ele>49.6</ele>
        <time>2026-09-22T14:45:13.000Z</time>
      </trkpt>
      <trkpt lat="43.109753178432584" lon="131.87475468032062">
        <ele>50.2</ele>
        <time>2026-09-22T14:49:23.000Z</time>
      </trkpt>
      <trkpt lat="43.10979793779552" lon="131.87466985546052">
        <ele>50.4</ele>
        <time>2026-09-22T14:50:25.000Z</time>
      </trkpt>
      <trkpt lat="43.10970766469836" lon="131.87441295012832">
        <ele>50.4</ele>
        <time>2026-09-22T14:50:50.000Z</time>
      </trkpt>
      <trkpt lat="43.10971579514444" lon="131.87437992542982">
        <ele>50.4</ele>
        <time>2026-09-22T14:50:56.000Z</time>
      </trkpt>
      <trkpt lat="43.109912518411875" lon="131.87483145855367">
        <ele>50.2</ele>
        <time>2026-09-22T14:51:58.000Z</time>
      </trkpt>
      <trkpt lat="43.109948225319386" lon="131.87486414797604">
        <ele>50.2</ele>
        <time>2026-09-22T14:52:36.000Z</time>
      </trkpt>
      <trkpt lat="43.109961887821555" lon="131.87475970946252">
        <ele>50.2</ele>
        <time>2026-09-22T14:52:42.000Z</time>
      </trkpt>
      <trkpt lat="43.10980640351772" lon="131.8746245931834">
        <ele>50.4</ele>
        <time>2026-09-22T14:53:37.000Z</time>
      </trkpt>
      <trkpt lat="43.109693499282" lon="131.87447941862047">
        <ele>50.4</ele>
        <time>2026-09-22T14:53:55.000Z</time>
      </trkpt>
      <trkpt lat="43.10978771187365" lon="131.87461998313665">
        <ele>50.6</ele>
        <time>2026-09-22T14:54:11.000Z</time>
      </trkpt>
      <trkpt lat="43.109825598075986" lon="131.87460657209158">
        <ele>50.8</ele>
        <time>2026-09-22T14:56:23.000Z</time>
      </trkpt>
      <trkpt lat="43.10987060889602" lon="131.87467698007822">
        <ele>51</ele>
        <time>2026-09-22T14:58:46.000Z</time>
      </trkpt>
      <trkpt lat="43.10984336771071" lon="131.87506766058505">
        <ele>51</ele>
        <time>2026-09-22T15:02:41.000Z</time>
      </trkpt>
      <trkpt lat="43.109864154830575" lon="131.8751235678792">
        <ele>51</ele>
        <time>2026-09-22T15:02:47.000Z</time>
      </trkpt>
      <trkpt lat="43.10975837521255" lon="131.87505290843546">
        <ele>51.2</ele>
        <time>2026-09-22T15:03:33.000Z</time>
      </trkpt>
      <trkpt lat="43.10979802161455" lon="131.87507486902177">
        <ele>51.2</ele>
        <time>2026-09-22T15:03:40.000Z</time>
      </trkpt>
      <trkpt lat="43.10968838632107" lon="131.8750799819827">
        <ele>51.4</ele>
        <time>2026-09-22T15:04:21.000Z</time>
      </trkpt>
      <trkpt lat="43.10971889644861" lon="131.87519741244614">
        <ele>51.4</ele>
        <time>2026-09-22T15:04:48.000Z</time>
      </trkpt>
      <trkpt lat="43.10973406769335" lon="131.87524762004614">
        <ele>51.4</ele>
        <time>2026-09-22T15:04:57.000Z</time>
      </trkpt>
      <trkpt lat="43.10993037186563" lon="131.87497286126018">
        <ele>51.4</ele>
        <time>2026-09-22T15:05:54.000Z</time>
      </trkpt>
      <trkpt lat="43.109937999397516" lon="131.87478099949658">
        <ele>51.4</ele>
        <time>2026-09-22T15:06:25.000Z</time>
      </trkpt>
      <trkpt lat="43.1098266877234" lon="131.87459751963615">
        <ele>51.4</ele>
        <time>2026-09-22T15:07:52.000Z</time>
      </trkpt>
      <trkpt lat="43.109853928908706" lon="131.87465728260577">
        <ele>51.4</ele>
        <time>2026-09-22T15:08:26.000Z</time>
      </trkpt>
      <trkpt lat="43.10969048179686" lon="131.87437950633466">
        <ele>51.6</ele>
        <time>2026-09-22T15:09:02.000Z</time>
      </trkpt>
      <trkpt lat="43.109742533415556" lon="131.874417392537">
        <ele>51.6</ele>
        <time>2026-09-22T15:09:47.000Z</time>
      </trkpt>
      <trkpt lat="43.10972032137215" lon="131.87450372613966">
        <ele>51.6</ele>
        <time>2026-09-22T15:09:56.000Z</time>
      </trkpt>
      <trkpt lat="43.109704311937094" lon="131.8745936639607">
        <ele>51.6</ele>
        <time>2026-09-22T15:10:05.000Z</time>
      </trkpt>
      <trkpt lat="43.109673634171486" lon="131.87457421794534">
        <ele>51.8</ele>
        <time>2026-09-22T15:10:52.000Z</time>
      </trkpt>
      <trkpt lat="43.109796261414886" lon="131.8746576178819">
        <ele>51.8</ele>
        <time>2026-09-22T15:11:08.000Z</time>
      </trkpt>
      <trkpt lat="43.10984990559518" lon="131.87457086518407">
        <ele>51.6</ele>
        <time>2026-09-22T15:11:48.000Z</time>
      </trkpt>
      <trkpt lat="43.10987018980086" lon="131.87470531091094">
        <ele>51.6</ele>
        <time>2026-09-22T15:12:12.000Z</time>
      </trkpt>
      <trkpt lat="43.109843116253614" lon="131.87485752627254">
        <ele>51.6</ele>
        <time>2026-09-22T15:13:23.000Z</time>
      </trkpt>
      <trkpt lat="43.10984831303358" lon="131.87487571500242">
        <ele>51.6</ele>
        <time>2026-09-22T15:13:31.000Z</time>
      </trkpt>
      <trkpt lat="43.109894916415215" lon="131.87491904944181">
        <ele>51.8</ele>
        <time>2026-09-22T15:13:51.000Z</time>
      </trkpt>
      <trkpt lat="43.10987907461822" lon="131.8748439475894">
        <ele>51.8</ele>
        <time>2026-09-22T15:13:59.000Z</time>
      </trkpt>
      <trkpt lat="43.10989080928266" lon="131.87482559122145">
        <ele>51.6</ele>
        <time>2026-09-22T15:15:13.000Z</time>
      </trkpt>
      <trkpt lat="43.10971110127866" lon="131.87479256652296">
        <ele>51.8</ele>
        <time>2026-09-22T15:16:07.000Z</time>
      </trkpt>
      <trkpt lat="43.10966508463025" lon="131.87462844885886">
        <ele>51.8</ele>
        <time>2026-09-22T15:16:11.000Z</time>
      </trkpt>
      <trkpt lat="43.10946802608669" lon="131.87450196594">
        <ele>51.8</ele>
        <time>2026-09-22T15:16:17.000Z</time>
      </trkpt>
      <trkpt lat="43.10962392948568" lon="131.87449819408357">
        <ele>51.8</ele>
        <time>2026-09-22T15:16:23.000Z</time>
      </trkpt>
      <trkpt lat="43.11003036797047" lon="131.87460782937706">
        <ele>51.6</ele>
        <time>2026-09-22T15:17:11.000Z</time>
      </trkpt>
      <trkpt lat="43.11002600938082" lon="131.8745540175587">
        <ele>51.6</ele>
        <time>2026-09-22T15:17:20.000Z</time>
      </trkpt>
      <trkpt lat="43.10996599495411" lon="131.87474395148456">
        <ele>51.6</ele>
        <time>2026-09-22T15:17:53.000Z</time>
      </trkpt>
      <trkpt lat="43.109985357150435" lon="131.87458226457238">
        <ele>51.6</ele>
        <time>2026-09-22T15:18:17.000Z</time>
      </trkpt>
      <trkpt lat="43.10969785787165" lon="131.8747091665864">
        <ele>51.6</ele>
        <time>2026-09-22T15:18:51.000Z</time>
      </trkpt>
      <trkpt lat="43.10998770408332" lon="131.87487311661243">
        <ele>51.6</ele>
        <time>2026-09-22T15:22:35.000Z</time>
      </trkpt>
      <trkpt lat="43.11004713177681" lon="131.87488141469657">
        <ele>51.6</ele>
        <time>2026-09-22T15:22:43.000Z</time>
      </trkpt>
      <trkpt lat="43.109885193407536" lon="131.87504737637937">
        <ele>51.6</ele>
        <time>2026-09-22T15:23:31.000Z</time>
      </trkpt>
      <trkpt lat="43.1097645778209" lon="131.87516497448087">
        <ele>51.4</ele>
        <time>2026-09-22T15:23:48.000Z</time>
      </trkpt>
      <trkpt lat="43.10957355424762" lon="131.87528969720006">
        <ele>51.4</ele>
        <time>2026-09-22T15:25:17.000Z</time>
      </trkpt>
      <trkpt lat="43.10954891145229" lon="131.87516380101442">
        <ele>51.4</ele>
        <time>2026-09-22T15:25:23.000Z</time>
      </trkpt>
      <trkpt lat="43.109598364681005" lon="131.87515541911125">
        <ele>51.4</ele>
        <time>2026-09-22T15:25:29.000Z</time>
      </trkpt>
      <trkpt lat="43.10968209989369" lon="131.8755046930164">
        <ele>51.4</ele>
        <time>2026-09-22T15:25:55.000Z</time>
      </trkpt>
      <trkpt lat="43.109923331066966" lon="131.87512968666852">
        <ele>51.2</ele>
        <time>2026-09-22T15:26:14.000Z</time>
      </trkpt>
      <trkpt lat="43.10981051065028" lon="131.87494670972228">
        <ele>51.2</ele>
        <time>2026-09-22T15:26:23.000Z</time>
      </trkpt>
      <trkpt lat="43.109828028827906" lon="131.87514376826584">
        <ele>51.2</ele>
        <time>2026-09-22T15:26:41.000Z</time>
      </trkpt>
      <trkpt lat="43.110218876972795" lon="131.8753431737423">
        <ele>51.2</ele>
        <time>2026-09-22T15:27:12.000Z</time>
      </trkpt>
      <trkpt lat="43.10883519239724" lon="131.87609159387648">
        <ele>52</ele>
        <time>2026-09-22T15:36:08.000Z</time>
      </trkpt>
      <trkpt lat="43.10882957652211" lon="131.87603786587715">
        <ele>52</ele>
        <time>2026-09-22T15:36:12.000Z</time>
      </trkpt>
      <trkpt lat="43.10889579355717" lon="131.87593317590654">
        <ele>52</ele>
        <time>2026-09-22T15:36:18.000Z</time>
      </trkpt>
      <trkpt lat="43.108698315918446" lon="131.87591104768217">
        <ele>52</ele>
        <time>2026-09-22T15:36:25.000Z</time>
      </trkpt>
      <trkpt lat="43.108413415029645" lon="131.87564718537033">
        <ele>52</ele>
        <time>2026-09-22T15:36:32.000Z</time>
      </trkpt>
      <trkpt lat="43.10841458849609" lon="131.8753860052675">
        <ele>52</ele>
        <time>2026-09-22T15:36:41.000Z</time>
      </trkpt>
      <trkpt lat="43.1083776243031" lon="131.87532356008887">
        <ele>52</ele>
        <time>2026-09-22T15:36:49.000Z</time>
      </trkpt>
      <trkpt lat="43.10776960104704" lon="131.8749218992889">
        <ele>52</ele>
        <time>2026-09-22T15:36:53.000Z</time>
      </trkpt>
      <trkpt lat="43.107614032924175" lon="131.87495559453964">
        <ele>52</ele>
        <time>2026-09-22T15:36:58.000Z</time>
      </trkpt>
    </trkseg>
  </trk>
</gpx>