<?xml version="1.0" encoding="UTF-8"?>
<gpx creator="IGPSPORT" xmlns:xsi="http://www.w3.org/2001/XMLSchema-instance" schemaLocation="http://www.topografix.com/GPX/1/1 http://www.topografix.com/GPX/1/1/gpx.xsd" version="1.1" xmlns="http://www.topografix.com/GPX/1/1">
  <metadata>
    <time>2026-06-04T13:44:17.000Z</time>
    <link href="https://www.igpsport.cn/">
      <text>Велоспорт на свежем воздухе</text>
    </link>
  </metadata>
  <trk>
    <name>Велоспорт на свежем воздухе</name>
    <trkseg>
      <trkpt lat="57.28905038908124" lon="47.87490125745535">
        <ele>105.2</ele>
        <time>2026-06-04T13:44:17.000Z</time>
      </trkpt>
      <trkpt lat="57.289131777361035" lon="47.87477971985936">
        <ele>105</ele>
        <time>2026-06-04T13:44:39.000Z</time>
      </trkpt>
      <trkpt lat="57.28921073488891" lon="47.87465122528374">
        <ele>105</ele>
        <time>2026-06-04T13:44:44.000Z</time>
      </trkpt>
      <trkpt lat="57.289356999099255" lon="47.874485766515136">
        <ele>105.4</ele>
        <time>2026-06-04T13:44:53.000Z</time>
      </trkpt>
      <trkpt lat="57.28940033353865" lon="47.8744462877512">
        <ele>105.4</ele>
        <time>2026-06-04T13:44:56.000Z</time>
      </trkpt>
      <trkpt lat="57.289441991597414" lon="47.87441552616656">
        <ele>105.4</ele>
        <time>2026-06-04T13:44:58.000Z</time>
      </trkpt>
      <trkpt lat="57.28949119336903" lon="47.874390967190266">
        <ele>105.4</ele>
        <time>2026-06-04T13:45:00.000Z</time>
      </trkpt>
      <trkpt lat="57.28956495411694" lon="47.87435559555888">
        <ele>105.4</ele>
        <time>2026-06-04T13:45:03.000Z</time>
      </trkpt>
      <trkpt lat="57.289636032655835" lon="47.87429633550346">
        <ele>105.4</ele>
        <time>2026-06-04T13:45:06.000Z</time>
      </trkpt>
      <trkpt lat="57.28968506678939" lon="47.874250654131174">
        <ele>105.4</ele>
        <time>2026-06-04T13:45:08.000Z</time>
      </trkpt>
      <trkpt lat="57.28973560966551" lon="47.87420555949211">
        <ele>105.4</ele>
        <time>2026-06-04T13:45:10.000Z</time>
      </trkpt>
      <trkpt lat="57.29010935872793" lon="47.873812867328525">
        <ele>105.4</ele>
        <time>2026-06-04T13:45:26.000Z</time>
      </trkpt>
      <trkpt lat="57.29022226296365" lon="47.87366786040366">
        <ele>105.4</ele>
        <time>2026-06-04T13:45:32.000Z</time>
      </trkpt>
      <trkpt lat="57.29026861488819" lon="47.87361589260399">
        <ele>105.4</ele>
        <time>2026-06-04T13:45:34.000Z</time>
      </trkpt>
      <trkpt lat="57.290398282930255" lon="47.873250022530556">
        <ele>105.8</ele>
        <time>2026-06-04T13:45:44.000Z</time>
      </trkpt>
      <trkpt lat="57.29040733538568" lon="47.87310937419534">
        <ele>105.6</ele>
        <time>2026-06-04T13:45:47.000Z</time>
      </trkpt>
      <trkpt lat="57.29035411030054" lon="47.87247125990689">
        <ele>105.4</ele>
        <time>2026-06-04T13:46:00.000Z</time>
      </trkpt>
      <trkpt lat="57.290318654850125" lon="47.87200170569122">
        <ele>105</ele>
        <time>2026-06-04T13:46:08.000Z</time>
      </trkpt>
      <trkpt lat="57.29015378281474" lon="47.87134020589292">
        <ele>105.4</ele>
        <time>2026-06-04T13:46:22.000Z</time>
      </trkpt>
      <trkpt lat="57.2900299821049" lon="47.870670994743705">
        <ele>105.4</ele>
        <time>2026-06-04T13:46:35.000Z</time>
      </trkpt>
      <trkpt lat="57.2900194209069" lon="47.8702135104686">
        <ele>105.4</ele>
        <time>2026-06-04T13:46:43.000Z</time>
      </trkpt>
      <trkpt lat="57.29008027352393" lon="47.86934078671038">
        <ele>104.8</ele>
        <time>2026-06-04T13:46:58.000Z</time>
      </trkpt>
      <trkpt lat="57.28996317833662" lon="47.868755562230945">
        <ele>105.2</ele>
        <time>2026-06-04T13:47:09.000Z</time>
      </trkpt>
      <trkpt lat="57.28972521610558" lon="47.86804326809943">
        <ele>105.2</ele>
        <time>2026-06-04T13:47:24.000Z</time>
      </trkpt>
      <trkpt lat="57.28964516893029" lon="47.86755393259227">
        <ele>105.2</ele>
        <time>2026-06-04T13:47:33.000Z</time>
      </trkpt>
      <trkpt lat="57.28955380618572" lon="47.86692403256893">
        <ele>105.2</ele>
        <time>2026-06-04T13:47:45.000Z</time>
      </trkpt>
      <trkpt lat="57.28980735875666" lon="47.86660132929683">
        <ele>105</ele>
        <time>2026-06-04T13:47:57.000Z</time>
      </trkpt>
      <trkpt lat="57.290268111974" lon="47.86631659604609">
        <ele>104.8</ele>
        <time>2026-06-04T13:48:13.000Z</time>
      </trkpt>
      <trkpt lat="57.2906930744648" lon="47.866019709035754">
        <ele>105</ele>
        <time>2026-06-04T13:48:29.000Z</time>
      </trkpt>
      <trkpt lat="57.29107956402004" lon="47.86560061387718">
        <ele>105</ele>
        <time>2026-06-04T13:48:45.000Z</time>
      </trkpt>
      <trkpt lat="57.2914423327893" lon="47.86520507186651">
        <ele>105</ele>
        <time>2026-06-04T13:49:00.000Z</time>
      </trkpt>
      <trkpt lat="57.29187726974487" lon="47.86497532390058">
        <ele>105</ele>
        <time>2026-06-04T13:49:16.000Z</time>
      </trkpt>
      <trkpt lat="57.29219142347574" lon="47.864981861785054">
        <ele>105</ele>
        <time>2026-06-04T13:49:27.000Z</time>
      </trkpt>
      <trkpt lat="57.29231329634786" lon="47.865103064104915">
        <ele>104.6</ele>
        <time>2026-06-04T13:49:31.000Z</time>
      </trkpt>
      <trkpt lat="57.29249828495085" lon="47.865305906161666">
        <ele>104.2</ele>
        <time>2026-06-04T13:49:38.000Z</time>
      </trkpt>
      <trkpt lat="57.29278997518122" lon="47.86525687202811">
        <ele>104.4</ele>
        <time>2026-06-04T13:49:48.000Z</time>
      </trkpt>
      <trkpt lat="57.293000277131796" lon="47.865323927253485">
        <ele>104.6</ele>
        <time>2026-06-04T13:50:04.000Z</time>
      </trkpt>
      <trkpt lat="57.293017376214266" lon="47.86505637690425">
        <ele>104.6</ele>
        <time>2026-06-04T13:50:33.000Z</time>
      </trkpt>
      <trkpt lat="57.292515467852354" lon="47.86534161306918">
        <ele>102.6</ele>
        <time>2026-06-04T14:16:12.000Z</time>
      </trkpt>
      <trkpt lat="57.2922214306891" lon="47.865032656118274">
        <ele>102.8</ele>
        <time>2026-06-04T14:16:28.000Z</time>
      </trkpt>
      <trkpt lat="57.29206670075655" lon="47.864951184019446">
        <ele>103.6</ele>
        <time>2026-06-04T14:16:37.000Z</time>
      </trkpt>
      <trkpt lat="57.29177710600197" lon="47.86509015597403">
        <ele>103</ele>
        <time>2026-06-04T14:16:52.000Z</time>
      </trkpt>
      <trkpt lat="57.291406290605664" lon="47.865279503166676">
        <ele>103.4</ele>
        <time>2026-06-04T14:17:08.000Z</time>
      </trkpt>
      <trkpt lat="57.29104201309383" lon="47.865690467879176">
        <ele>103.2</ele>
        <time>2026-06-04T14:17:23.000Z</time>
      </trkpt>
      <trkpt lat="57.29066616855562" lon="47.86608492024243">
        <ele>103.2</ele>
        <time>2026-06-04T14:17:39.000Z</time>
      </trkpt>
      <trkpt lat="57.29026107117534" lon="47.86635850556195">
        <ele>103.4</ele>
        <time>2026-06-04T14:17:56.000Z</time>
      </trkpt>
      <trkpt lat="57.28985312394798" lon="47.86660501733422">
        <ele>103.4</ele>
        <time>2026-06-04T14:18:12.000Z</time>
      </trkpt>
      <trkpt lat="57.28956051170826" lon="47.8669672831893">
        <ele>103.4</ele>
        <time>2026-06-04T14:18:26.000Z</time>
      </trkpt>
      <trkpt lat="57.289417600259185" lon="47.86756608635187">
        <ele>103.6</ele>
        <time>2026-06-04T14:18:40.000Z</time>
      </trkpt>
      <trkpt lat="57.289187517017126" lon="47.868143264204264">
        <ele>103.8</ele>
        <time>2026-06-04T14:18:54.000Z</time>
      </trkpt>
      <trkpt lat="57.288875291123986" lon="47.86824569106102">
        <ele>103.6</ele>
        <time>2026-06-04T14:19:05.000Z</time>
      </trkpt>
      <trkpt lat="57.288461392745376" lon="47.8679203055799">
        <ele>103.6</ele>
        <time>2026-06-04T14:19:21.000Z</time>
      </trkpt>
      <trkpt lat="57.28819099254906" lon="47.868052991107106">
        <ele>103.4</ele>
        <time>2026-06-04T14:19:30.000Z</time>
      </trkpt>
      <trkpt lat="57.288051433861256" lon="47.86846806295216">
        <ele>103.4</ele>
        <time>2026-06-04T14:19:39.000Z</time>
      </trkpt>
      <trkpt lat="57.288176491856575" lon="47.869189996272326">
        <ele>103.6</ele>
        <time>2026-06-04T14:19:54.000Z</time>
      </trkpt>
      <trkpt lat="57.28849969804287" lon="47.86964479833841">
        <ele>103.8</ele>
        <time>2026-06-04T14:20:09.000Z</time>
      </trkpt>
      <trkpt lat="57.28888317011297" lon="47.86982190795243">
        <ele>104</ele>
        <time>2026-06-04T14:20:26.000Z</time>
      </trkpt>
      <trkpt lat="57.28921551257372" lon="47.86984152160585">
        <ele>103.8</ele>
        <time>2026-06-04T14:20:39.000Z</time>
      </trkpt>
      <trkpt lat="57.289588591083884" lon="47.86986876279116">
        <ele>103.6</ele>
        <time>2026-06-04T14:20:55.000Z</time>
      </trkpt>
      <trkpt lat="57.28987927548587" lon="47.870267825201154">
        <ele>103.8</ele>
        <time>2026-06-04T14:21:11.000Z</time>
      </trkpt>
      <trkpt lat="57.290061665698886" lon="47.87081088870764">
        <ele>104</ele>
        <time>2026-06-04T14:21:27.000Z</time>
      </trkpt>
      <trkpt lat="57.2901697922498" lon="47.871369207277894">
        <ele>104</ele>
        <time>2026-06-04T14:22:09.000Z</time>
      </trkpt>
      <trkpt lat="57.29034933261573" lon="47.87205836735666">
        <ele>103.8</ele>
        <time>2026-06-04T14:22:24.000Z</time>
      </trkpt>
      <trkpt lat="57.290416806936264" lon="47.872920697554946">
        <ele>103.8</ele>
        <time>2026-06-04T14:22:41.000Z</time>
      </trkpt>
      <trkpt lat="57.290583522990346" lon="47.87369107827544">
        <ele>103.8</ele>
        <time>2026-06-04T14:22:56.000Z</time>
      </trkpt>
      <trkpt lat="57.29069600813091" lon="47.874322570860386">
        <ele>103.2</ele>
        <time>2026-06-04T14:23:08.000Z</time>
      </trkpt>
      <trkpt lat="57.29074537754059" lon="47.87453823722899">
        <ele>103.2</ele>
        <time>2026-06-04T14:23:13.000Z</time>
      </trkpt>
      <trkpt lat="57.29115039110184" lon="47.87481953389943">
        <ele>103.6</ele>
        <time>2026-06-04T14:23:28.000Z</time>
      </trkpt>
      <trkpt lat="57.29148927144706" lon="47.87523653358221">
        <ele>103.8</ele>
        <time>2026-06-04T14:23:42.000Z</time>
      </trkpt>
      <trkpt lat="57.29170418344438" lon="47.87553342059255">
        <ele>103.4</ele>
        <time>2026-06-04T14:23:52.000Z</time>
      </trkpt>
      <trkpt lat="57.29176780208945" lon="47.87576626986265">
        <ele>103.2</ele>
        <time>2026-06-04T14:23:58.000Z</time>
      </trkpt>
      <trkpt lat="57.29204951785505" lon="47.87577490322292">
        <ele>103.8</ele>
        <time>2026-06-04T14:24:08.000Z</time>
      </trkpt>
      <trkpt lat="57.29228320531547" lon="47.8757568821311">
        <ele>104</ele>
        <time>2026-06-04T14:24:17.000Z</time>
      </trkpt>
      <trkpt lat="57.2925959341228" lon="47.876399187371135">
        <ele>105</ele>
        <time>2026-06-04T14:24:33.000Z</time>
      </trkpt>
      <trkpt lat="57.2928496543318" lon="47.87689455784857">
        <ele>106.2</ele>
        <time>2026-06-04T14:24:47.000Z</time>
      </trkpt>
      <trkpt lat="57.292775893583894" lon="47.87719496525824">
        <ele>106.6</ele>
        <time>2026-06-04T14:24:55.000Z</time>
      </trkpt>
      <trkpt lat="57.292390912771225" lon="47.87790801376104">
        <ele>106.4</ele>
        <time>2026-06-04T14:25:12.000Z</time>
      </trkpt>
      <trkpt lat="57.292005931958556" lon="47.87857328541577">
        <ele>106</ele>
        <time>2026-06-04T14:25:28.000Z</time>
      </trkpt>
      <trkpt lat="57.291746428236365" lon="47.87895239889622">
        <ele>105.8</ele>
        <time>2026-06-04T14:25:39.000Z</time>
      </trkpt>
      <trkpt lat="57.291634529829025" lon="47.87876506336033">
        <ele>105.2</ele>
        <time>2026-06-04T14:26:24.000Z</time>
      </trkpt>
    </trkseg>
  </trk>
</gpx>