<?xml version="1.0" encoding="UTF-8"?>
<gpx creator="IGPSPORT" xmlns:xsi="http://www.w3.org/2001/XMLSchema-instance" schemaLocation="http://www.topografix.com/GPX/1/1 http://www.topografix.com/GPX/1/1/gpx.xsd" version="1.1" xmlns="http://www.topografix.com/GPX/1/1">
  <metadata>
    <time>2026-07-29T09:31:19.000Z</time>
    <link href="https://www.igpsport.cn/">
      <text>Велоспорт на свежем воздухе</text>
    </link>
  </metadata>
  <trk>
    <name>Велоспорт на свежем воздухе</name>
    <trkseg>
      <trkpt lat="50.08621050976217" lon="88.40410952456295">
        <ele>1735</ele>
        <time>2026-07-29T09:33:04.000Z</time>
      </trkpt>
      <trkpt lat="50.08625811897218" lon="88.40423642657697">
        <ele>1735</ele>
        <time>2026-07-29T09:33:16.000Z</time>
      </trkpt>
      <trkpt lat="50.086280666291714" lon="88.40430700220168">
        <ele>1735.4</ele>
        <time>2026-07-29T09:33:24.000Z</time>
      </trkpt>
      <trkpt lat="50.08626549504697" lon="88.40445016510785">
        <ele>1735.6</ele>
        <time>2026-07-29T09:33:44.000Z</time>
      </trkpt>
      <trkpt lat="50.08627605624497" lon="88.40481595136225">
        <ele>1735.8</ele>
        <time>2026-07-29T09:36:00.000Z</time>
      </trkpt>
      <trkpt lat="50.08629969321191" lon="88.4049984253943">
        <ele>1736</ele>
        <time>2026-07-29T09:36:15.000Z</time>
      </trkpt>
      <trkpt lat="50.08625149726868" lon="88.40530989691615">
        <ele>1736.8</ele>
        <time>2026-07-29T09:36:59.000Z</time>
      </trkpt>
      <trkpt lat="50.08638267405331" lon="88.40539430268109">
        <ele>1736.8</ele>
        <time>2026-07-29T09:37:18.000Z</time>
      </trkpt>
      <trkpt lat="50.0865612924099" lon="88.40548533014953">
        <ele>1737.6</ele>
        <time>2026-07-29T09:37:46.000Z</time>
      </trkpt>
      <trkpt lat="50.08677930571139" lon="88.40575070120394">
        <ele>1741.2</ele>
        <time>2026-07-29T09:38:36.000Z</time>
      </trkpt>
      <trkpt lat="50.086800679564476" lon="88.40584742836654">
        <ele>1741.6</ele>
        <time>2026-07-29T09:38:44.000Z</time>
      </trkpt>
      <trkpt lat="50.08693613111973" lon="88.40594667010009">
        <ele>1743</ele>
        <time>2026-07-29T09:39:10.000Z</time>
      </trkpt>
      <trkpt lat="50.08706361986697" lon="88.40586142614484">
        <ele>1744</ele>
        <time>2026-07-29T09:41:24.000Z</time>
      </trkpt>
      <trkpt lat="50.08713059127331" lon="88.40576151385903">
        <ele>1744</ele>
        <time>2026-07-29T09:41:30.000Z</time>
      </trkpt>
      <trkpt lat="50.08715305477381" lon="88.4057238791138">
        <ele>1743.8</ele>
        <time>2026-07-29T09:41:32.000Z</time>
      </trkpt>
      <trkpt lat="50.08718046359718" lon="88.40568599291146">
        <ele>1743.8</ele>
        <time>2026-07-29T09:41:34.000Z</time>
      </trkpt>
      <trkpt lat="50.087262354791164" lon="88.40561332181096">
        <ele>1743.8</ele>
        <time>2026-07-29T09:41:39.000Z</time>
      </trkpt>
      <trkpt lat="50.08732823655009" lon="88.40562706813216">
        <ele>1744.2</ele>
        <time>2026-07-29T09:41:50.000Z</time>
      </trkpt>
      <trkpt lat="50.08730325847864" lon="88.4056628588587">
        <ele>1744.4</ele>
        <time>2026-07-29T09:41:52.000Z</time>
      </trkpt>
      <trkpt lat="50.087193036451936" lon="88.40586896985769">
        <ele>1744.6</ele>
        <time>2026-07-29T09:42:01.000Z</time>
      </trkpt>
      <trkpt lat="50.08716722019017" lon="88.4059223625809">
        <ele>1744.6</ele>
        <time>2026-07-29T09:42:03.000Z</time>
      </trkpt>
      <trkpt lat="50.08705750107765" lon="88.4061795193702">
        <ele>1744.8</ele>
        <time>2026-07-29T09:42:12.000Z</time>
      </trkpt>
      <trkpt lat="50.08689765818417" lon="88.40656123124063">
        <ele>1744.6</ele>
        <time>2026-07-29T09:42:26.000Z</time>
      </trkpt>
      <trkpt lat="50.08678022772074" lon="88.40684956870973">
        <ele>1744.6</ele>
        <time>2026-07-29T09:42:35.000Z</time>
      </trkpt>
      <trkpt lat="50.086592053994536" lon="88.40718585066497">
        <ele>1744.4</ele>
        <time>2026-07-29T09:42:47.000Z</time>
      </trkpt>
      <trkpt lat="50.086386697366834" lon="88.40742716565728">
        <ele>1745</ele>
        <time>2026-07-29T09:42:58.000Z</time>
      </trkpt>
      <trkpt lat="50.08619709871709" lon="88.4075953066349">
        <ele>1745.4</ele>
        <time>2026-07-29T09:43:07.000Z</time>
      </trkpt>
      <trkpt lat="50.085801808163524" lon="88.40777861885726">
        <ele>1745.2</ele>
        <time>2026-07-29T09:43:23.000Z</time>
      </trkpt>
      <trkpt lat="50.08539319038391" lon="88.40785372070968">
        <ele>1744.8</ele>
        <time>2026-07-29T09:43:39.000Z</time>
      </trkpt>
      <trkpt lat="50.08496470749378" lon="88.4079013299197">
        <ele>1744.6</ele>
        <time>2026-07-29T09:43:55.000Z</time>
      </trkpt>
      <trkpt lat="50.08474526926875" lon="88.40792345814407">
        <ele>1744.2</ele>
        <time>2026-07-29T09:44:03.000Z</time>
      </trkpt>
      <trkpt lat="50.08468173444271" lon="88.40792831964791">
        <ele>1744.2</ele>
        <time>2026-07-29T09:44:05.000Z</time>
      </trkpt>
      <trkpt lat="50.08461266756058" lon="88.40793326497078">
        <ele>1744</ele>
        <time>2026-07-29T09:44:07.000Z</time>
      </trkpt>
      <trkpt lat="50.08454008027911" lon="88.40793779119849">
        <ele>1744</ele>
        <time>2026-07-29T09:44:09.000Z</time>
      </trkpt>
      <trkpt lat="50.084464475512505" lon="88.40793896466494">
        <ele>1743.8</ele>
        <time>2026-07-29T09:44:11.000Z</time>
      </trkpt>
      <trkpt lat="50.08438551798463" lon="88.40793837793171">
        <ele>1743.6</ele>
        <time>2026-07-29T09:44:13.000Z</time>
      </trkpt>
      <trkpt lat="50.08430295623839" lon="88.40793460607529">
        <ele>1743.6</ele>
        <time>2026-07-29T09:44:15.000Z</time>
      </trkpt>
      <trkpt lat="50.084216790273786" lon="88.4079320076853">
        <ele>1743.4</ele>
        <time>2026-07-29T09:44:17.000Z</time>
      </trkpt>
      <trkpt lat="50.08412626571953" lon="88.40792957693338">
        <ele>1743</ele>
        <time>2026-07-29T09:44:19.000Z</time>
      </trkpt>
      <trkpt lat="50.08403079584241" lon="88.40792270377278">
        <ele>1742.8</ele>
        <time>2026-07-29T09:44:21.000Z</time>
      </trkpt>
      <trkpt lat="50.08392979390919" lon="88.40791516005993">
        <ele>1742.4</ele>
        <time>2026-07-29T09:44:23.000Z</time>
      </trkpt>
      <trkpt lat="50.08382309228182" lon="88.40790359303355">
        <ele>1742</ele>
        <time>2026-07-29T09:44:25.000Z</time>
      </trkpt>
      <trkpt lat="50.083709601312876" lon="88.40788875706494">
        <ele>1741.8</ele>
        <time>2026-07-29T09:44:27.000Z</time>
      </trkpt>
      <trkpt lat="50.08359041064978" lon="88.40786788612604">
        <ele>1741.4</ele>
        <time>2026-07-29T09:44:29.000Z</time>
      </trkpt>
      <trkpt lat="50.08346660993993" lon="88.40784232132137">
        <ele>1741.2</ele>
        <time>2026-07-29T09:44:31.000Z</time>
      </trkpt>
      <trkpt lat="50.08333928883076" lon="88.40781901963055">
        <ele>1741</ele>
        <time>2026-07-29T09:44:33.000Z</time>
      </trkpt>
      <trkpt lat="50.08277057670057" lon="88.40772128663957">
        <ele>1740</ele>
        <time>2026-07-29T09:44:42.000Z</time>
      </trkpt>
      <trkpt lat="50.08187002502382" lon="88.40766336768866">
        <ele>1739</ele>
        <time>2026-07-29T09:44:58.000Z</time>
      </trkpt>
      <trkpt lat="50.081160413101315" lon="88.40779781341553">
        <ele>1739.2</ele>
        <time>2026-07-29T09:45:15.000Z</time>
      </trkpt>
      <trkpt lat="50.08061290718615" lon="88.40791256166995">
        <ele>1739.8</ele>
        <time>2026-07-29T09:45:31.000Z</time>
      </trkpt>
      <trkpt lat="50.08025818504393" lon="88.4079838078469">
        <ele>1740</ele>
        <time>2026-07-29T09:45:43.000Z</time>
      </trkpt>
      <trkpt lat="50.07967899553478" lon="88.40796570293605">
        <ele>1739.8</ele>
        <time>2026-07-29T09:45:59.000Z</time>
      </trkpt>
      <trkpt lat="50.07909142412245" lon="88.40798900462687">
        <ele>1739.8</ele>
        <time>2026-07-29T09:46:15.000Z</time>
      </trkpt>
      <trkpt lat="50.07858373224735" lon="88.40826041065156">
        <ele>1740.4</ele>
        <time>2026-07-29T09:46:31.000Z</time>
      </trkpt>
      <trkpt lat="50.07819531485438" lon="88.40856811031699">
        <ele>1741</ele>
        <time>2026-07-29T09:46:47.000Z</time>
      </trkpt>
      <trkpt lat="50.07791066542268" lon="88.40877028182149">
        <ele>1742</ele>
        <time>2026-07-29T09:47:04.000Z</time>
      </trkpt>
      <trkpt lat="50.07788392715156" lon="88.40879023075104">
        <ele>1742</ele>
        <time>2026-07-29T09:47:06.000Z</time>
      </trkpt>
      <trkpt lat="50.07785710506141" lon="88.40880850329995">
        <ele>1742.2</ele>
        <time>2026-07-29T09:47:08.000Z</time>
      </trkpt>
      <trkpt lat="50.07783145643771" lon="88.40882920660079">
        <ele>1742.4</ele>
        <time>2026-07-29T09:47:10.000Z</time>
      </trkpt>
      <trkpt lat="50.07780622690916" lon="88.40884890407324">
        <ele>1742.6</ele>
        <time>2026-07-29T09:47:12.000Z</time>
      </trkpt>
      <trkpt lat="50.077781081199646" lon="88.4088665060699">
        <ele>1742.8</ele>
        <time>2026-07-29T09:47:14.000Z</time>
      </trkpt>
      <trkpt lat="50.07775618694723" lon="88.40888243168592">
        <ele>1743</ele>
        <time>2026-07-29T09:47:16.000Z</time>
      </trkpt>
      <trkpt lat="50.077731795609" lon="88.40889726765454">
        <ele>1743.4</ele>
        <time>2026-07-29T09:47:18.000Z</time>
      </trkpt>
      <trkpt lat="50.077695501968265" lon="88.4089183062315">
        <ele>1743.6</ele>
        <time>2026-07-29T09:47:21.000Z</time>
      </trkpt>
      <trkpt lat="50.077672535553575" lon="88.40893381275237">
        <ele>1743.8</ele>
        <time>2026-07-29T09:47:23.000Z</time>
      </trkpt>
      <trkpt lat="50.0776382535696" lon="88.4089526720345">
        <ele>1744.2</ele>
        <time>2026-07-29T09:47:26.000Z</time>
      </trkpt>
      <trkpt lat="50.07760715670884" lon="88.40897848829627">
        <ele>1744.6</ele>
        <time>2026-07-29T09:47:29.000Z</time>
      </trkpt>
      <trkpt lat="50.0775623973459" lon="88.40899977833033">
        <ele>1745</ele>
        <time>2026-07-29T09:47:33.000Z</time>
      </trkpt>
      <trkpt lat="50.07749752141535" lon="88.40903271920979">
        <ele>1745.6</ele>
        <time>2026-07-29T09:47:40.000Z</time>
      </trkpt>
      <trkpt lat="50.0774468947202" lon="88.4090665820986">
        <ele>1746.2</ele>
        <time>2026-07-29T09:47:45.000Z</time>
      </trkpt>
      <trkpt lat="50.077410601079464" lon="88.40910170227289">
        <ele>1746.6</ele>
        <time>2026-07-29T09:47:49.000Z</time>
      </trkpt>
      <trkpt lat="50.077390568330884" lon="88.409109916538">
        <ele>1746.8</ele>
        <time>2026-07-29T09:47:51.000Z</time>
      </trkpt>
      <trkpt lat="50.07736936211586" lon="88.40911410748959">
        <ele>1747.2</ele>
        <time>2026-07-29T09:47:53.000Z</time>
      </trkpt>
      <trkpt lat="50.07733901962638" lon="88.40912642888725">
        <ele>1747.4</ele>
        <time>2026-07-29T09:47:56.000Z</time>
      </trkpt>
      <trkpt lat="50.07718462496996" lon="88.40920655988157">
        <ele>1749</ele>
        <time>2026-07-29T09:48:12.000Z</time>
      </trkpt>
      <trkpt lat="50.07700927555561" lon="88.40926892124116">
        <ele>1750.6</ele>
        <time>2026-07-29T09:48:28.000Z</time>
      </trkpt>
      <trkpt lat="50.07683392614126" lon="88.40934335254133">
        <ele>1752</ele>
        <time>2026-07-29T09:48:44.000Z</time>
      </trkpt>
      <trkpt lat="50.07663267664611" lon="88.40941669419408">
        <ele>1752.8</ele>
        <time>2026-07-29T09:49:00.000Z</time>
      </trkpt>
      <trkpt lat="50.07637241855264" lon="88.40951208025217">
        <ele>1753.2</ele>
        <time>2026-07-29T09:49:16.000Z</time>
      </trkpt>
      <trkpt lat="50.0760031118989" lon="88.40962246991694">
        <ele>1753</ele>
        <time>2026-07-29T09:49:32.000Z</time>
      </trkpt>
      <trkpt lat="50.07544085383415" lon="88.40985171496868">
        <ele>1751.6</ele>
        <time>2026-07-29T09:49:46.000Z</time>
      </trkpt>
      <trkpt lat="50.07526298984885" lon="88.4099854901433">
        <ele>1750.8</ele>
        <time>2026-07-29T09:49:49.000Z</time>
      </trkpt>
      <trkpt lat="50.075140027329326" lon="88.41009445488453">
        <ele>1750.2</ele>
        <time>2026-07-29T09:49:51.000Z</time>
      </trkpt>
      <trkpt lat="50.07429890334606" lon="88.41097790747881">
        <ele>1748.8</ele>
        <time>2026-07-29T09:50:08.000Z</time>
      </trkpt>
      <trkpt lat="50.07371091283858" lon="88.41156623326242">
        <ele>1748.6</ele>
        <time>2026-07-29T09:50:24.000Z</time>
      </trkpt>
      <trkpt lat="50.07322107441723" lon="88.41208691708744">
        <ele>1748.6</ele>
        <time>2026-07-29T09:50:40.000Z</time>
      </trkpt>
      <trkpt lat="50.072819497436285" lon="88.41252126730978">
        <ele>1748.6</ele>
        <time>2026-07-29T09:50:56.000Z</time>
      </trkpt>
      <trkpt lat="50.0723594147712" lon="88.41292561031878">
        <ele>1747.8</ele>
        <time>2026-07-29T09:51:09.000Z</time>
      </trkpt>
      <trkpt lat="50.07198608480394" lon="88.41286459006369">
        <ele>1747.4</ele>
        <time>2026-07-29T09:51:17.000Z</time>
      </trkpt>
      <trkpt lat="50.071479231119156" lon="88.41251648962498">
        <ele>1748.2</ele>
        <time>2026-07-29T09:51:33.000Z</time>
      </trkpt>
      <trkpt lat="50.071166921406984" lon="88.41249679215252">
        <ele>1749.8</ele>
        <time>2026-07-29T09:51:49.000Z</time>
      </trkpt>
      <trkpt lat="50.07087313570082" lon="88.41262771748006">
        <ele>1751</ele>
        <time>2026-07-29T09:52:05.000Z</time>
      </trkpt>
      <trkpt lat="50.07058345712721" lon="88.41281589120626">
        <ele>1751.8</ele>
        <time>2026-07-29T09:52:22.000Z</time>
      </trkpt>
      <trkpt lat="50.07022077217698" lon="88.41300683096051">
        <ele>1752.2</ele>
        <time>2026-07-29T09:52:38.000Z</time>
      </trkpt>
      <trkpt lat="50.06983319297433" lon="88.41324361972511">
        <ele>1751.8</ele>
        <time>2026-07-29T09:52:54.000Z</time>
      </trkpt>
      <trkpt lat="50.06900631822646" lon="88.41370772570372">
        <ele>1749</ele>
        <time>2026-07-29T09:53:09.000Z</time>
      </trkpt>
      <trkpt lat="50.0688692741096" lon="88.41378291137516">
        <ele>1748.6</ele>
        <time>2026-07-29T09:53:11.000Z</time>
      </trkpt>
      <trkpt lat="50.068730721250176" lon="88.41386295855045">
        <ele>1748.2</ele>
        <time>2026-07-29T09:53:13.000Z</time>
      </trkpt>
      <trkpt lat="50.06832042708993" lon="88.4141403157264">
        <ele>1747</ele>
        <time>2026-07-29T09:53:19.000Z</time>
      </trkpt>
      <trkpt lat="50.06753588095307" lon="88.41494129039347">
        <ele>1744.8</ele>
        <time>2026-07-29T09:53:32.000Z</time>
      </trkpt>
      <trkpt lat="50.067078480497" lon="88.41580395586789">
        <ele>1744.2</ele>
        <time>2026-07-29T09:53:46.000Z</time>
      </trkpt>
      <trkpt lat="50.06686532869935" lon="88.41634098440409">
        <ele>1745.8</ele>
        <time>2026-07-29T09:54:02.000Z</time>
      </trkpt>
      <trkpt lat="50.06671177223325" lon="88.41672772541642">
        <ele>1747</ele>
        <time>2026-07-29T09:54:18.000Z</time>
      </trkpt>
      <trkpt lat="50.066567519679666" lon="88.41710155829787">
        <ele>1748.2</ele>
        <time>2026-07-29T09:54:34.000Z</time>
      </trkpt>
      <trkpt lat="50.066438522189856" lon="88.41746667400002">
        <ele>1749.6</ele>
        <time>2026-07-29T09:54:51.000Z</time>
      </trkpt>
      <trkpt lat="50.06632863543928" lon="88.41776247136295">
        <ele>1750.8</ele>
        <time>2026-07-29T09:55:05.000Z</time>
      </trkpt>
      <trkpt lat="50.06618656218052" lon="88.41815072111785">
        <ele>1752</ele>
        <time>2026-07-29T09:55:21.000Z</time>
      </trkpt>
      <trkpt lat="50.066040800884366" lon="88.41856378130615">
        <ele>1752.8</ele>
        <time>2026-07-29T09:55:37.000Z</time>
      </trkpt>
      <trkpt lat="50.065891770645976" lon="88.4189738240093">
        <ele>1753.6</ele>
        <time>2026-07-29T09:55:53.000Z</time>
      </trkpt>
      <trkpt lat="50.065735783427954" lon="88.41940708458424">
        <ele>1753.8</ele>
        <time>2026-07-29T09:56:09.000Z</time>
      </trkpt>
      <trkpt lat="50.06554442457855" lon="88.41994696296751">
        <ele>1753.6</ele>
        <time>2026-07-29T09:56:25.000Z</time>
      </trkpt>
      <trkpt lat="50.065379636362195" lon="88.42036538757384">
        <ele>1753.6</ele>
        <time>2026-07-29T09:56:41.000Z</time>
      </trkpt>
      <trkpt lat="50.065221386030316" lon="88.42081356793642">
        <ele>1753.6</ele>
        <time>2026-07-29T09:58:53.000Z</time>
      </trkpt>
      <trkpt lat="50.06506070494652" lon="88.42123861424625">
        <ele>1754.4</ele>
        <time>2026-07-29T09:59:09.000Z</time>
      </trkpt>
      <trkpt lat="50.064918799325824" lon="88.42161345295608">
        <ele>1755.2</ele>
        <time>2026-07-29T09:59:25.000Z</time>
      </trkpt>
      <trkpt lat="50.06478083319962" lon="88.42197270132601">
        <ele>1756.2</ele>
        <time>2026-07-29T09:59:42.000Z</time>
      </trkpt>
      <trkpt lat="50.06465150043368" lon="88.42229917645454">
        <ele>1757.4</ele>
        <time>2026-07-29T09:59:58.000Z</time>
      </trkpt>
      <trkpt lat="50.06452426314354" lon="88.42264576815069">
        <ele>1758.8</ele>
        <time>2026-07-29T10:00:14.000Z</time>
      </trkpt>
      <trkpt lat="50.064406329765916" lon="88.42296117916703">
        <ele>1759.8</ele>
        <time>2026-07-29T10:00:30.000Z</time>
      </trkpt>
      <trkpt lat="50.06428236141801" lon="88.42330475337803">
        <ele>1761</ele>
        <time>2026-07-29T10:00:46.000Z</time>
      </trkpt>
      <trkpt lat="50.064246067777276" lon="88.4235464874655">
        <ele>1761.6</ele>
        <time>2026-07-29T10:00:57.000Z</time>
      </trkpt>
      <trkpt lat="50.064072562381625" lon="88.42385921627283">
        <ele>1762.4</ele>
        <time>2026-07-29T10:01:13.000Z</time>
      </trkpt>
      <trkpt lat="50.063944989815354" lon="88.4242219850421">
        <ele>1763.2</ele>
        <time>2026-07-29T10:01:29.000Z</time>
      </trkpt>
      <trkpt lat="50.063809705898166" lon="88.4245742764324">
        <ele>1764</ele>
        <time>2026-07-29T10:01:45.000Z</time>
      </trkpt>
      <trkpt lat="50.06368380971253" lon="88.42492883093655">
        <ele>1765</ele>
        <time>2026-07-29T10:02:02.000Z</time>
      </trkpt>
      <trkpt lat="50.0635574106127" lon="88.42525689862669">
        <ele>1766</ele>
        <time>2026-07-29T10:02:18.000Z</time>
      </trkpt>
      <trkpt lat="50.063443668186665" lon="88.42558245174587">
        <ele>1767.6</ele>
        <time>2026-07-29T10:02:34.000Z</time>
      </trkpt>
      <trkpt lat="50.06334291771054" lon="88.42584832571447">
        <ele>1769</ele>
        <time>2026-07-29T10:02:50.000Z</time>
      </trkpt>
      <trkpt lat="50.06326111033559" lon="88.42611520551145">
        <ele>1770.4</ele>
        <time>2026-07-29T10:03:06.000Z</time>
      </trkpt>
      <trkpt lat="50.063165724277496" lon="88.42636280693114">
        <ele>1771.8</ele>
        <time>2026-07-29T10:03:22.000Z</time>
      </trkpt>
      <trkpt lat="50.06306430324912" lon="88.4266151022166">
        <ele>1773.2</ele>
        <time>2026-07-29T10:03:38.000Z</time>
      </trkpt>
      <trkpt lat="50.063036223873496" lon="88.42680570669472">
        <ele>1774.2</ele>
        <time>2026-07-29T10:03:50.000Z</time>
      </trkpt>
      <trkpt lat="50.06294502876699" lon="88.42690352350473">
        <ele>1775.2</ele>
        <time>2026-07-29T10:06:03.000Z</time>
      </trkpt>
      <trkpt lat="50.06290689110756" lon="88.42705917544663">
        <ele>1776</ele>
        <time>2026-07-29T10:12:20.000Z</time>
      </trkpt>
      <trkpt lat="50.062805470079184" lon="88.42732370831072">
        <ele>1777.2</ele>
        <time>2026-07-29T10:12:34.000Z</time>
      </trkpt>
      <trkpt lat="50.06268410012126" lon="88.42763031832874">
        <ele>1778.6</ele>
        <time>2026-07-29T10:12:50.000Z</time>
      </trkpt>
      <trkpt lat="50.06256147287786" lon="88.42795251868665">
        <ele>1779.6</ele>
        <time>2026-07-29T10:13:06.000Z</time>
      </trkpt>
      <trkpt lat="50.0624333973974" lon="88.42829877510667">
        <ele>1780.2</ele>
        <time>2026-07-29T10:13:22.000Z</time>
      </trkpt>
      <trkpt lat="50.06226307712495" lon="88.4287322871387">
        <ele>1780.6</ele>
        <time>2026-07-29T10:13:38.000Z</time>
      </trkpt>
      <trkpt lat="50.06202008575201" lon="88.42929605394602">
        <ele>1780.8</ele>
        <time>2026-07-29T10:13:55.000Z</time>
      </trkpt>
      <trkpt lat="50.061763767153025" lon="88.42987130396068">
        <ele>1781.2</ele>
        <time>2026-07-29T10:14:11.000Z</time>
      </trkpt>
      <trkpt lat="50.06151482462883" lon="88.43043683096766">
        <ele>1781.6</ele>
        <time>2026-07-29T10:14:26.000Z</time>
      </trkpt>
      <trkpt lat="50.06132120266557" lon="88.43082977458835">
        <ele>1781.4</ele>
        <time>2026-07-29T10:14:36.000Z</time>
      </trkpt>
      <trkpt lat="50.060941418632865" lon="88.4315765183419">
        <ele>1780.6</ele>
        <time>2026-07-29T10:14:51.000Z</time>
      </trkpt>
      <trkpt lat="50.060441605746746" lon="88.43257865868509">
        <ele>1779.4</ele>
        <time>2026-07-29T10:15:07.000Z</time>
      </trkpt>
      <trkpt lat="50.05989602766931" lon="88.43365841545165">
        <ele>1778.2</ele>
        <time>2026-07-29T10:15:23.000Z</time>
      </trkpt>
      <trkpt lat="50.05933946929872" lon="88.43477731570601">
        <ele>1775.6</ele>
        <time>2026-07-29T10:15:39.000Z</time>
      </trkpt>
      <trkpt lat="50.058752400800586" lon="88.43593728728592">
        <ele>1773</ele>
        <time>2026-07-29T10:15:55.000Z</time>
      </trkpt>
      <trkpt lat="50.058167427778244" lon="88.4371114242822">
        <ele>1770.2</ele>
        <time>2026-07-29T10:16:12.000Z</time>
      </trkpt>
      <trkpt lat="50.05765571258962" lon="88.43809579499066">
        <ele>1769.8</ele>
        <time>2026-07-29T10:16:28.000Z</time>
      </trkpt>
      <trkpt lat="50.05718640983105" lon="88.4389603883028">
        <ele>1769.4</ele>
        <time>2026-07-29T10:16:44.000Z</time>
      </trkpt>
      <trkpt lat="50.056682573631406" lon="88.439885918051">
        <ele>1769.2</ele>
        <time>2026-07-29T10:17:00.000Z</time>
      </trkpt>
      <trkpt lat="50.05612769164145" lon="88.44092778861523">
        <ele>1766.6</ele>
        <time>2026-07-29T10:17:16.000Z</time>
      </trkpt>
      <trkpt lat="50.055423863232136" lon="88.44230166636407">
        <ele>1764.6</ele>
        <time>2026-07-29T10:17:32.000Z</time>
      </trkpt>
      <trkpt lat="50.05480343475938" lon="88.44355777837336">
        <ele>1763.4</ele>
        <time>2026-07-29T10:17:48.000Z</time>
      </trkpt>
      <trkpt lat="50.05432030186057" lon="88.4445766825229">
        <ele>1762.4</ele>
        <time>2026-07-29T10:18:04.000Z</time>
      </trkpt>
      <trkpt lat="50.053894836455584" lon="88.44560908153653">
        <ele>1762.2</ele>
        <time>2026-07-29T10:18:20.000Z</time>
      </trkpt>
      <trkpt lat="50.053516225889325" lon="88.44664542004466">
        <ele>1761.4</ele>
        <time>2026-07-29T10:18:37.000Z</time>
      </trkpt>
      <trkpt lat="50.05320433527231" lon="88.44750800170004">
        <ele>1761</ele>
        <time>2026-07-29T10:18:53.000Z</time>
      </trkpt>
      <trkpt lat="50.05287601612508" lon="88.44841760583222">
        <ele>1761.2</ele>
        <time>2026-07-29T10:19:09.000Z</time>
      </trkpt>
      <trkpt lat="50.0525195337832" lon="88.44943818636239">
        <ele>1762</ele>
        <time>2026-07-29T10:19:25.000Z</time>
      </trkpt>
      <trkpt lat="50.052279559895396" lon="88.4503735229373">
        <ele>1761.6</ele>
        <time>2026-07-29T10:19:41.000Z</time>
      </trkpt>
      <trkpt lat="50.052030365914106" lon="88.45148529857397">
        <ele>1760.6</ele>
        <time>2026-07-29T10:19:57.000Z</time>
      </trkpt>
      <trkpt lat="50.051744878292084" lon="88.45284098759294">
        <ele>1758.4</ele>
        <time>2026-07-29T10:20:13.000Z</time>
      </trkpt>
      <trkpt lat="50.05147942341864" lon="88.454130878672">
        <ele>1757.6</ele>
        <time>2026-07-29T10:20:29.000Z</time>
      </trkpt>
      <trkpt lat="50.05127381533384" lon="88.45509706065059">
        <ele>1759.2</ele>
        <time>2026-07-29T10:20:45.000Z</time>
      </trkpt>
      <trkpt lat="50.0511325802654" lon="88.45579619519413">
        <ele>1760.4</ele>
        <time>2026-07-29T10:21:02.000Z</time>
      </trkpt>
      <trkpt lat="50.05097080953419" lon="88.45655785873532">
        <ele>1760.8</ele>
        <time>2026-07-29T10:21:18.000Z</time>
      </trkpt>
      <trkpt lat="50.05083971656859" lon="88.4572605136782">
        <ele>1760.8</ele>
        <time>2026-07-29T10:21:32.000Z</time>
      </trkpt>
      <trkpt lat="50.050666965544224" lon="88.45796710811555">
        <ele>1760.4</ele>
        <time>2026-07-29T10:21:44.000Z</time>
      </trkpt>
      <trkpt lat="50.05044300109148" lon="88.45900889486074">
        <ele>1759.8</ele>
        <time>2026-07-29T10:22:00.000Z</time>
      </trkpt>
      <trkpt lat="50.05024133250117" lon="88.45996158197522">
        <ele>1760.8</ele>
        <time>2026-07-29T10:22:16.000Z</time>
      </trkpt>
      <trkpt lat="50.05006346851587" lon="88.4607985150069">
        <ele>1761.6</ele>
        <time>2026-07-29T10:22:32.000Z</time>
      </trkpt>
      <trkpt lat="50.049867667257786" lon="88.4617031738162">
        <ele>1761.8</ele>
        <time>2026-07-29T10:22:48.000Z</time>
      </trkpt>
      <trkpt lat="50.049643367528915" lon="88.46271101385355">
        <ele>1761.8</ele>
        <time>2026-07-29T10:23:04.000Z</time>
      </trkpt>
      <trkpt lat="50.04943977110088" lon="88.46364291384816">
        <ele>1762.4</ele>
        <time>2026-07-29T10:23:21.000Z</time>
      </trkpt>
      <trkpt lat="50.04928143694997" lon="88.46455067396164">
        <ele>1762.8</ele>
        <time>2026-07-29T10:23:37.000Z</time>
      </trkpt>
      <trkpt lat="50.04920172505081" lon="88.4651314560324">
        <ele>1764.2</ele>
        <time>2026-07-29T10:23:53.000Z</time>
      </trkpt>
      <trkpt lat="50.04914648830891" lon="88.46562841907144">
        <ele>1765.4</ele>
        <time>2026-07-29T10:24:09.000Z</time>
      </trkpt>
      <trkpt lat="50.04910952411592" lon="88.46609679982066">
        <ele>1766.6</ele>
        <time>2026-07-29T10:24:25.000Z</time>
      </trkpt>
      <trkpt lat="50.04907918162644" lon="88.4665953554213">
        <ele>1767.6</ele>
        <time>2026-07-29T10:24:41.000Z</time>
      </trkpt>
      <trkpt lat="50.04906250163913" lon="88.46688511781394">
        <ele>1768.4</ele>
        <time>2026-07-29T10:24:54.000Z</time>
      </trkpt>
      <trkpt lat="50.04904062487185" lon="88.4672655723989">
        <ele>1769.2</ele>
        <time>2026-07-29T10:26:59.000Z</time>
      </trkpt>
      <trkpt lat="50.04901656880975" lon="88.46770076081157">
        <ele>1770.2</ele>
        <time>2026-07-29T10:27:15.000Z</time>
      </trkpt>
      <trkpt lat="50.04899418912828" lon="88.46814332529902">
        <ele>1771.4</ele>
        <time>2026-07-29T10:27:31.000Z</time>
      </trkpt>
      <trkpt lat="50.04897356964648" lon="88.46858907490969">
        <ele>1772.2</ele>
        <time>2026-07-29T10:27:47.000Z</time>
      </trkpt>
      <trkpt lat="50.048963595181704" lon="88.46904136240482">
        <ele>1773</ele>
        <time>2026-07-29T10:28:04.000Z</time>
      </trkpt>
      <trkpt lat="50.04894783720374" lon="88.46953782252967">
        <ele>1773.8</ele>
        <time>2026-07-29T10:28:20.000Z</time>
      </trkpt>
      <trkpt lat="50.048925122246146" lon="88.47012187354267">
        <ele>1774</ele>
        <time>2026-07-29T10:28:36.000Z</time>
      </trkpt>
      <trkpt lat="50.04890299402177" lon="88.47082796506584">
        <ele>1774.4</ele>
        <time>2026-07-29T10:28:52.000Z</time>
      </trkpt>
      <trkpt lat="50.048871310427785" lon="88.47150069661438">
        <ele>1775</ele>
        <time>2026-07-29T10:29:08.000Z</time>
      </trkpt>
      <trkpt lat="50.04884021356702" lon="88.4720729291439">
        <ele>1775.8</ele>
        <time>2026-07-29T10:29:24.000Z</time>
      </trkpt>
      <trkpt lat="50.04881037399173" lon="88.47260417416692">
        <ele>1777</ele>
        <time>2026-07-29T10:29:40.000Z</time>
      </trkpt>
      <trkpt lat="50.04878279753029" lon="88.47310717217624">
        <ele>1778.4</ele>
        <time>2026-07-29T10:29:56.000Z</time>
      </trkpt>
      <trkpt lat="50.048744827508926" lon="88.47360975109041">
        <ele>1779</ele>
        <time>2026-07-29T10:30:12.000Z</time>
      </trkpt>
      <trkpt lat="50.04870342090726" lon="88.47403638996184">
        <ele>1780</ele>
        <time>2026-07-29T10:30:28.000Z</time>
      </trkpt>
      <trkpt lat="50.04862203262746" lon="88.47456679679453">
        <ele>1781</ele>
        <time>2026-07-29T10:30:44.000Z</time>
      </trkpt>
      <trkpt lat="50.04850720055401" lon="88.47514799796045">
        <ele>1781.6</ele>
        <time>2026-07-29T10:31:00.000Z</time>
      </trkpt>
      <trkpt lat="50.04839848726988" lon="88.47570640034974">
        <ele>1782.4</ele>
        <time>2026-07-29T10:31:16.000Z</time>
      </trkpt>
      <trkpt lat="50.04822447896004" lon="88.47624686546624">
        <ele>1782.8</ele>
        <time>2026-07-29T10:31:32.000Z</time>
      </trkpt>
      <trkpt lat="50.04806673154235" lon="88.47683259285986">
        <ele>1783.8</ele>
        <time>2026-07-29T10:31:48.000Z</time>
      </trkpt>
      <trkpt lat="50.047902865335345" lon="88.47743801772594">
        <ele>1783.8</ele>
        <time>2026-07-29T10:32:04.000Z</time>
      </trkpt>
      <trkpt lat="50.04773338325322" lon="88.47805945202708">
        <ele>1784.2</ele>
        <time>2026-07-29T10:32:20.000Z</time>
      </trkpt>
      <trkpt lat="50.047562224790454" lon="88.47869019024074">
        <ele>1783.8</ele>
        <time>2026-07-29T10:32:36.000Z</time>
      </trkpt>
      <trkpt lat="50.047373212873936" lon="88.47939116880298">
        <ele>1784.2</ele>
        <time>2026-07-29T10:32:53.000Z</time>
      </trkpt>
      <trkpt lat="50.047173807397485" lon="88.48012022674084">
        <ele>1784.4</ele>
        <time>2026-07-29T10:33:09.000Z</time>
      </trkpt>
      <trkpt lat="50.046996027231216" lon="88.48076890222728">
        <ele>1784.8</ele>
        <time>2026-07-29T10:33:25.000Z</time>
      </trkpt>
      <trkpt lat="50.04682017490268" lon="88.48141171038151">
        <ele>1785.6</ele>
        <time>2026-07-29T10:33:41.000Z</time>
      </trkpt>
      <trkpt lat="50.04665806889534" lon="88.48201428540051">
        <ele>1786.2</ele>
        <time>2026-07-29T10:33:57.000Z</time>
      </trkpt>
      <trkpt lat="50.04650518298149" lon="88.48257469944656">
        <ele>1787</ele>
        <time>2026-07-29T10:34:13.000Z</time>
      </trkpt>
      <trkpt lat="50.04634886048734" lon="88.4831337723881">
        <ele>1787.8</ele>
        <time>2026-07-29T10:34:29.000Z</time>
      </trkpt>
      <trkpt lat="50.04622229374945" lon="88.48359871655703">
        <ele>1788.6</ele>
        <time>2026-07-29T10:34:45.000Z</time>
      </trkpt>
      <trkpt lat="50.046085668727756" lon="88.48410112783313">
        <ele>1789.4</ele>
        <time>2026-07-29T10:35:01.000Z</time>
      </trkpt>
      <trkpt lat="50.0459367223084" lon="88.48464226350188">
        <ele>1790.2</ele>
        <time>2026-07-29T10:35:18.000Z</time>
      </trkpt>
      <trkpt lat="50.04577252082527" lon="88.48518641665578">
        <ele>1791</ele>
        <time>2026-07-29T10:35:34.000Z</time>
      </trkpt>
      <trkpt lat="50.04560471512377" lon="88.48569779656827">
        <ele>1792</ele>
        <time>2026-07-29T10:35:49.000Z</time>
      </trkpt>
      <trkpt lat="50.04545425996184" lon="88.48604765720665">
        <ele>1792.6</ele>
        <time>2026-07-29T10:36:01.000Z</time>
      </trkpt>
      <trkpt lat="50.04518930800259" lon="88.4866252541542">
        <ele>1793</ele>
        <time>2026-07-29T10:36:17.000Z</time>
      </trkpt>
      <trkpt lat="50.04483886063099" lon="88.48731466569006">
        <ele>1792.6</ele>
        <time>2026-07-29T10:36:33.000Z</time>
      </trkpt>
      <trkpt lat="50.044420855119824" lon="88.48815528675914">
        <ele>1791.8</ele>
        <time>2026-07-29T10:36:49.000Z</time>
      </trkpt>
      <trkpt lat="50.043991869315505" lon="88.48900001496077">
        <ele>1792</ele>
        <time>2026-07-29T10:37:05.000Z</time>
      </trkpt>
      <trkpt lat="50.04357025958598" lon="88.48982932046056">
        <ele>1791.2</ele>
        <time>2026-07-29T10:37:21.000Z</time>
      </trkpt>
      <trkpt lat="50.043166084215045" lon="88.49062610417604">
        <ele>1791.2</ele>
        <time>2026-07-29T10:37:38.000Z</time>
      </trkpt>
      <trkpt lat="50.04278378561139" lon="88.49138097837567">
        <ele>1792</ele>
        <time>2026-07-29T10:37:54.000Z</time>
      </trkpt>
      <trkpt lat="50.04240559414029" lon="88.49210299551487">
        <ele>1792</ele>
        <time>2026-07-29T10:38:10.000Z</time>
      </trkpt>
      <trkpt lat="50.041946014389396" lon="88.49296230822802">
        <ele>1790.6</ele>
        <time>2026-07-29T10:38:26.000Z</time>
      </trkpt>
      <trkpt lat="50.04138635471463" lon="88.4940025024116">
        <ele>1787.8</ele>
        <time>2026-07-29T10:38:42.000Z</time>
      </trkpt>
      <trkpt lat="50.04085561260581" lon="88.4950799960643">
        <ele>1786.6</ele>
        <time>2026-07-29T10:38:58.000Z</time>
      </trkpt>
      <trkpt lat="50.04061605781317" lon="88.49611239507794">
        <ele>1784.4</ele>
        <time>2026-07-29T10:39:08.000Z</time>
      </trkpt>
      <trkpt lat="50.04057699814439" lon="88.49645672366023">
        <ele>1783.6</ele>
        <time>2026-07-29T10:39:11.000Z</time>
      </trkpt>
      <trkpt lat="50.04046283662319" lon="88.49748811684549">
        <ele>1782</ele>
        <time>2026-07-29T10:39:20.000Z</time>
      </trkpt>
      <trkpt lat="50.04029938951135" lon="88.49891128018498">
        <ele>1781.8</ele>
        <time>2026-07-29T10:39:36.000Z</time>
      </trkpt>
      <trkpt lat="50.04015597514808" lon="88.49996362812817">
        <ele>1781.4</ele>
        <time>2026-07-29T10:39:52.000Z</time>
      </trkpt>
      <trkpt lat="50.04007291048765" lon="88.50030695088208">
        <ele>1781.8</ele>
        <time>2026-07-29T10:40:03.000Z</time>
      </trkpt>
      <trkpt lat="50.040077017620206" lon="88.50051331333816">
        <ele>1781.6</ele>
        <time>2026-07-29T10:42:27.000Z</time>
      </trkpt>
      <trkpt lat="50.040058409795165" lon="88.50115578621626">
        <ele>1781</ele>
        <time>2026-07-29T10:42:43.000Z</time>
      </trkpt>
      <trkpt lat="50.03994030877948" lon="88.50227099843323">
        <ele>1778</ele>
        <time>2026-07-29T10:42:59.000Z</time>
      </trkpt>
      <trkpt lat="50.03976898267865" lon="88.50396699272096">
        <ele>1774.2</ele>
        <time>2026-07-29T10:43:15.000Z</time>
      </trkpt>
      <trkpt lat="50.03958759829402" lon="88.50555879995227">
        <ele>1773.8</ele>
        <time>2026-07-29T10:43:31.000Z</time>
      </trkpt>
      <trkpt lat="50.039499420672655" lon="88.50633555091918">
        <ele>1775.8</ele>
        <time>2026-07-29T10:43:47.000Z</time>
      </trkpt>
      <trkpt lat="50.039444686844945" lon="88.50686738267541">
        <ele>1776.8</ele>
        <time>2026-07-29T10:44:03.000Z</time>
      </trkpt>
      <trkpt lat="50.03938182257116" lon="88.50746409036219">
        <ele>1777.2</ele>
        <time>2026-07-29T10:44:19.000Z</time>
      </trkpt>
      <trkpt lat="50.03931535407901" lon="88.50816666148603">
        <ele>1777.4</ele>
        <time>2026-07-29T10:44:35.000Z</time>
      </trkpt>
      <trkpt lat="50.03924461081624" lon="88.50887057371438">
        <ele>1777.6</ele>
        <time>2026-07-29T10:44:52.000Z</time>
      </trkpt>
      <trkpt lat="50.039180405437946" lon="88.5094961989671">
        <ele>1778.8</ele>
        <time>2026-07-29T10:45:08.000Z</time>
      </trkpt>
      <trkpt lat="50.03911762498319" lon="88.51007706485689">
        <ele>1779.6</ele>
        <time>2026-07-29T10:45:24.000Z</time>
      </trkpt>
      <trkpt lat="50.03904906101525" lon="88.51069112308323">
        <ele>1780.2</ele>
        <time>2026-07-29T10:45:40.000Z</time>
      </trkpt>
      <trkpt lat="50.03898745402694" lon="88.51136502809823">
        <ele>1780.8</ele>
        <time>2026-07-29T10:45:56.000Z</time>
      </trkpt>
      <trkpt lat="50.038962475955486" lon="88.5117894038558">
        <ele>1782</ele>
        <time>2026-07-29T10:46:12.000Z</time>
      </trkpt>
      <trkpt lat="50.038956021890044" lon="88.51213532499969">
        <ele>1783.4</ele>
        <time>2026-07-29T10:46:28.000Z</time>
      </trkpt>
      <trkpt lat="50.038960883393884" lon="88.51246641017497">
        <ele>1785</ele>
        <time>2026-07-29T10:46:44.000Z</time>
      </trkpt>
      <trkpt lat="50.03897932358086" lon="88.51277528330684">
        <ele>1786.6</ele>
        <time>2026-07-29T10:47:00.000Z</time>
      </trkpt>
      <trkpt lat="50.03902617841959" lon="88.51306429132819">
        <ele>1788.4</ele>
        <time>2026-07-29T10:47:17.000Z</time>
      </trkpt>
      <trkpt lat="50.03909021615982" lon="88.51333008147776">
        <ele>1790</ele>
        <time>2026-07-29T10:47:33.000Z</time>
      </trkpt>
      <trkpt lat="50.039174957200885" lon="88.51358195766807">
        <ele>1791.6</ele>
        <time>2026-07-29T10:47:49.000Z</time>
      </trkpt>
      <trkpt lat="50.03927109763026" lon="88.51382662542164">
        <ele>1793</ele>
        <time>2026-07-29T10:48:05.000Z</time>
      </trkpt>
      <trkpt lat="50.039386097341776" lon="88.51403960958123">
        <ele>1794.4</ele>
        <time>2026-07-29T10:48:21.000Z</time>
      </trkpt>
      <trkpt lat="50.03948642872274" lon="88.51417656987906">
        <ele>1795.4</ele>
        <time>2026-07-29T10:48:33.000Z</time>
      </trkpt>
      <trkpt lat="50.039589861407876" lon="88.51441419683397">
        <ele>1796.8</ele>
        <time>2026-07-29T10:48:48.000Z</time>
      </trkpt>
      <trkpt lat="50.039720283821225" lon="88.51465165615082">
        <ele>1798</ele>
        <time>2026-07-29T10:49:04.000Z</time>
      </trkpt>
      <trkpt lat="50.0398579146713" lon="88.5148976650089">
        <ele>1799</ele>
        <time>2026-07-29T10:49:20.000Z</time>
      </trkpt>
      <trkpt lat="50.040029576048255" lon="88.5152087174356">
        <ele>1800</ele>
        <time>2026-07-29T10:49:37.000Z</time>
      </trkpt>
      <trkpt lat="50.04017793573439" lon="88.515466125682">
        <ele>1800.6</ele>
        <time>2026-07-29T10:49:53.000Z</time>
      </trkpt>
      <trkpt lat="50.04034875892103" lon="88.51577868685126">
        <ele>1801.2</ele>
        <time>2026-07-29T10:50:09.000Z</time>
      </trkpt>
      <trkpt lat="50.04054380580783" lon="88.51610817946494">
        <ele>1801.8</ele>
        <time>2026-07-29T10:50:25.000Z</time>
      </trkpt>
      <trkpt lat="50.04072611220181" lon="88.51644437760115">
        <ele>1802.2</ele>
        <time>2026-07-29T10:50:41.000Z</time>
      </trkpt>
      <trkpt lat="50.04091126844287" lon="88.5167751275003">
        <ele>1803</ele>
        <time>2026-07-29T10:50:57.000Z</time>
      </trkpt>
      <trkpt lat="50.04109709523618" lon="88.51710109971464">
        <ele>1804.2</ele>
        <time>2026-07-29T10:51:13.000Z</time>
      </trkpt>
      <trkpt lat="50.04127252846956" lon="88.51742170751095">
        <ele>1805.4</ele>
        <time>2026-07-29T10:51:29.000Z</time>
      </trkpt>
      <trkpt lat="50.041445111855865" lon="88.51773913018405">
        <ele>1806.4</ele>
        <time>2026-07-29T10:51:45.000Z</time>
      </trkpt>
      <trkpt lat="50.04159145988524" lon="88.51812092587352">
        <ele>1807</ele>
        <time>2026-07-29T10:52:02.000Z</time>
      </trkpt>
      <trkpt lat="50.04165893420577" lon="88.51857187226415">
        <ele>1807.4</ele>
        <time>2026-07-29T10:52:18.000Z</time>
      </trkpt>
      <trkpt lat="50.04163068719208" lon="88.51911476813257">
        <ele>1807.4</ele>
        <time>2026-07-29T10:52:34.000Z</time>
      </trkpt>
      <trkpt lat="50.04151619039476" lon="88.51984340697527">
        <ele>1806.8</ele>
        <time>2026-07-29T10:52:50.000Z</time>
      </trkpt>
      <trkpt lat="50.041405130177736" lon="88.5204013902694">
        <ele>1807.4</ele>
        <time>2026-07-29T10:53:06.000Z</time>
      </trkpt>
      <trkpt lat="50.04130940884352" lon="88.52080849930644">
        <ele>1808.6</ele>
        <time>2026-07-29T10:53:22.000Z</time>
      </trkpt>
      <trkpt lat="50.04122986458242" lon="88.52115374989808">
        <ele>1810</ele>
        <time>2026-07-29T10:53:38.000Z</time>
      </trkpt>
      <trkpt lat="50.041149063035846" lon="88.5215098131448">
        <ele>1811.2</ele>
        <time>2026-07-29T10:53:54.000Z</time>
      </trkpt>
      <trkpt lat="50.04107655957341" lon="88.52183318696916">
        <ele>1812.2</ele>
        <time>2026-07-29T10:54:10.000Z</time>
      </trkpt>
      <trkpt lat="50.04100405611098" lon="88.5221607517451">
        <ele>1813</ele>
        <time>2026-07-29T10:54:27.000Z</time>
      </trkpt>
      <trkpt lat="50.04092442803085" lon="88.52249996736646">
        <ele>1813.8</ele>
        <time>2026-07-29T10:54:43.000Z</time>
      </trkpt>
      <trkpt lat="50.040848068892956" lon="88.52285016328096">
        <ele>1815</ele>
        <time>2026-07-29T10:54:59.000Z</time>
      </trkpt>
      <trkpt lat="50.04076818935573" lon="88.52321930229664">
        <ele>1816</ele>
        <time>2026-07-29T10:55:15.000Z</time>
      </trkpt>
      <trkpt lat="50.04069962538779" lon="88.52355072274804">
        <ele>1816.8</ele>
        <time>2026-07-29T10:55:31.000Z</time>
      </trkpt>
      <trkpt lat="50.04062561318278" lon="88.52389773353934">
        <ele>1818.2</ele>
        <time>2026-07-29T10:55:47.000Z</time>
      </trkpt>
      <trkpt lat="50.040555372834206" lon="88.52424298413098">
        <ele>1819.2</ele>
        <time>2026-07-29T10:56:03.000Z</time>
      </trkpt>
      <trkpt lat="50.04048077389598" lon="88.52458496578038">
        <ele>1820.2</ele>
        <time>2026-07-29T10:56:19.000Z</time>
      </trkpt>
      <trkpt lat="50.04041187465191" lon="88.52490565739572">
        <ele>1821</ele>
        <time>2026-07-29T10:56:36.000Z</time>
      </trkpt>
      <trkpt lat="50.04034406505525" lon="88.5252504888922">
        <ele>1821.8</ele>
        <time>2026-07-29T10:56:52.000Z</time>
      </trkpt>
      <trkpt lat="50.04026535898447" lon="88.52562750689685">
        <ele>1822.6</ele>
        <time>2026-07-29T10:57:08.000Z</time>
      </trkpt>
      <trkpt lat="50.040163518860936" lon="88.52607753127813">
        <ele>1823.4</ele>
        <time>2026-07-29T10:57:24.000Z</time>
      </trkpt>
      <trkpt lat="50.04005807451904" lon="88.5265959519893">
        <ele>1824.2</ele>
        <time>2026-07-29T10:57:40.000Z</time>
      </trkpt>
      <trkpt lat="50.03993988968432" lon="88.52708637714386">
        <ele>1824.6</ele>
        <time>2026-07-29T10:57:56.000Z</time>
      </trkpt>
      <trkpt lat="50.03978876397014" lon="88.52763622999191">
        <ele>1825</ele>
        <time>2026-07-29T10:58:12.000Z</time>
      </trkpt>
      <trkpt lat="50.03957686945796" lon="88.52837651968002">
        <ele>1824.4</ele>
        <time>2026-07-29T10:58:28.000Z</time>
      </trkpt>
      <trkpt lat="50.03927377983928" lon="88.5293897241354">
        <ele>1824.2</ele>
        <time>2026-07-29T10:58:44.000Z</time>
      </trkpt>
      <trkpt lat="50.03894126974046" lon="88.53051566518843">
        <ele>1822.4</ele>
        <time>2026-07-29T10:59:01.000Z</time>
      </trkpt>
      <trkpt lat="50.03865385428071" lon="88.53149542585015">
        <ele>1824</ele>
        <time>2026-07-29T10:59:17.000Z</time>
      </trkpt>
      <trkpt lat="50.038453191518784" lon="88.53217067196965">
        <ele>1824.4</ele>
        <time>2026-07-29T10:59:33.000Z</time>
      </trkpt>
      <trkpt lat="50.038241632282734" lon="88.53288263082504">
        <ele>1825.4</ele>
        <time>2026-07-29T10:59:49.000Z</time>
      </trkpt>
      <trkpt lat="50.03802848048508" lon="88.53360858745873">
        <ele>1826.8</ele>
        <time>2026-07-29T11:00:05.000Z</time>
      </trkpt>
      <trkpt lat="50.03783846274018" lon="88.53424846194685">
        <ele>1827.6</ele>
        <time>2026-07-29T11:00:21.000Z</time>
      </trkpt>
      <trkpt lat="50.0376614369452" lon="88.53484441526234">
        <ele>1827.8</ele>
        <time>2026-07-29T11:00:37.000Z</time>
      </trkpt>
      <trkpt lat="50.03748591989279" lon="88.53541958145797">
        <ele>1828.4</ele>
        <time>2026-07-29T11:00:53.000Z</time>
      </trkpt>
      <trkpt lat="50.0373263284564" lon="88.53595292195678">
        <ele>1829.2</ele>
        <time>2026-07-29T11:01:09.000Z</time>
      </trkpt>
      <trkpt lat="50.03717612475157" lon="88.536447705701">
        <ele>1830.2</ele>
        <time>2026-07-29T11:01:26.000Z</time>
      </trkpt>
      <trkpt lat="50.03704763017595" lon="88.53687183000147">
        <ele>1831.2</ele>
        <time>2026-07-29T11:01:42.000Z</time>
      </trkpt>
      <trkpt lat="50.036916034296155" lon="88.53733006864786">
        <ele>1832.4</ele>
        <time>2026-07-29T11:01:58.000Z</time>
      </trkpt>
      <trkpt lat="50.03679701127112" lon="88.53787849657238">
        <ele>1832.8</ele>
        <time>2026-07-29T11:02:14.000Z</time>
      </trkpt>
      <trkpt lat="50.03672509454191" lon="88.53852306492627">
        <ele>1832.4</ele>
        <time>2026-07-29T11:02:30.000Z</time>
      </trkpt>
      <trkpt lat="50.03665669821203" lon="88.53924080729485">
        <ele>1832.2</ele>
        <time>2026-07-29T11:02:46.000Z</time>
      </trkpt>
      <trkpt lat="50.03659090027213" lon="88.53993860073388">
        <ele>1832.4</ele>
        <time>2026-07-29T11:03:02.000Z</time>
      </trkpt>
      <trkpt lat="50.03654639236629" lon="88.54040966369212">
        <ele>1833.8</ele>
        <time>2026-07-29T11:03:18.000Z</time>
      </trkpt>
      <trkpt lat="50.03650917671621" lon="88.54079539887607">
        <ele>1835</ele>
        <time>2026-07-29T11:03:34.000Z</time>
      </trkpt>
      <trkpt lat="50.03647028468549" lon="88.54118540883064">
        <ele>1836.4</ele>
        <time>2026-07-29T11:03:51.000Z</time>
      </trkpt>
      <trkpt lat="50.03643189556897" lon="88.54160282760859">
        <ele>1837.4</ele>
        <time>2026-07-29T11:04:07.000Z</time>
      </trkpt>
      <trkpt lat="50.036392332986" lon="88.54197381064296">
        <ele>1838.4</ele>
        <time>2026-07-29T11:04:23.000Z</time>
      </trkpt>
      <trkpt lat="50.036334581673145" lon="88.54243582114577">
        <ele>1839</ele>
        <time>2026-07-29T11:04:39.000Z</time>
      </trkpt>
      <trkpt lat="50.03621555864811" lon="88.54310679249465">
        <ele>1838.4</ele>
        <time>2026-07-29T11:04:55.000Z</time>
      </trkpt>
      <trkpt lat="50.03603392280638" lon="88.5439246147871">
        <ele>1837.8</ele>
        <time>2026-07-29T11:05:11.000Z</time>
      </trkpt>
      <trkpt lat="50.03577668219805" lon="88.54499297216535">
        <ele>1836.8</ele>
        <time>2026-07-29T11:05:27.000Z</time>
      </trkpt>
      <trkpt lat="50.03546881489456" lon="88.54629669338465">
        <ele>1835.2</ele>
        <time>2026-07-29T11:05:43.000Z</time>
      </trkpt>
      <trkpt lat="50.035222470760345" lon="88.54735482484102">
        <ele>1835.4</ele>
        <time>2026-07-29T11:05:59.000Z</time>
      </trkpt>
      <trkpt lat="50.03500998951495" lon="88.54823609814048">
        <ele>1835.4</ele>
        <time>2026-07-29T11:06:16.000Z</time>
      </trkpt>
      <trkpt lat="50.03478158265352" lon="88.54910479858518">
        <ele>1836</ele>
        <time>2026-07-29T11:06:32.000Z</time>
      </trkpt>
      <trkpt lat="50.034545632079244" lon="88.55007349513471">
        <ele>1835.4</ele>
        <time>2026-07-29T11:06:48.000Z</time>
      </trkpt>
      <trkpt lat="50.03427523188293" lon="88.55124671012163">
        <ele>1833.4</ele>
        <time>2026-07-29T11:07:04.000Z</time>
      </trkpt>
      <trkpt lat="50.03403282724321" lon="88.55221808888018">
        <ele>1833.6</ele>
        <time>2026-07-29T11:07:20.000Z</time>
      </trkpt>
      <trkpt lat="50.03382118418813" lon="88.55307086370885">
        <ele>1834.2</ele>
        <time>2026-07-29T11:07:36.000Z</time>
      </trkpt>
      <trkpt lat="50.03360342234373" lon="88.55396186001599">
        <ele>1835.2</ele>
        <time>2026-07-29T11:07:52.000Z</time>
      </trkpt>
      <trkpt lat="50.03344207070768" lon="88.55464649386704">
        <ele>1836.4</ele>
        <time>2026-07-29T11:08:08.000Z</time>
      </trkpt>
      <trkpt lat="50.03329019062221" lon="88.55531335808337">
        <ele>1837.2</ele>
        <time>2026-07-29T11:08:24.000Z</time>
      </trkpt>
      <trkpt lat="50.03314543515444" lon="88.55594627559185">
        <ele>1837.6</ele>
        <time>2026-07-29T11:08:41.000Z</time>
      </trkpt>
      <trkpt lat="50.032996321097016" lon="88.5565529577434">
        <ele>1838.6</ele>
        <time>2026-07-29T11:08:57.000Z</time>
      </trkpt>
      <trkpt lat="50.03283916041255" lon="88.55707825161517">
        <ele>1839.6</ele>
        <time>2026-07-29T11:09:13.000Z</time>
      </trkpt>
      <trkpt lat="50.032686525955796" lon="88.55757337063551">
        <ele>1840.6</ele>
        <time>2026-07-29T11:09:29.000Z</time>
      </trkpt>
      <trkpt lat="50.03251360729337" lon="88.5581209603697">
        <ele>1841.4</ele>
        <time>2026-07-29T11:09:45.000Z</time>
      </trkpt>
      <trkpt lat="50.032335575670004" lon="88.55869009159505">
        <ele>1841.6</ele>
        <time>2026-07-29T11:10:01.000Z</time>
      </trkpt>
      <trkpt lat="50.032180678099394" lon="88.55913139879704">
        <ele>1841.4</ele>
        <time>2026-07-29T11:10:17.000Z</time>
      </trkpt>
      <trkpt lat="50.03206601366401" lon="88.55954563245177">
        <ele>1841.2</ele>
        <time>2026-07-29T11:12:40.000Z</time>
      </trkpt>
      <trkpt lat="50.031871972605586" lon="88.5601588524878">
        <ele>1841</ele>
        <time>2026-07-29T11:12:53.000Z</time>
      </trkpt>
      <trkpt lat="50.03201597370207" lon="88.56050041504204">
        <ele>1841</ele>
        <time>2026-07-29T11:13:01.000Z</time>
      </trkpt>
      <trkpt lat="50.03225586377084" lon="88.56072748079896">
        <ele>1842.8</ele>
        <time>2026-07-29T11:13:18.000Z</time>
      </trkpt>
      <trkpt lat="50.03223390318453" lon="88.56077928096056">
        <ele>1843</ele>
        <time>2026-07-29T11:14:23.000Z</time>
      </trkpt>
      <trkpt lat="50.03198269754648" lon="88.56042263098061">
        <ele>1842</ele>
        <time>2026-07-29T11:14:36.000Z</time>
      </trkpt>
      <trkpt lat="50.031804498285055" lon="88.5603924561292">
        <ele>1841.4</ele>
        <time>2026-07-29T11:14:42.000Z</time>
      </trkpt>
      <trkpt lat="50.03158531151712" lon="88.56093987822533">
        <ele>1840.4</ele>
        <time>2026-07-29T11:14:53.000Z</time>
      </trkpt>
      <trkpt lat="50.031297309324145" lon="88.56175719760358">
        <ele>1840.4</ele>
        <time>2026-07-29T11:15:09.000Z</time>
      </trkpt>
      <trkpt lat="50.03100737929344" lon="88.5625923704356">
        <ele>1839.6</ele>
        <time>2026-07-29T11:15:25.000Z</time>
      </trkpt>
      <trkpt lat="50.0306901242584" lon="88.56351278722286">
        <ele>1838.8</ele>
        <time>2026-07-29T11:15:42.000Z</time>
      </trkpt>
      <trkpt lat="50.03036859445274" lon="88.56445080600679">
        <ele>1837.8</ele>
        <time>2026-07-29T11:15:58.000Z</time>
      </trkpt>
      <trkpt lat="50.03006081096828" lon="88.56533342041075">
        <ele>1837.8</ele>
        <time>2026-07-29T11:16:14.000Z</time>
      </trkpt>
      <trkpt lat="50.02976995892823" lon="88.56616582721472">
        <ele>1837</ele>
        <time>2026-07-29T11:16:30.000Z</time>
      </trkpt>
      <trkpt lat="50.02961573190987" lon="88.56659481301904">
        <ele>1837</ele>
        <time>2026-07-29T11:17:40.000Z</time>
      </trkpt>
      <trkpt lat="50.02934893593192" lon="88.5673355218023">
        <ele>1836.6</ele>
        <time>2026-07-29T11:17:56.000Z</time>
      </trkpt>
      <trkpt lat="50.0289944652468" lon="88.56829206459224">
        <ele>1835.6</ele>
        <time>2026-07-29T11:18:13.000Z</time>
      </trkpt>
      <trkpt lat="50.02848057076335" lon="88.5696931835264">
        <ele>1830.8</ele>
        <time>2026-07-29T11:18:29.000Z</time>
      </trkpt>
      <trkpt lat="50.02798310481012" lon="88.57103697024286">
        <ele>1828.2</ele>
        <time>2026-07-29T11:18:45.000Z</time>
      </trkpt>
      <trkpt lat="50.02758672460914" lon="88.57212217524648">
        <ele>1828</ele>
        <time>2026-07-29T11:19:01.000Z</time>
      </trkpt>
      <trkpt lat="50.02716662362218" lon="88.57329480350018">
        <ele>1827.6</ele>
        <time>2026-07-29T11:19:17.000Z</time>
      </trkpt>
      <trkpt lat="50.02677426673472" lon="88.57440079562366">
        <ele>1827</ele>
        <time>2026-07-29T11:19:33.000Z</time>
      </trkpt>
      <trkpt lat="50.02635022625327" lon="88.57557401061058">
        <ele>1826</ele>
        <time>2026-07-29T11:19:49.000Z</time>
      </trkpt>
      <trkpt lat="50.02596222795546" lon="88.5766314715147">
        <ele>1825</ele>
        <time>2026-07-29T11:20:05.000Z</time>
      </trkpt>
      <trkpt lat="50.025582360103726" lon="88.5776727553457">
        <ele>1824.2</ele>
        <time>2026-07-29T11:20:21.000Z</time>
      </trkpt>
      <trkpt lat="50.025212382897735" lon="88.57868235558271">
        <ele>1823.8</ele>
        <time>2026-07-29T11:20:38.000Z</time>
      </trkpt>
      <trkpt lat="50.02483787946403" lon="88.57971810735762">
        <ele>1822</ele>
        <time>2026-07-29T11:20:54.000Z</time>
      </trkpt>
      <trkpt lat="50.024403277784586" lon="88.58093080110848">
        <ele>1820.8</ele>
        <time>2026-07-29T11:21:10.000Z</time>
      </trkpt>
      <trkpt lat="50.02392659895122" lon="88.582256231457">
        <ele>1818.8</ele>
        <time>2026-07-29T11:21:26.000Z</time>
      </trkpt>
      <trkpt lat="50.023401053622365" lon="88.58374209143221">
        <ele>1817.6</ele>
        <time>2026-07-29T11:21:42.000Z</time>
      </trkpt>
      <trkpt lat="50.022832257673144" lon="88.5853491537273">
        <ele>1814.6</ele>
        <time>2026-07-29T11:21:58.000Z</time>
      </trkpt>
      <trkpt lat="50.0225704908371" lon="88.58608718030155">
        <ele>1813</ele>
        <time>2026-07-29T11:22:08.000Z</time>
      </trkpt>
      <trkpt lat="50.02213672734797" lon="88.58730641193688">
        <ele>1811.2</ele>
        <time>2026-07-29T11:22:24.000Z</time>
      </trkpt>
      <trkpt lat="50.02169416286051" lon="88.58856302686036">
        <ele>1808.8</ele>
        <time>2026-07-29T11:22:40.000Z</time>
      </trkpt>
      <trkpt lat="50.021225614473224" lon="88.58987269923091">
        <ele>1807.6</ele>
        <time>2026-07-29T11:22:57.000Z</time>
      </trkpt>
      <trkpt lat="50.02086343243718" lon="88.59086151234806">
        <ele>1803.8</ele>
        <time>2026-07-29T11:23:13.000Z</time>
      </trkpt>
      <trkpt lat="50.02070266753435" lon="88.59133701771498">
        <ele>1802.8</ele>
        <time>2026-07-29T11:24:44.000Z</time>
      </trkpt>
      <trkpt lat="50.020349621772766" lon="88.59231929294765">
        <ele>1799.6</ele>
        <time>2026-07-29T11:24:55.000Z</time>
      </trkpt>
      <trkpt lat="50.02027267590165" lon="88.59253847971559">
        <ele>1797.6</ele>
        <time>2026-07-29T11:24:57.000Z</time>
      </trkpt>
      <trkpt lat="50.02019187435508" lon="88.59276344999671">
        <ele>1796</ele>
        <time>2026-07-29T11:24:59.000Z</time>
      </trkpt>
      <trkpt lat="50.02010738477111" lon="88.59299076721072">
        <ele>1794.4</ele>
        <time>2026-07-29T11:25:01.000Z</time>
      </trkpt>
      <trkpt lat="50.02002423629165" lon="88.59322269447148">
        <ele>1793.2</ele>
        <time>2026-07-29T11:25:03.000Z</time>
      </trkpt>
      <trkpt lat="50.019940081983805" lon="88.59345738776028">
        <ele>1792.2</ele>
        <time>2026-07-29T11:25:05.000Z</time>
      </trkpt>
      <trkpt lat="50.01985592767596" lon="88.59369568526745">
        <ele>1791.4</ele>
        <time>2026-07-29T11:25:07.000Z</time>
      </trkpt>
      <trkpt lat="50.01976892352104" lon="88.59393649734557">
        <ele>1790.4</ele>
        <time>2026-07-29T11:25:10.000Z</time>
      </trkpt>
      <trkpt lat="50.019680578261614" lon="88.59418150037527">
        <ele>1789.8</ele>
        <time>2026-07-29T11:25:12.000Z</time>
      </trkpt>
      <trkpt lat="50.01959097571671" lon="88.59443061053753">
        <ele>1789.2</ele>
        <time>2026-07-29T11:25:14.000Z</time>
      </trkpt>
      <trkpt lat="50.019501373171806" lon="88.59468416310847">
        <ele>1788.6</ele>
        <time>2026-07-29T11:25:16.000Z</time>
      </trkpt>
      <trkpt lat="50.01941218972206" lon="88.59494131989777">
        <ele>1788</ele>
        <time>2026-07-29T11:25:18.000Z</time>
      </trkpt>
      <trkpt lat="50.01927782781422" lon="88.59533007256687">
        <ele>1787.6</ele>
        <time>2026-07-29T11:25:21.000Z</time>
      </trkpt>
      <trkpt lat="50.01888622529805" lon="88.59648107551038">
        <ele>1787</ele>
        <time>2026-07-29T11:25:30.000Z</time>
      </trkpt>
      <trkpt lat="50.01846461556852" lon="88.59771832823753">
        <ele>1784.2</ele>
        <time>2026-07-29T11:25:40.000Z</time>
      </trkpt>
      <trkpt lat="50.018367720767856" lon="88.59799250029027">
        <ele>1783.8</ele>
        <time>2026-07-29T11:25:42.000Z</time>
      </trkpt>
      <trkpt lat="50.01826286315918" lon="88.59827991575003">
        <ele>1782.8</ele>
        <time>2026-07-29T11:25:44.000Z</time>
      </trkpt>
      <trkpt lat="50.01815037801862" lon="88.5985803231597">
        <ele>1781</ele>
        <time>2026-07-29T11:25:46.000Z</time>
      </trkpt>
      <trkpt lat="50.018034456297755" lon="88.59889372251928">
        <ele>1779.2</ele>
        <time>2026-07-29T11:25:48.000Z</time>
      </trkpt>
      <trkpt lat="50.017444118857384" lon="88.60016567632556">
        <ele>1777</ele>
        <time>2026-07-29T11:25:57.000Z</time>
      </trkpt>
      <trkpt lat="50.016418593004346" lon="88.6015968862921">
        <ele>1775.6</ele>
        <time>2026-07-29T11:26:13.000Z</time>
      </trkpt>
      <trkpt lat="50.01588089391589" lon="88.6023945081979">
        <ele>1776.8</ele>
        <time>2026-07-29T11:26:29.000Z</time>
      </trkpt>
      <trkpt lat="50.015420811250806" lon="88.60318358056247">
        <ele>1776</ele>
        <time>2026-07-29T11:26:45.000Z</time>
      </trkpt>
      <trkpt lat="50.014879424124956" lon="88.60428538173437">
        <ele>1772</ele>
        <time>2026-07-29T11:27:01.000Z</time>
      </trkpt>
      <trkpt lat="50.014230916276574" lon="88.60571147873998">
        <ele>1770.2</ele>
        <time>2026-07-29T11:27:17.000Z</time>
      </trkpt>
      <trkpt lat="50.01366153359413" lon="88.6069534253329">
        <ele>1770.2</ele>
        <time>2026-07-29T11:27:34.000Z</time>
      </trkpt>
      <trkpt lat="50.013179490342736" lon="88.60801205970347">
        <ele>1770.4</ele>
        <time>2026-07-29T11:27:50.000Z</time>
      </trkpt>
      <trkpt lat="50.012659057974815" lon="88.60914160497487">
        <ele>1769.2</ele>
        <time>2026-07-29T11:28:06.000Z</time>
      </trkpt>
      <trkpt lat="50.01216419041157" lon="88.61027651466429">
        <ele>1769.6</ele>
        <time>2026-07-29T11:28:22.000Z</time>
      </trkpt>
      <trkpt lat="50.01186026260257" lon="88.61148191615939">
        <ele>1768.6</ele>
        <time>2026-07-29T11:28:37.000Z</time>
      </trkpt>
      <trkpt lat="50.01161936670542" lon="88.6131805088371">
        <ele>1766.4</ele>
        <time>2026-07-29T11:28:53.000Z</time>
      </trkpt>
      <trkpt lat="50.01146522350609" lon="88.61442622728646">
        <ele>1766.6</ele>
        <time>2026-07-29T11:29:09.000Z</time>
      </trkpt>
      <trkpt lat="50.0113975815475" lon="88.61629706807435">
        <ele>1762.2</ele>
        <time>2026-07-29T11:29:25.000Z</time>
      </trkpt>
      <trkpt lat="50.01146463677287" lon="88.6180956568569">
        <ele>1762</ele>
        <time>2026-07-29T11:29:41.000Z</time>
      </trkpt>
      <trkpt lat="50.01158030703664" lon="88.61995065584779">
        <ele>1760.2</ele>
        <time>2026-07-29T11:29:58.000Z</time>
      </trkpt>
      <trkpt lat="50.0116808898747" lon="88.62167255021632">
        <ele>1759</ele>
        <time>2026-07-29T11:30:14.000Z</time>
      </trkpt>
      <trkpt lat="50.01172631978989" lon="88.62294827587903">
        <ele>1760.2</ele>
        <time>2026-07-29T11:30:30.000Z</time>
      </trkpt>
      <trkpt lat="50.01177191734314" lon="88.62397765740752">
        <ele>1761</ele>
        <time>2026-07-29T11:30:46.000Z</time>
      </trkpt>
      <trkpt lat="50.01180653460324" lon="88.62491643056273">
        <ele>1761.8</ele>
        <time>2026-07-29T11:31:02.000Z</time>
      </trkpt>
      <trkpt lat="50.011854730546474" lon="88.62585713155568">
        <ele>1762.4</ele>
        <time>2026-07-29T11:31:18.000Z</time>
      </trkpt>
      <trkpt lat="50.011965204030275" lon="88.62674075178802">
        <ele>1762.6</ele>
        <time>2026-07-29T11:31:34.000Z</time>
      </trkpt>
      <trkpt lat="50.01218288205564" lon="88.62767240032554">
        <ele>1762.8</ele>
        <time>2026-07-29T11:31:50.000Z</time>
      </trkpt>
      <trkpt lat="50.01246711239219" lon="88.62866775132716">
        <ele>1762</ele>
        <time>2026-07-29T11:32:06.000Z</time>
      </trkpt>
      <trkpt lat="50.01270708627999" lon="88.62956017255783">
        <ele>1763.2</ele>
        <time>2026-07-29T11:32:23.000Z</time>
      </trkpt>
      <trkpt lat="50.01290246844292" lon="88.63018118776381">
        <ele>1764</ele>
        <time>2026-07-29T11:32:39.000Z</time>
      </trkpt>
      <trkpt lat="50.01314931549132" lon="88.63082349300385">
        <ele>1763.6</ele>
        <time>2026-07-29T11:32:55.000Z</time>
      </trkpt>
      <trkpt lat="50.01357025466859" lon="88.63153595477343">
        <ele>1762.8</ele>
        <time>2026-07-29T11:33:11.000Z</time>
      </trkpt>
      <trkpt lat="50.014043832197785" lon="88.63231647759676">
        <ele>1763.4</ele>
        <time>2026-07-29T11:33:27.000Z</time>
      </trkpt>
      <trkpt lat="50.01445102505386" lon="88.63307068124413">
        <ele>1764</ele>
        <time>2026-07-29T11:33:43.000Z</time>
      </trkpt>
      <trkpt lat="50.01487858593464" lon="88.63395337946713">
        <ele>1763</ele>
        <time>2026-07-29T11:33:59.000Z</time>
      </trkpt>
      <trkpt lat="50.01535057090223" lon="88.63494931720197">
        <ele>1762.2</ele>
        <time>2026-07-29T11:34:15.000Z</time>
      </trkpt>
      <trkpt lat="50.01579757779837" lon="88.63589119166136">
        <ele>1762.6</ele>
        <time>2026-07-29T11:34:31.000Z</time>
      </trkpt>
      <trkpt lat="50.01625891774893" lon="88.63685670308769">
        <ele>1762.4</ele>
        <time>2026-07-29T11:34:48.000Z</time>
      </trkpt>
      <trkpt lat="50.01664699986577" lon="88.63770335912704">
        <ele>1763.4</ele>
        <time>2026-07-29T11:35:04.000Z</time>
      </trkpt>
      <trkpt lat="50.01691186800599" lon="88.63832127302885">
        <ele>1764.6</ele>
        <time>2026-07-29T11:35:20.000Z</time>
      </trkpt>
      <trkpt lat="50.017080595716834" lon="88.63876827992499">
        <ele>1765.2</ele>
        <time>2026-07-29T11:35:36.000Z</time>
      </trkpt>
      <trkpt lat="50.017290813848376" lon="88.63933062180877">
        <ele>1766</ele>
        <time>2026-07-29T11:35:52.000Z</time>
      </trkpt>
      <trkpt lat="50.0174777302891" lon="88.63991023041308">
        <ele>1766.4</ele>
        <time>2026-07-29T11:36:08.000Z</time>
      </trkpt>
      <trkpt lat="50.01768417656422" lon="88.64059788174927">
        <ele>1766.8</ele>
        <time>2026-07-29T11:36:24.000Z</time>
      </trkpt>
      <trkpt lat="50.01786011271179" lon="88.64120246842504">
        <ele>1767</ele>
        <time>2026-07-29T11:36:40.000Z</time>
      </trkpt>
      <trkpt lat="50.018054489046335" lon="88.6418435163796">
        <ele>1767.8</ele>
        <time>2026-07-29T11:36:56.000Z</time>
      </trkpt>
      <trkpt lat="50.01823017373681" lon="88.64239605143666">
        <ele>1769.2</ele>
        <time>2026-07-29T11:37:13.000Z</time>
      </trkpt>
      <trkpt lat="50.01839026808739" lon="88.64292159676552">
        <ele>1770.2</ele>
        <time>2026-07-29T11:37:29.000Z</time>
      </trkpt>
      <trkpt lat="50.0185570679605" lon="88.64347991533577">
        <ele>1771</ele>
        <time>2026-07-29T11:37:45.000Z</time>
      </trkpt>
      <trkpt lat="50.0187071878463" lon="88.64412481896579">
        <ele>1771.6</ele>
        <time>2026-07-29T11:38:01.000Z</time>
      </trkpt>
      <trkpt lat="50.01877097412944" lon="88.6450086068362">
        <ele>1771.2</ele>
        <time>2026-07-29T11:38:17.000Z</time>
      </trkpt>
      <trkpt lat="50.01881707459688" lon="88.64623588509858">
        <ele>1770.6</ele>
        <time>2026-07-29T11:38:33.000Z</time>
      </trkpt>
      <trkpt lat="50.01887943595648" lon="88.64756575785577">
        <ele>1769.8</ele>
        <time>2026-07-29T11:38:49.000Z</time>
      </trkpt>
      <trkpt lat="50.01892562024295" lon="88.64861827343702">
        <ele>1770.6</ele>
        <time>2026-07-29T11:39:05.000Z</time>
      </trkpt>
      <trkpt lat="50.018957890570164" lon="88.6493016500026">
        <ele>1771.6</ele>
        <time>2026-07-29T11:39:21.000Z</time>
      </trkpt>
      <trkpt lat="50.01897197216749" lon="88.64984865300357">
        <ele>1773.2</ele>
        <time>2026-07-29T11:39:38.000Z</time>
      </trkpt>
      <trkpt lat="50.01894489862025" lon="88.650320218876">
        <ele>1775</ele>
        <time>2026-07-29T11:39:54.000Z</time>
      </trkpt>
      <trkpt lat="50.01884615980089" lon="88.65079002454877">
        <ele>1776.2</ele>
        <time>2026-07-29T11:40:10.000Z</time>
      </trkpt>
      <trkpt lat="50.018700901418924" lon="88.6512755881995">
        <ele>1777</ele>
        <time>2026-07-29T11:40:26.000Z</time>
      </trkpt>
      <trkpt lat="50.018520606681705" lon="88.65183910354972">
        <ele>1777.4</ele>
        <time>2026-07-29T11:40:42.000Z</time>
      </trkpt>
      <trkpt lat="50.0183083768934" lon="88.65247512236238">
        <ele>1777.2</ele>
        <time>2026-07-29T11:40:58.000Z</time>
      </trkpt>
      <trkpt lat="50.018072007223964" lon="88.65317962132394">
        <ele>1776.2</ele>
        <time>2026-07-29T11:41:14.000Z</time>
      </trkpt>
      <trkpt lat="50.01795256510377" lon="88.65348313003778">
        <ele>1776.2</ele>
        <time>2026-07-29T11:41:25.000Z</time>
      </trkpt>
      <trkpt lat="50.01791627146304" lon="88.65356116555631">
        <ele>1776.2</ele>
        <time>2026-07-29T11:43:44.000Z</time>
      </trkpt>
      <trkpt lat="50.01779439859092" lon="88.6536480858922">
        <ele>1775.6</ele>
        <time>2026-07-29T11:43:59.000Z</time>
      </trkpt>
      <trkpt lat="50.017729522660375" lon="88.65370768122375">
        <ele>1775.2</ele>
        <time>2026-07-29T11:49:32.000Z</time>
      </trkpt>
      <trkpt lat="50.01767076551914" lon="88.654271280393">
        <ele>1774.4</ele>
        <time>2026-07-29T11:49:50.000Z</time>
      </trkpt>
      <trkpt lat="50.01754637807608" lon="88.65476455539465">
        <ele>1774.2</ele>
        <time>2026-07-29T11:50:02.000Z</time>
      </trkpt>
      <trkpt lat="50.01718578860164" lon="88.65583752281964">
        <ele>1773.6</ele>
        <time>2026-07-29T11:50:18.000Z</time>
      </trkpt>
      <trkpt lat="50.016855373978615" lon="88.65683346055448">
        <ele>1773.8</ele>
        <time>2026-07-29T11:50:34.000Z</time>
      </trkpt>
      <trkpt lat="50.01650962047279" lon="88.65789008326828">
        <ele>1772.8</ele>
        <time>2026-07-29T11:50:50.000Z</time>
      </trkpt>
      <trkpt lat="50.01614383421838" lon="88.65897956304252">
        <ele>1772.6</ele>
        <time>2026-07-29T11:51:06.000Z</time>
      </trkpt>
      <trkpt lat="50.01587502658367" lon="88.65979445166886">
        <ele>1773.6</ele>
        <time>2026-07-29T11:51:23.000Z</time>
      </trkpt>
      <trkpt lat="50.01570738852024" lon="88.66031035780907">
        <ele>1774.6</ele>
        <time>2026-07-29T11:51:39.000Z</time>
      </trkpt>
      <trkpt lat="50.01547001302242" lon="88.66104310378432">
        <ele>1774.2</ele>
        <time>2026-07-29T11:51:55.000Z</time>
      </trkpt>
      <trkpt lat="50.015007918700576" lon="88.6619265563786">
        <ele>1771.8</ele>
        <time>2026-07-29T11:52:08.000Z</time>
      </trkpt>
      <trkpt lat="50.01421465538442" lon="88.66296901367605">
        <ele>1770.6</ele>
        <time>2026-07-29T11:52:24.000Z</time>
      </trkpt>
      <trkpt lat="50.013522477820516" lon="88.66389831528068">
        <ele>1770.6</ele>
        <time>2026-07-29T11:52:40.000Z</time>
      </trkpt>
      <trkpt lat="50.01292996108532" lon="88.66469132713974">
        <ele>1769.2</ele>
        <time>2026-07-29T11:52:56.000Z</time>
      </trkpt>
      <trkpt lat="50.01239536330104" lon="88.66541502065957">
        <ele>1769.6</ele>
        <time>2026-07-29T11:53:12.000Z</time>
      </trkpt>
      <trkpt lat="50.011867471039295" lon="88.666124464944">
        <ele>1769.2</ele>
        <time>2026-07-29T11:53:28.000Z</time>
      </trkpt>
      <trkpt lat="50.01139967702329" lon="88.66675201803446">
        <ele>1770.4</ele>
        <time>2026-07-29T11:53:45.000Z</time>
      </trkpt>
      <trkpt lat="50.011050906032324" lon="88.6672111786902">
        <ele>1771.6</ele>
        <time>2026-07-29T11:54:01.000Z</time>
      </trkpt>
      <trkpt lat="50.01070867292583" lon="88.66769037209451">
        <ele>1772.4</ele>
        <time>2026-07-29T11:54:17.000Z</time>
      </trkpt>
      <trkpt lat="50.01032478176057" lon="88.66821021772921">
        <ele>1772.2</ele>
        <time>2026-07-29T11:54:33.000Z</time>
      </trkpt>
      <trkpt lat="50.009915325790644" lon="88.6687686201185">
        <ele>1772.2</ele>
        <time>2026-07-29T11:54:49.000Z</time>
      </trkpt>
      <trkpt lat="50.00945876352489" lon="88.66925678215921">
        <ele>1771.8</ele>
        <time>2026-07-29T11:55:05.000Z</time>
      </trkpt>
      <trkpt lat="50.00885962508619" lon="88.66962206549942">
        <ele>1771.8</ele>
        <time>2026-07-29T11:55:21.000Z</time>
      </trkpt>
      <trkpt lat="50.0082528591156" lon="88.66966447792947">
        <ele>1772.2</ele>
        <time>2026-07-29T11:55:37.000Z</time>
      </trkpt>
      <trkpt lat="50.00760242342949" lon="88.66946306079626">
        <ele>1772.2</ele>
        <time>2026-07-29T11:55:53.000Z</time>
      </trkpt>
      <trkpt lat="50.00713680870831" lon="88.66926399059594">
        <ele>1772</ele>
        <time>2026-07-29T11:56:10.000Z</time>
      </trkpt>
      <trkpt lat="50.00663196668029" lon="88.66904555819929">
        <ele>1771.8</ele>
        <time>2026-07-29T11:56:26.000Z</time>
      </trkpt>
      <trkpt lat="50.00603877939284" lon="88.66879468783736">
        <ele>1772</ele>
        <time>2026-07-29T11:56:42.000Z</time>
      </trkpt>
      <trkpt lat="50.005303267389536" lon="88.66848581470549">
        <ele>1771</ele>
        <time>2026-07-29T11:56:58.000Z</time>
      </trkpt>
      <trkpt lat="50.00455291941762" lon="88.66816487163305">
        <ele>1769.8</ele>
        <time>2026-07-29T11:57:14.000Z</time>
      </trkpt>
      <trkpt lat="50.00373098999262" lon="88.66782121360302">
        <ele>1769</ele>
        <time>2026-07-29T11:57:30.000Z</time>
      </trkpt>
      <trkpt lat="50.00299958512187" lon="88.66751912981272">
        <ele>1768.6</ele>
        <time>2026-07-29T11:57:46.000Z</time>
      </trkpt>
      <trkpt lat="50.00218695960939" lon="88.66717245429754">
        <ele>1767.8</ele>
        <time>2026-07-29T11:58:02.000Z</time>
      </trkpt>
      <trkpt lat="50.001435689628124" lon="88.66685436107218">
        <ele>1767.6</ele>
        <time>2026-07-29T11:58:18.000Z</time>
      </trkpt>
      <trkpt lat="50.00070453621447" lon="88.66653551347554">
        <ele>1767.6</ele>
        <time>2026-07-29T11:58:35.000Z</time>
      </trkpt>
      <trkpt lat="49.99998327344656" lon="88.66622203029692">
        <ele>1767.2</ele>
        <time>2026-07-29T11:58:51.000Z</time>
      </trkpt>
      <trkpt lat="49.99929268844426" lon="88.66591801866889">
        <ele>1766.8</ele>
        <time>2026-07-29T11:59:07.000Z</time>
      </trkpt>
      <trkpt lat="49.99864837154746" lon="88.66563655436039">
        <ele>1766.4</ele>
        <time>2026-07-29T11:59:23.000Z</time>
      </trkpt>
      <trkpt lat="49.998034313321114" lon="88.66538040339947">
        <ele>1766</ele>
        <time>2026-07-29T11:59:39.000Z</time>
      </trkpt>
      <trkpt lat="49.997510109096766" lon="88.66518585942686">
        <ele>1765.8</ele>
        <time>2026-07-29T11:59:55.000Z</time>
      </trkpt>
      <trkpt lat="49.99713208526373" lon="88.66507421247661">
        <ele>1766.4</ele>
        <time>2026-07-29T12:00:10.000Z</time>
      </trkpt>
      <trkpt lat="49.996704859659076" lon="88.66509047336876">
        <ele>1766.8</ele>
        <time>2026-07-29T12:00:26.000Z</time>
      </trkpt>
      <trkpt lat="49.99649841338396" lon="88.66514445282519">
        <ele>1766.8</ele>
        <time>2026-07-29T12:00:39.000Z</time>
      </trkpt>
      <trkpt lat="49.9961528275162" lon="88.66532927379012">
        <ele>1766.6</ele>
        <time>2026-07-29T12:01:27.000Z</time>
      </trkpt>
      <trkpt lat="49.995691906660795" lon="88.66561995819211">
        <ele>1766.2</ele>
        <time>2026-07-29T12:01:43.000Z</time>
      </trkpt>
      <trkpt lat="49.99544681981206" lon="88.66581567563117">
        <ele>1766.2</ele>
        <time>2026-07-29T12:01:53.000Z</time>
      </trkpt>
      <trkpt lat="49.9955121986568" lon="88.66641665808856">
        <ele>1765.6</ele>
        <time>2026-07-29T12:02:05.000Z</time>
      </trkpt>
      <trkpt lat="49.995684530586004" lon="88.6665150616318">
        <ele>1765.6</ele>
        <time>2026-07-29T12:02:15.000Z</time>
      </trkpt>
      <trkpt lat="49.99547816812992" lon="88.66637432947755">
        <ele>1765.8</ele>
        <time>2026-07-29T12:04:23.000Z</time>
      </trkpt>
      <trkpt lat="49.99550750479102" lon="88.665891867131">
        <ele>1766.4</ele>
        <time>2026-07-29T12:04:38.000Z</time>
      </trkpt>
      <trkpt lat="49.995248168706894" lon="88.66600837558508">
        <ele>1766.2</ele>
        <time>2026-07-29T12:04:50.000Z</time>
      </trkpt>
      <trkpt lat="49.995009284466505" lon="88.66620157845318">
        <ele>1766</ele>
        <time>2026-07-29T12:05:06.000Z</time>
      </trkpt>
      <trkpt lat="49.99488380737603" lon="88.66633552126586">
        <ele>1765.8</ele>
        <time>2026-07-29T12:05:15.000Z</time>
      </trkpt>
      <trkpt lat="49.99492068774998" lon="88.66623787209392">
        <ele>1766</ele>
        <time>2026-07-29T12:05:20.000Z</time>
      </trkpt>
      <trkpt lat="49.995045997202396" lon="88.66606746800244">
        <ele>1766.2</ele>
        <time>2026-07-29T12:05:27.000Z</time>
      </trkpt>
      <trkpt lat="49.995094276964664" lon="88.66531720384955">
        <ele>1765.6</ele>
        <time>2026-07-29T12:05:43.000Z</time>
      </trkpt>
      <trkpt lat="49.99520877376199" lon="88.66477749310434">
        <ele>1765.4</ele>
        <time>2026-07-29T12:05:56.000Z</time>
      </trkpt>
      <trkpt lat="49.995373729616404" lon="88.6641436535865">
        <ele>1765.4</ele>
        <time>2026-07-29T12:06:12.000Z</time>
      </trkpt>
      <trkpt lat="49.995570704340935" lon="88.66345449350774">
        <ele>1765.2</ele>
        <time>2026-07-29T12:06:28.000Z</time>
      </trkpt>
      <trkpt lat="49.995771031826735" lon="88.66276449523866">
        <ele>1764.8</ele>
        <time>2026-07-29T12:06:44.000Z</time>
      </trkpt>
      <trkpt lat="49.99593758024275" lon="88.66204281337559">
        <ele>1764.2</ele>
        <time>2026-07-29T12:07:00.000Z</time>
      </trkpt>
      <trkpt lat="49.996092561632395" lon="88.66144711151719">
        <ele>1764.2</ele>
        <time>2026-07-29T12:07:16.000Z</time>
      </trkpt>
      <trkpt lat="49.9962598644197" lon="88.66087010130286">
        <ele>1764</ele>
        <time>2026-07-29T12:07:32.000Z</time>
      </trkpt>
      <trkpt lat="49.996452229097486" lon="88.66020558401942">
        <ele>1764</ele>
        <time>2026-07-29T12:07:48.000Z</time>
      </trkpt>
      <trkpt lat="49.99642842449248" lon="88.66004875861108">
        <ele>1764</ele>
        <time>2026-07-29T12:07:54.000Z</time>
      </trkpt>
      <trkpt lat="49.99604671262205" lon="88.65979679860175">
        <ele>1764.4</ele>
        <time>2026-07-29T12:08:11.000Z</time>
      </trkpt>
      <trkpt lat="49.995630383491516" lon="88.65948859602213">
        <ele>1764.2</ele>
        <time>2026-07-29T12:08:27.000Z</time>
      </trkpt>
      <trkpt lat="49.99541262164712" lon="88.65932330489159">
        <ele>1764</ele>
        <time>2026-07-29T12:08:38.000Z</time>
      </trkpt>
      <trkpt lat="49.99520248733461" lon="88.6599441524595">
        <ele>1763.8</ele>
        <time>2026-07-29T12:08:54.000Z</time>
      </trkpt>
      <trkpt lat="49.99497282318771" lon="88.6605852842331">
        <ele>1763.6</ele>
        <time>2026-07-29T12:09:10.000Z</time>
      </trkpt>
      <trkpt lat="49.994752798229456" lon="88.6612465325743">
        <ele>1764</ele>
        <time>2026-07-29T12:09:26.000Z</time>
      </trkpt>
      <trkpt lat="49.99457627534866" lon="88.66174827329814">
        <ele>1764</ele>
        <time>2026-07-29T12:09:39.000Z</time>
      </trkpt>
      <trkpt lat="49.994323225691915" lon="88.66232570260763">
        <ele>1764.2</ele>
        <time>2026-07-29T12:09:55.000Z</time>
      </trkpt>
      <trkpt lat="49.99412650242448" lon="88.66293095983565">
        <ele>1764</ele>
        <time>2026-07-29T12:10:11.000Z</time>
      </trkpt>
      <trkpt lat="49.99392533674836" lon="88.66349279880524">
        <ele>1764</ele>
        <time>2026-07-29T12:10:28.000Z</time>
      </trkpt>
      <trkpt lat="49.99376046471298" lon="88.66394902579486">
        <ele>1764.2</ele>
        <time>2026-07-29T12:10:44.000Z</time>
      </trkpt>
      <trkpt lat="49.99361805617809" lon="88.66441078484058">
        <ele>1764.4</ele>
        <time>2026-07-29T12:11:00.000Z</time>
      </trkpt>
      <trkpt lat="49.993453519418836" lon="88.66484010592103">
        <ele>1764.4</ele>
        <time>2026-07-29T12:11:16.000Z</time>
      </trkpt>
      <trkpt lat="49.99335712753236" lon="88.66507647559047">
        <ele>1764.8</ele>
        <time>2026-07-29T12:11:29.000Z</time>
      </trkpt>
      <trkpt lat="49.99316409230232" lon="88.66570126265287">
        <ele>1764.8</ele>
        <time>2026-07-29T12:11:45.000Z</time>
      </trkpt>
      <trkpt lat="49.992950186133385" lon="88.66628271527588">
        <ele>1765.6</ele>
        <time>2026-07-29T12:12:01.000Z</time>
      </trkpt>
      <trkpt lat="49.99276670627296" lon="88.66682041436434">
        <ele>1766</ele>
        <time>2026-07-29T12:12:16.000Z</time>
      </trkpt>
      <trkpt lat="49.992709290236235" lon="88.66724856197834">
        <ele>1766.4</ele>
        <time>2026-07-29T12:12:28.000Z</time>
      </trkpt>
      <trkpt lat="49.992797216400504" lon="88.66735467687249">
        <ele>1766.6</ele>
        <time>2026-07-29T12:15:45.000Z</time>
      </trkpt>
      <trkpt lat="49.992640474811196" lon="88.66727077402174">
        <ele>1767</ele>
        <time>2026-07-29T12:15:55.000Z</time>
      </trkpt>
      <trkpt lat="49.99273158609867" lon="88.66749800741673">
        <ele>1767.2</ele>
        <time>2026-07-29T12:16:04.000Z</time>
      </trkpt>
      <trkpt lat="49.992931159213185" lon="88.66738451644778">
        <ele>1767.2</ele>
        <time>2026-07-29T12:16:17.000Z</time>
      </trkpt>
      <trkpt lat="49.993336256593466" lon="88.66710489615798">
        <ele>1767</ele>
        <time>2026-07-29T12:16:33.000Z</time>
      </trkpt>
      <trkpt lat="49.99328571371734" lon="88.66735937073827">
        <ele>1766.4</ele>
        <time>2026-07-29T12:17:27.000Z</time>
      </trkpt>
      <trkpt lat="49.99310919083655" lon="88.6679450981319">
        <ele>1765.8</ele>
        <time>2026-07-29T12:17:42.000Z</time>
      </trkpt>
      <trkpt lat="49.992981031537056" lon="88.66851297207177">
        <ele>1765.6</ele>
        <time>2026-07-29T12:17:57.000Z</time>
      </trkpt>
      <trkpt lat="49.9929563049227" lon="88.66884120739996">
        <ele>1765.6</ele>
        <time>2026-07-29T12:18:08.000Z</time>
      </trkpt>
      <trkpt lat="49.99301095493138" lon="88.66847692988813">
        <ele>1765.8</ele>
        <time>2026-07-29T12:18:19.000Z</time>
      </trkpt>
      <trkpt lat="49.99311413615942" lon="88.6679673101753">
        <ele>1765.8</ele>
        <time>2026-07-29T12:18:54.000Z</time>
      </trkpt>
      <trkpt lat="49.99307457357645" lon="88.66757755167782">
        <ele>1766.4</ele>
        <time>2026-07-29T12:19:04.000Z</time>
      </trkpt>
      <trkpt lat="49.992752289399505" lon="88.66751158609986">
        <ele>1766.8</ele>
        <time>2026-07-29T12:19:15.000Z</time>
      </trkpt>
      <trkpt lat="49.99262999743223" lon="88.66732257418334">
        <ele>1767</ele>
        <time>2026-07-29T12:19:21.000Z</time>
      </trkpt>
      <trkpt lat="49.99279076233506" lon="88.66674120537937">
        <ele>1767</ele>
        <time>2026-07-29T12:19:33.000Z</time>
      </trkpt>
      <trkpt lat="49.99306526966393" lon="88.66592866368592">
        <ele>1766.2</ele>
        <time>2026-07-29T12:19:49.000Z</time>
      </trkpt>
      <trkpt lat="49.99335503205657" lon="88.66507387720048">
        <ele>1765.6</ele>
        <time>2026-07-29T12:20:06.000Z</time>
      </trkpt>
      <trkpt lat="49.99365761876106" lon="88.66418707184494">
        <ele>1765.2</ele>
        <time>2026-07-29T12:20:22.000Z</time>
      </trkpt>
      <trkpt lat="49.99385501258075" lon="88.6636774521321">
        <ele>1764.8</ele>
        <time>2026-07-29T12:20:38.000Z</time>
      </trkpt>
      <trkpt lat="49.99400479719043" lon="88.66319557651877">
        <ele>1764.8</ele>
        <time>2026-07-29T12:20:53.000Z</time>
      </trkpt>
      <trkpt lat="49.9942843336612" lon="88.66240457631648">
        <ele>1765.2</ele>
        <time>2026-07-29T12:21:09.000Z</time>
      </trkpt>
      <trkpt lat="49.994502598419785" lon="88.66181826218963">
        <ele>1765.2</ele>
        <time>2026-07-29T12:21:21.000Z</time>
      </trkpt>
      <trkpt lat="49.99472429975867" lon="88.66108249872923">
        <ele>1765</ele>
        <time>2026-07-29T12:21:37.000Z</time>
      </trkpt>
      <trkpt lat="49.99502822756767" lon="88.6602375190705">
        <ele>1765</ele>
        <time>2026-07-29T12:21:53.000Z</time>
      </trkpt>
      <trkpt lat="49.995311871171" lon="88.65944115445018">
        <ele>1765</ele>
        <time>2026-07-29T12:22:09.000Z</time>
      </trkpt>
      <trkpt lat="49.99553776346147" lon="88.65877965465188">
        <ele>1764.8</ele>
        <time>2026-07-29T12:22:26.000Z</time>
      </trkpt>
      <trkpt lat="49.99574337154627" lon="88.658193256706">
        <ele>1764.6</ele>
        <time>2026-07-29T12:22:42.000Z</time>
      </trkpt>
      <trkpt lat="49.995875554159284" lon="88.65774960257113">
        <ele>1764.6</ele>
        <time>2026-07-29T12:22:55.000Z</time>
      </trkpt>
      <trkpt lat="49.99576876871288" lon="88.65767282433808">
        <ele>1764.6</ele>
        <time>2026-07-29T12:23:02.000Z</time>
      </trkpt>
      <trkpt lat="49.995667431503534" lon="88.65788790397346">
        <ele>1764.6</ele>
        <time>2026-07-29T12:23:11.000Z</time>
      </trkpt>
      <trkpt lat="49.99559442512691" lon="88.65833021700382">
        <ele>1764.6</ele>
        <time>2026-07-29T12:23:44.000Z</time>
      </trkpt>
      <trkpt lat="49.99536568298936" lon="88.65899238735437">
        <ele>1764.8</ele>
        <time>2026-07-29T12:24:00.000Z</time>
      </trkpt>
      <trkpt lat="49.99521296471357" lon="88.6594068724662">
        <ele>1764.8</ele>
        <time>2026-07-29T12:24:16.000Z</time>
      </trkpt>
      <trkpt lat="49.995102575048804" lon="88.65971272811294">
        <ele>1764.4</ele>
        <time>2026-07-29T12:24:28.000Z</time>
      </trkpt>
      <trkpt lat="49.995055636391044" lon="88.65983795374632">
        <ele>1764.6</ele>
        <time>2026-07-29T12:24:42.000Z</time>
      </trkpt>
      <trkpt lat="49.995080195367336" lon="88.65997248329222">
        <ele>1765</ele>
        <time>2026-07-29T12:29:43.000Z</time>
      </trkpt>
      <trkpt lat="49.99483720399439" lon="88.66063322871923">
        <ele>1765</ele>
        <time>2026-07-29T12:29:59.000Z</time>
      </trkpt>
      <trkpt lat="49.99460251070559" lon="88.6611997615546">
        <ele>1765.4</ele>
        <time>2026-07-29T12:30:13.000Z</time>
      </trkpt>
      <trkpt lat="49.9944844096899" lon="88.6616641189903">
        <ele>1765.2</ele>
        <time>2026-07-29T12:30:25.000Z</time>
      </trkpt>
      <trkpt lat="49.994324231520295" lon="88.66214683279395">
        <ele>1765.4</ele>
        <time>2026-07-29T12:30:39.000Z</time>
      </trkpt>
      <trkpt lat="49.99400940723717" lon="88.66304067894816">
        <ele>1765.4</ele>
        <time>2026-07-29T12:30:55.000Z</time>
      </trkpt>
      <trkpt lat="49.99377228319645" lon="88.66370511241257">
        <ele>1765.4</ele>
        <time>2026-07-29T12:31:11.000Z</time>
      </trkpt>
      <trkpt lat="49.99361017718911" lon="88.6642133910209">
        <ele>1765.4</ele>
        <time>2026-07-29T12:31:27.000Z</time>
      </trkpt>
      <trkpt lat="49.993451004847884" lon="88.66462293080986">
        <ele>1765.4</ele>
        <time>2026-07-29T12:31:41.000Z</time>
      </trkpt>
      <trkpt lat="49.99323869124055" lon="88.6652803234756">
        <ele>1766</ele>
        <time>2026-07-29T12:31:58.000Z</time>
      </trkpt>
      <trkpt lat="49.99297617003322" lon="88.66597929038107">
        <ele>1766.6</ele>
        <time>2026-07-29T12:32:14.000Z</time>
      </trkpt>
      <trkpt lat="49.992745919153094" lon="88.66666786372662">
        <ele>1767</ele>
        <time>2026-07-29T12:32:30.000Z</time>
      </trkpt>
      <trkpt lat="49.99264500103891" lon="88.6672457959503">
        <ele>1767.8</ele>
        <time>2026-07-29T12:32:44.000Z</time>
      </trkpt>
      <trkpt lat="49.99271507374942" lon="88.66749230772257">
        <ele>1767.8</ele>
        <time>2026-07-29T12:32:50.000Z</time>
      </trkpt>
      <trkpt lat="49.99305747449398" lon="88.66730178706348">
        <ele>1768</ele>
        <time>2026-07-29T12:33:00.000Z</time>
      </trkpt>
      <trkpt lat="49.99364772811532" lon="88.66690188646317">
        <ele>1767.4</ele>
        <time>2026-07-29T12:33:16.000Z</time>
      </trkpt>
      <trkpt lat="49.994187857955694" lon="88.66654716432095">
        <ele>1767.2</ele>
        <time>2026-07-29T12:33:32.000Z</time>
      </trkpt>
      <trkpt lat="49.99462530948222" lon="88.66626570001245">
        <ele>1767.2</ele>
        <time>2026-07-29T12:33:48.000Z</time>
      </trkpt>
      <trkpt lat="49.99498648568988" lon="88.66601650603116">
        <ele>1767.8</ele>
        <time>2026-07-29T12:34:03.000Z</time>
      </trkpt>
      <trkpt lat="49.99507650732994" lon="88.66563772782683">
        <ele>1767.4</ele>
        <time>2026-07-29T12:34:17.000Z</time>
      </trkpt>
      <trkpt lat="49.99515110626817" lon="88.66594056598842">
        <ele>1767.6</ele>
        <time>2026-07-29T12:34:35.000Z</time>
      </trkpt>
      <trkpt lat="49.99528965912759" lon="88.66599488072097">
        <ele>1768</ele>
        <time>2026-07-29T12:34:40.000Z</time>
      </trkpt>
      <trkpt lat="49.99573088251054" lon="88.66568835452199">
        <ele>1768.4</ele>
        <time>2026-07-29T12:34:56.000Z</time>
      </trkpt>
      <trkpt lat="49.9962495546788" lon="88.66539046168327">
        <ele>1768.6</ele>
        <time>2026-07-29T12:35:12.000Z</time>
      </trkpt>
      <trkpt lat="49.99661123380065" lon="88.66527437232435">
        <ele>1768.4</ele>
        <time>2026-07-29T12:35:26.000Z</time>
      </trkpt>
      <trkpt lat="49.99668256379664" lon="88.66548341698945">
        <ele>1767.2</ele>
        <time>2026-07-29T12:35:32.000Z</time>
      </trkpt>
      <trkpt lat="49.99660058878362" lon="88.66575758904219">
        <ele>1766.8</ele>
        <time>2026-07-29T12:35:41.000Z</time>
      </trkpt>
      <trkpt lat="49.996623219922185" lon="88.66599446162581">
        <ele>1767.2</ele>
        <time>2026-07-29T12:38:47.000Z</time>
      </trkpt>
    </trkseg>
  </trk>
</gpx>