<?xml version="1.0" encoding="UTF-8"?>
<TrainingCenterDatabase xmlns="http://www.garmin.com/xmlschemas/TrainingCenterDatabase/v2" xmlns:ns3="http://www.garmin.com/xmlschemas/ActivityExtension/v2" xmlns:xsi="http://www.w3.org/2001/XMLSchema-instance" xsi:schemaLocation="http://www.garmin.com/xmlschemas/TrainingCenterDatabase/v2 http://www.garmin.com/xmlschemas/TrainingCenterDatabasev2.xsd">
<Activities>
<Activity Sport="Biking">
<Id>2026-09-17T22:57:54Z</Id>
<Lap StartTime="2026-09-17T22:57:54Z">
<TotalTimeSeconds>821.0</TotalTimeSeconds>
<DistanceMeters>3152.53</DistanceMeters>
<MaximumSpeed>7.478</MaximumSpeed>
<Calories>146</Calories>
<Intensity>Active</Intensity>
<TriggerMethod>Manual</TriggerMethod>
<Track>
<Trackpoint>
<Time>2026-09-17T22:57:54Z</Time>
<Position>
<LatitudeDegrees>44.4015946</LatitudeDegrees>
<LongitudeDegrees>131.1592877</LongitudeDegrees>
</Position>
<AltitudeMeters>529.0</AltitudeMeters>
<DistanceMeters>0.0</DistanceMeters>
<Extensions>
<ns3:TPX>
<ns3:Speed>0.0</ns3:Speed>
</ns3:TPX>
</Extensions>
</Trackpoint>
<Trackpoint>
<Time>2026-09-17T22:59:02Z</Time>
<Position>
<LatitudeDegrees>44.4016925</LatitudeDegrees>
<LongitudeDegrees>131.1592698</LongitudeDegrees>
</Position>
<AltitudeMeters>529.0</AltitudeMeters>
<DistanceMeters>11.0</DistanceMeters>
<Extensions>
<ns3:TPX>
<ns3:Speed>1.169</ns3:Speed>
</ns3:TPX>
</Extensions>
</Trackpoint>
<Trackpoint>
<Time>2026-09-17T22:59:05Z</Time>
<Position>
<LatitudeDegrees>44.4017224</LatitudeDegrees>
<LongitudeDegrees>131.1592766</LongitudeDegrees>
</Position>
<AltitudeMeters>528.8</AltitudeMeters>
<DistanceMeters>14.3</DistanceMeters>
<Extensions>
<ns3:TPX>
<ns3:Speed>1.365</ns3:Speed>
</ns3:TPX>
</Extensions>
</Trackpoint>
<Trackpoint>
<Time>2026-09-17T22:59:09Z</Time>
<Position>
<LatitudeDegrees>44.4017299</LatitudeDegrees>
<LongitudeDegrees>131.1592507</LongitudeDegrees>
</Position>
<AltitudeMeters>528.6</AltitudeMeters>
<DistanceMeters>15.9</DistanceMeters>
<Extensions>
<ns3:TPX>
<ns3:Speed>0.0</ns3:Speed>
</ns3:TPX>
</Extensions>
</Trackpoint>
<Trackpoint>
<Time>2026-09-17T22:59:36Z</Time>
<Position>
<LatitudeDegrees>44.4017314</LatitudeDegrees>
<LongitudeDegrees>131.1593509</LongitudeDegrees>
</Position>
<AltitudeMeters>528.2</AltitudeMeters>
<DistanceMeters>24.5</DistanceMeters>
<Extensions>
<ns3:TPX>
<ns3:Speed>2.777</ns3:Speed>
</ns3:TPX>
</Extensions>
</Trackpoint>
<Trackpoint>
<Time>2026-09-17T22:59:37Z</Time>
<Position>
<LatitudeDegrees>44.4017574</LatitudeDegrees>
<LongitudeDegrees>131.1593647</LongitudeDegrees>
</Position>
<AltitudeMeters>528.2</AltitudeMeters>
<DistanceMeters>27.6</DistanceMeters>
<Extensions>
<ns3:TPX>
<ns3:Speed>3.164</ns3:Speed>
</ns3:TPX>
</Extensions>
</Trackpoint>
<Trackpoint>
<Time>2026-09-17T22:59:39Z</Time>
<Position>
<LatitudeDegrees>44.4018141</LatitudeDegrees>
<LongitudeDegrees>131.1593959</LongitudeDegrees>
</Position>
<AltitudeMeters>527.8</AltitudeMeters>
<DistanceMeters>34.3</DistanceMeters>
<Extensions>
<ns3:TPX>
<ns3:Speed>3.387</ns3:Speed>
</ns3:TPX>
</Extensions>
</Trackpoint>
<Trackpoint>
<Time>2026-09-17T22:59:40Z</Time>
<Position>
<LatitudeDegrees>44.4018446</LatitudeDegrees>
<LongitudeDegrees>131.1594168</LongitudeDegrees>
</Position>
<AltitudeMeters>527.6</AltitudeMeters>
<DistanceMeters>38.1</DistanceMeters>
<Extensions>
<ns3:TPX>
<ns3:Speed>3.874</ns3:Speed>
</ns3:TPX>
</Extensions>
</Trackpoint>
<Trackpoint>
<Time>2026-09-17T22:59:41Z</Time>
<Position>
<LatitudeDegrees>44.4018784</LatitudeDegrees>
<LongitudeDegrees>131.1594414</LongitudeDegrees>
</Position>
<AltitudeMeters>527.4</AltitudeMeters>
<DistanceMeters>42.3</DistanceMeters>
<Extensions>
<ns3:TPX>
<ns3:Speed>4.473</ns3:Speed>
</ns3:TPX>
</Extensions>
</Trackpoint>
<Trackpoint>
<Time>2026-09-17T22:59:43Z</Time>
<Position>
<LatitudeDegrees>44.4019483</LatitudeDegrees>
<LongitudeDegrees>131.1594907</LongitudeDegrees>
</Position>
<AltitudeMeters>527.0</AltitudeMeters>
<DistanceMeters>51.0</DistanceMeters>
<Extensions>
<ns3:TPX>
<ns3:Speed>4.089</ns3:Speed>
</ns3:TPX>
</Extensions>
</Trackpoint>
<Trackpoint>
<Time>2026-09-17T22:59:48Z</Time>
<Position>
<LatitudeDegrees>44.4021071</LatitudeDegrees>
<LongitudeDegrees>131.1596216</LongitudeDegrees>
</Position>
<AltitudeMeters>526.0</AltitudeMeters>
<DistanceMeters>71.5</DistanceMeters>
<Extensions>
<ns3:TPX>
<ns3:Speed>4.542</ns3:Speed>
</ns3:TPX>
</Extensions>
</Trackpoint>
<Trackpoint>
<Time>2026-09-17T22:59:52Z</Time>
<Position>
<LatitudeDegrees>44.4022385</LatitudeDegrees>
<LongitudeDegrees>131.1597488</LongitudeDegrees>
</Position>
<AltitudeMeters>524.8</AltitudeMeters>
<DistanceMeters>89.2</DistanceMeters>
<Extensions>
<ns3:TPX>
<ns3:Speed>4.679</ns3:Speed>
</ns3:TPX>
</Extensions>
</Trackpoint>
<Trackpoint>
<Time>2026-09-17T22:59:54Z</Time>
<Position>
<LatitudeDegrees>44.4023117</LatitudeDegrees>
<LongitudeDegrees>131.1598127</LongitudeDegrees>
</Position>
<AltitudeMeters>524.2</AltitudeMeters>
<DistanceMeters>98.8</DistanceMeters>
<Extensions>
<ns3:TPX>
<ns3:Speed>5.161</ns3:Speed>
</ns3:TPX>
</Extensions>
</Trackpoint>
<Trackpoint>
<Time>2026-09-17T22:59:57Z</Time>
<Position>
<LatitudeDegrees>44.4023936</LatitudeDegrees>
<LongitudeDegrees>131.1598763</LongitudeDegrees>
</Position>
<AltitudeMeters>523.4</AltitudeMeters>
<DistanceMeters>109.2</DistanceMeters>
<Extensions>
<ns3:TPX>
<ns3:Speed>5.188</ns3:Speed>
</ns3:TPX>
</Extensions>
</Trackpoint>
<Trackpoint>
<Time>2026-09-17T23:00:04Z</Time>
<Position>
<LatitudeDegrees>44.4026580</LatitudeDegrees>
<LongitudeDegrees>131.1601004</LongitudeDegrees>
</Position>
<AltitudeMeters>520.0</AltitudeMeters>
<DistanceMeters>143.5</DistanceMeters>
<Extensions>
<ns3:TPX>
<ns3:Speed>4.115</ns3:Speed>
</ns3:TPX>
</Extensions>
</Trackpoint>
<Trackpoint>
<Time>2026-09-17T23:00:06Z</Time>
<Position>
<LatitudeDegrees>44.4027304</LatitudeDegrees>
<LongitudeDegrees>131.1601123</LongitudeDegrees>
</Position>
<AltitudeMeters>519.2</AltitudeMeters>
<DistanceMeters>151.7</DistanceMeters>
<Extensions>
<ns3:TPX>
<ns3:Speed>4.196</ns3:Speed>
</ns3:TPX>
</Extensions>
</Trackpoint>
<Trackpoint>
<Time>2026-09-17T23:00:08Z</Time>
<Position>
<LatitudeDegrees>44.4027936</LatitudeDegrees>
<LongitudeDegrees>131.1600612</LongitudeDegrees>
</Position>
<AltitudeMeters>518.6</AltitudeMeters>
<DistanceMeters>159.9</DistanceMeters>
<Extensions>
<ns3:TPX>
<ns3:Speed>4.175</ns3:Speed>
</ns3:TPX>
</Extensions>
</Trackpoint>
<Trackpoint>
<Time>2026-09-17T23:00:10Z</Time>
<Position>
<LatitudeDegrees>44.4028260</LatitudeDegrees>
<LongitudeDegrees>131.1599585</LongitudeDegrees>
</Position>
<AltitudeMeters>518.2</AltitudeMeters>
<DistanceMeters>168.9</DistanceMeters>
<Extensions>
<ns3:TPX>
<ns3:Speed>4.29</ns3:Speed>
</ns3:TPX>
</Extensions>
</Trackpoint>
<Trackpoint>
<Time>2026-09-17T23:00:15Z</Time>
<Position>
<LatitudeDegrees>44.4027981</LatitudeDegrees>
<LongitudeDegrees>131.1596563</LongitudeDegrees>
</Position>
<AltitudeMeters>517.4</AltitudeMeters>
<DistanceMeters>193.2</DistanceMeters>
<Extensions>
<ns3:TPX>
<ns3:Speed>4.628</ns3:Speed>
</ns3:TPX>
</Extensions>
</Trackpoint>
<Trackpoint>
<Time>2026-09-17T23:00:21Z</Time>
<Position>
<LatitudeDegrees>44.4027631</LatitudeDegrees>
<LongitudeDegrees>131.1592991</LongitudeDegrees>
</Position>
<AltitudeMeters>516.4</AltitudeMeters>
<DistanceMeters>221.9</DistanceMeters>
<Extensions>
<ns3:TPX>
<ns3:Speed>4.709</ns3:Speed>
</ns3:TPX>
</Extensions>
</Trackpoint>
<Trackpoint>
<Time>2026-09-17T23:00:29Z</Time>
<Position>
<LatitudeDegrees>44.4027837</LatitudeDegrees>
<LongitudeDegrees>131.1588384</LongitudeDegrees>
</Position>
<AltitudeMeters>514.0</AltitudeMeters>
<DistanceMeters>258.5</DistanceMeters>
<Extensions>
<ns3:TPX>
<ns3:Speed>4.41</ns3:Speed>
</ns3:TPX>
</Extensions>
</Trackpoint>
<Trackpoint>
<Time>2026-09-17T23:00:36Z</Time>
<Position>
<LatitudeDegrees>44.4028642</LatitudeDegrees>
<LongitudeDegrees>131.1584406</LongitudeDegrees>
</Position>
<AltitudeMeters>512.0</AltitudeMeters>
<DistanceMeters>291.4</DistanceMeters>
<Extensions>
<ns3:TPX>
<ns3:Speed>4.5</ns3:Speed>
</ns3:TPX>
</Extensions>
</Trackpoint>
<Trackpoint>
<Time>2026-09-17T23:00:43Z</Time>
<Position>
<LatitudeDegrees>44.4029938</LatitudeDegrees>
<LongitudeDegrees>131.1580717</LongitudeDegrees>
</Position>
<AltitudeMeters>510.0</AltitudeMeters>
<DistanceMeters>324.0</DistanceMeters>
<Extensions>
<ns3:TPX>
<ns3:Speed>4.951</ns3:Speed>
</ns3:TPX>
</Extensions>
</Trackpoint>
<Trackpoint>
<Time>2026-09-17T23:00:51Z</Time>
<Position>
<LatitudeDegrees>44.4032164</LatitudeDegrees>
<LongitudeDegrees>131.1576798</LongitudeDegrees>
</Position>
<AltitudeMeters>507.4</AltitudeMeters>
<DistanceMeters>363.8</DistanceMeters>
<Extensions>
<ns3:TPX>
<ns3:Speed>5.073</ns3:Speed>
</ns3:TPX>
</Extensions>
</Trackpoint>
<Trackpoint>
<Time>2026-09-17T23:00:53Z</Time>
<Position>
<LatitudeDegrees>44.4032744</LatitudeDegrees>
<LongitudeDegrees>131.1575808</LongitudeDegrees>
</Position>
<AltitudeMeters>506.8</AltitudeMeters>
<DistanceMeters>373.9</DistanceMeters>
<Extensions>
<ns3:TPX>
<ns3:Speed>5.236</ns3:Speed>
</ns3:TPX>
</Extensions>
</Trackpoint>
<Trackpoint>
<Time>2026-09-17T23:01:01Z</Time>
<Position>
<LatitudeDegrees>44.4034848</LatitudeDegrees>
<LongitudeDegrees>131.1571932</LongitudeDegrees>
</Position>
<AltitudeMeters>504.4</AltitudeMeters>
<DistanceMeters>412.5</DistanceMeters>
<Extensions>
<ns3:TPX>
<ns3:Speed>4.444</ns3:Speed>
</ns3:TPX>
</Extensions>
</Trackpoint>
<Trackpoint>
<Time>2026-09-17T23:01:06Z</Time>
<Position>
<LatitudeDegrees>44.4035645</LatitudeDegrees>
<LongitudeDegrees>131.1569406</LongitudeDegrees>
</Position>
<AltitudeMeters>502.8</AltitudeMeters>
<DistanceMeters>434.5</DistanceMeters>
<Extensions>
<ns3:TPX>
<ns3:Speed>4.707</ns3:Speed>
</ns3:TPX>
</Extensions>
</Trackpoint>
<Trackpoint>
<Time>2026-09-17T23:01:10Z</Time>
<Position>
<LatitudeDegrees>44.4035983</LatitudeDegrees>
<LongitudeDegrees>131.1566332</LongitudeDegrees>
</Position>
<AltitudeMeters>501.6</AltitudeMeters>
<DistanceMeters>459.2</DistanceMeters>
<Extensions>
<ns3:TPX>
<ns3:Speed>5.403</ns3:Speed>
</ns3:TPX>
</Extensions>
</Trackpoint>
<Trackpoint>
<Time>2026-09-17T23:01:14Z</Time>
<Position>
<LatitudeDegrees>44.4035769</LatitudeDegrees>
<LongitudeDegrees>131.1564105</LongitudeDegrees>
</Position>
<AltitudeMeters>500.2</AltitudeMeters>
<DistanceMeters>477.1</DistanceMeters>
<Extensions>
<ns3:TPX>
<ns3:Speed>4.736</ns3:Speed>
</ns3:TPX>
</Extensions>
</Trackpoint>
<Trackpoint>
<Time>2026-09-17T23:01:17Z</Time>
<Position>
<LatitudeDegrees>44.4035361</LatitudeDegrees>
<LongitudeDegrees>131.1562389</LongitudeDegrees>
</Position>
<AltitudeMeters>499.0</AltitudeMeters>
<DistanceMeters>491.5</DistanceMeters>
<Extensions>
<ns3:TPX>
<ns3:Speed>4.027</ns3:Speed>
</ns3:TPX>
</Extensions>
</Trackpoint>
<Trackpoint>
<Time>2026-09-17T23:01:20Z</Time>
<Position>
<LatitudeDegrees>44.4035501</LatitudeDegrees>
<LongitudeDegrees>131.1560867</LongitudeDegrees>
</Position>
<AltitudeMeters>497.6</AltitudeMeters>
<DistanceMeters>503.8</DistanceMeters>
<Extensions>
<ns3:TPX>
<ns3:Speed>3.98</ns3:Speed>
</ns3:TPX>
</Extensions>
</Trackpoint>
<Trackpoint>
<Time>2026-09-17T23:01:23Z</Time>
<Position>
<LatitudeDegrees>44.4036228</LatitudeDegrees>
<LongitudeDegrees>131.1559809</LongitudeDegrees>
</Position>
<AltitudeMeters>496.0</AltitudeMeters>
<DistanceMeters>515.7</DistanceMeters>
<Extensions>
<ns3:TPX>
<ns3:Speed>4.255</ns3:Speed>
</ns3:TPX>
</Extensions>
</Trackpoint>
<Trackpoint>
<Time>2026-09-17T23:01:26Z</Time>
<Position>
<LatitudeDegrees>44.4037455</LatitudeDegrees>
<LongitudeDegrees>131.1559564</LongitudeDegrees>
</Position>
<AltitudeMeters>494.8</AltitudeMeters>
<DistanceMeters>529.6</DistanceMeters>
<Extensions>
<ns3:TPX>
<ns3:Speed>4.995</ns3:Speed>
</ns3:TPX>
</Extensions>
</Trackpoint>
<Trackpoint>
<Time>2026-09-17T23:01:29Z</Time>
<Position>
<LatitudeDegrees>44.4038905</LatitudeDegrees>
<LongitudeDegrees>131.1559895</LongitudeDegrees>
</Position>
<AltitudeMeters>493.8</AltitudeMeters>
<DistanceMeters>545.9</DistanceMeters>
<Extensions>
<ns3:TPX>
<ns3:Speed>5.559</ns3:Speed>
</ns3:TPX>
</Extensions>
</Trackpoint>
<Trackpoint>
<Time>2026-09-17T23:01:31Z</Time>
<Position>
<LatitudeDegrees>44.4039925</LatitudeDegrees>
<LongitudeDegrees>131.1560118</LongitudeDegrees>
</Position>
<AltitudeMeters>493.2</AltitudeMeters>
<DistanceMeters>557.4</DistanceMeters>
<Extensions>
<ns3:TPX>
<ns3:Speed>5.779</ns3:Speed>
</ns3:TPX>
</Extensions>
</Trackpoint>
<Trackpoint>
<Time>2026-09-17T23:01:37Z</Time>
<Position>
<LatitudeDegrees>44.4042999</LatitudeDegrees>
<LongitudeDegrees>131.1560636</LongitudeDegrees>
</Position>
<AltitudeMeters>491.0</AltitudeMeters>
<DistanceMeters>591.8</DistanceMeters>
<Extensions>
<ns3:TPX>
<ns3:Speed>6.101</ns3:Speed>
</ns3:TPX>
</Extensions>
</Trackpoint>
<Trackpoint>
<Time>2026-09-17T23:01:39Z</Time>
<Position>
<LatitudeDegrees>44.4044085</LatitudeDegrees>
<LongitudeDegrees>131.1560736</LongitudeDegrees>
</Position>
<AltitudeMeters>490.4</AltitudeMeters>
<DistanceMeters>603.9</DistanceMeters>
<Extensions>
<ns3:TPX>
<ns3:Speed>6.243</ns3:Speed>
</ns3:TPX>
</Extensions>
</Trackpoint>
<Trackpoint>
<Time>2026-09-17T23:01:40Z</Time>
<Position>
<LatitudeDegrees>44.4044655</LatitudeDegrees>
<LongitudeDegrees>131.1560784</LongitudeDegrees>
</Position>
<AltitudeMeters>490.0</AltitudeMeters>
<DistanceMeters>610.2</DistanceMeters>
<Extensions>
<ns3:TPX>
<ns3:Speed>6.474</ns3:Speed>
</ns3:TPX>
</Extensions>
</Trackpoint>
<Trackpoint>
<Time>2026-09-17T23:01:41Z</Time>
<Position>
<LatitudeDegrees>44.4045245</LatitudeDegrees>
<LongitudeDegrees>131.1560836</LongitudeDegrees>
</Position>
<AltitudeMeters>489.8</AltitudeMeters>
<DistanceMeters>616.8</DistanceMeters>
<Extensions>
<ns3:TPX>
<ns3:Speed>6.67</ns3:Speed>
</ns3:TPX>
</Extensions>
</Trackpoint>
<Trackpoint>
<Time>2026-09-17T23:01:42Z</Time>
<Position>
<LatitudeDegrees>44.4045849</LatitudeDegrees>
<LongitudeDegrees>131.1560901</LongitudeDegrees>
</Position>
<AltitudeMeters>489.6</AltitudeMeters>
<DistanceMeters>623.5</DistanceMeters>
<Extensions>
<ns3:TPX>
<ns3:Speed>6.742</ns3:Speed>
</ns3:TPX>
</Extensions>
</Trackpoint>
<Trackpoint>
<Time>2026-09-17T23:01:50Z</Time>
<Position>
<LatitudeDegrees>44.4050469</LatitudeDegrees>
<LongitudeDegrees>131.1561691</LongitudeDegrees>
</Position>
<AltitudeMeters>488.8</AltitudeMeters>
<DistanceMeters>675.2</DistanceMeters>
<Extensions>
<ns3:TPX>
<ns3:Speed>5.806</ns3:Speed>
</ns3:TPX>
</Extensions>
</Trackpoint>
<Trackpoint>
<Time>2026-09-17T23:01:58Z</Time>
<Position>
<LatitudeDegrees>44.4054404</LatitudeDegrees>
<LongitudeDegrees>131.1562381</LongitudeDegrees>
</Position>
<AltitudeMeters>488.8</AltitudeMeters>
<DistanceMeters>719.3</DistanceMeters>
<Extensions>
<ns3:TPX>
<ns3:Speed>5.09</ns3:Speed>
</ns3:TPX>
</Extensions>
</Trackpoint>
<Trackpoint>
<Time>2026-09-17T23:02:01Z</Time>
<Position>
<LatitudeDegrees>44.4055642</LatitudeDegrees>
<LongitudeDegrees>131.1561765</LongitudeDegrees>
</Position>
<AltitudeMeters>488.8</AltitudeMeters>
<DistanceMeters>734.0</DistanceMeters>
<Extensions>
<ns3:TPX>
<ns3:Speed>4.726</ns3:Speed>
</ns3:TPX>
</Extensions>
</Trackpoint>
<Trackpoint>
<Time>2026-09-17T23:02:04Z</Time>
<Position>
<LatitudeDegrees>44.4056753</LatitudeDegrees>
<LongitudeDegrees>131.1561009</LongitudeDegrees>
</Position>
<AltitudeMeters>488.8</AltitudeMeters>
<DistanceMeters>747.8</DistanceMeters>
<Extensions>
<ns3:TPX>
<ns3:Speed>4.508</ns3:Speed>
</ns3:TPX>
</Extensions>
</Trackpoint>
<Trackpoint>
<Time>2026-09-17T23:02:12Z</Time>
<Position>
<LatitudeDegrees>44.4058963</LatitudeDegrees>
<LongitudeDegrees>131.1561135</LongitudeDegrees>
</Position>
<AltitudeMeters>488.8</AltitudeMeters>
<DistanceMeters>772.5</DistanceMeters>
<Extensions>
<ns3:TPX>
<ns3:Speed>2.515</ns3:Speed>
</ns3:TPX>
</Extensions>
</Trackpoint>
<Trackpoint>
<Time>2026-09-17T23:02:17Z</Time>
<Position>
<LatitudeDegrees>44.4059756</LatitudeDegrees>
<LongitudeDegrees>131.1560021</LongitudeDegrees>
</Position>
<AltitudeMeters>489.0</AltitudeMeters>
<DistanceMeters>785.2</DistanceMeters>
<Extensions>
<ns3:TPX>
<ns3:Speed>2.858</ns3:Speed>
</ns3:TPX>
</Extensions>
</Trackpoint>
<Trackpoint>
<Time>2026-09-17T23:02:23Z</Time>
<Position>
<LatitudeDegrees>44.4059949</LatitudeDegrees>
<LongitudeDegrees>131.1557915</LongitudeDegrees>
</Position>
<AltitudeMeters>489.0</AltitudeMeters>
<DistanceMeters>802.2</DistanceMeters>
<Extensions>
<ns3:TPX>
<ns3:Speed>3.659</ns3:Speed>
</ns3:TPX>
</Extensions>
</Trackpoint>
<Trackpoint>
<Time>2026-09-17T23:02:31Z</Time>
<Position>
<LatitudeDegrees>44.4060339</LatitudeDegrees>
<LongitudeDegrees>131.1553956</LongitudeDegrees>
</Position>
<AltitudeMeters>489.2</AltitudeMeters>
<DistanceMeters>833.9</DistanceMeters>
<Extensions>
<ns3:TPX>
<ns3:Speed>3.976</ns3:Speed>
</ns3:TPX>
</Extensions>
</Trackpoint>
<Trackpoint>
<Time>2026-09-17T23:02:39Z</Time>
<Position>
<LatitudeDegrees>44.4060857</LatitudeDegrees>
<LongitudeDegrees>131.1549953</LongitudeDegrees>
</Position>
<AltitudeMeters>489.2</AltitudeMeters>
<DistanceMeters>866.2</DistanceMeters>
<Extensions>
<ns3:TPX>
<ns3:Speed>3.985</ns3:Speed>
</ns3:TPX>
</Extensions>
</Trackpoint>
<Trackpoint>
<Time>2026-09-17T23:02:47Z</Time>
<Position>
<LatitudeDegrees>44.4061268</LatitudeDegrees>
<LongitudeDegrees>131.1546018</LongitudeDegrees>
</Position>
<AltitudeMeters>489.4</AltitudeMeters>
<DistanceMeters>897.7</DistanceMeters>
<Extensions>
<ns3:TPX>
<ns3:Speed>3.915</ns3:Speed>
</ns3:TPX>
</Extensions>
</Trackpoint>
<Trackpoint>
<Time>2026-09-17T23:02:55Z</Time>
<Position>
<LatitudeDegrees>44.4061737</LatitudeDegrees>
<LongitudeDegrees>131.1542135</LongitudeDegrees>
</Position>
<AltitudeMeters>489.6</AltitudeMeters>
<DistanceMeters>929.0</DistanceMeters>
<Extensions>
<ns3:TPX>
<ns3:Speed>3.922</ns3:Speed>
</ns3:TPX>
</Extensions>
</Trackpoint>
<Trackpoint>
<Time>2026-09-17T23:03:03Z</Time>
<Position>
<LatitudeDegrees>44.4062182</LatitudeDegrees>
<LongitudeDegrees>131.1538136</LongitudeDegrees>
</Position>
<AltitudeMeters>489.6</AltitudeMeters>
<DistanceMeters>961.1</DistanceMeters>
<Extensions>
<ns3:TPX>
<ns3:Speed>4.2</ns3:Speed>
</ns3:TPX>
</Extensions>
</Trackpoint>
<Trackpoint>
<Time>2026-09-17T23:03:11Z</Time>
<Position>
<LatitudeDegrees>44.4062670</LatitudeDegrees>
<LongitudeDegrees>131.1534042</LongitudeDegrees>
</Position>
<AltitudeMeters>489.8</AltitudeMeters>
<DistanceMeters>994.0</DistanceMeters>
<Extensions>
<ns3:TPX>
<ns3:Speed>4.071</ns3:Speed>
</ns3:TPX>
</Extensions>
</Trackpoint>
<Trackpoint>
<Time>2026-09-17T23:03:19Z</Time>
<Position>
<LatitudeDegrees>44.4063124</LatitudeDegrees>
<LongitudeDegrees>131.1530004</LongitudeDegrees>
</Position>
<AltitudeMeters>490.0</AltitudeMeters>
<DistanceMeters>1026.5</DistanceMeters>
<Extensions>
<ns3:TPX>
<ns3:Speed>4.123</ns3:Speed>
</ns3:TPX>
</Extensions>
</Trackpoint>
<Trackpoint>
<Time>2026-09-17T23:03:27Z</Time>
<Position>
<LatitudeDegrees>44.4063619</LatitudeDegrees>
<LongitudeDegrees>131.1525747</LongitudeDegrees>
</Position>
<AltitudeMeters>490.0</AltitudeMeters>
<DistanceMeters>1060.7</DistanceMeters>
<Extensions>
<ns3:TPX>
<ns3:Speed>4.298</ns3:Speed>
</ns3:TPX>
</Extensions>
</Trackpoint>
<Trackpoint>
<Time>2026-09-17T23:03:35Z</Time>
<Position>
<LatitudeDegrees>44.4064205</LatitudeDegrees>
<LongitudeDegrees>131.1520823</LongitudeDegrees>
</Position>
<AltitudeMeters>489.8</AltitudeMeters>
<DistanceMeters>1100.3</DistanceMeters>
<Extensions>
<ns3:TPX>
<ns3:Speed>4.675</ns3:Speed>
</ns3:TPX>
</Extensions>
</Trackpoint>
<Trackpoint>
<Time>2026-09-17T23:03:43Z</Time>
<Position>
<LatitudeDegrees>44.4064734</LatitudeDegrees>
<LongitudeDegrees>131.1516119</LongitudeDegrees>
</Position>
<AltitudeMeters>489.4</AltitudeMeters>
<DistanceMeters>1138.0</DistanceMeters>
<Extensions>
<ns3:TPX>
<ns3:Speed>4.739</ns3:Speed>
</ns3:TPX>
</Extensions>
</Trackpoint>
<Trackpoint>
<Time>2026-09-17T23:03:51Z</Time>
<Position>
<LatitudeDegrees>44.4065219</LatitudeDegrees>
<LongitudeDegrees>131.1511293</LongitudeDegrees>
</Position>
<AltitudeMeters>488.8</AltitudeMeters>
<DistanceMeters>1176.7</DistanceMeters>
<Extensions>
<ns3:TPX>
<ns3:Speed>4.927</ns3:Speed>
</ns3:TPX>
</Extensions>
</Trackpoint>
<Trackpoint>
<Time>2026-09-17T23:03:59Z</Time>
<Position>
<LatitudeDegrees>44.4065764</LatitudeDegrees>
<LongitudeDegrees>131.1506532</LongitudeDegrees>
</Position>
<AltitudeMeters>488.8</AltitudeMeters>
<DistanceMeters>1214.9</DistanceMeters>
<Extensions>
<ns3:TPX>
<ns3:Speed>4.606</ns3:Speed>
</ns3:TPX>
</Extensions>
</Trackpoint>
<Trackpoint>
<Time>2026-09-17T23:04:07Z</Time>
<Position>
<LatitudeDegrees>44.4066289</LatitudeDegrees>
<LongitudeDegrees>131.1502153</LongitudeDegrees>
</Position>
<AltitudeMeters>489.0</AltitudeMeters>
<DistanceMeters>1250.2</DistanceMeters>
<Extensions>
<ns3:TPX>
<ns3:Speed>4.224</ns3:Speed>
</ns3:TPX>
</Extensions>
</Trackpoint>
<Trackpoint>
<Time>2026-09-17T23:04:11Z</Time>
<Position>
<LatitudeDegrees>44.4066635</LatitudeDegrees>
<LongitudeDegrees>131.1500186</LongitudeDegrees>
</Position>
<AltitudeMeters>489.2</AltitudeMeters>
<DistanceMeters>1266.3</DistanceMeters>
<Extensions>
<ns3:TPX>
<ns3:Speed>3.672</ns3:Speed>
</ns3:TPX>
</Extensions>
</Trackpoint>
<Trackpoint>
<Time>2026-09-17T23:04:14Z</Time>
<Position>
<LatitudeDegrees>44.4067395</LatitudeDegrees>
<LongitudeDegrees>131.1499226</LongitudeDegrees>
</Position>
<AltitudeMeters>489.2</AltitudeMeters>
<DistanceMeters>1277.8</DistanceMeters>
<Extensions>
<ns3:TPX>
<ns3:Speed>3.988</ns3:Speed>
</ns3:TPX>
</Extensions>
</Trackpoint>
<Trackpoint>
<Time>2026-09-17T23:04:18Z</Time>
<Position>
<LatitudeDegrees>44.4068599</LatitudeDegrees>
<LongitudeDegrees>131.1497962</LongitudeDegrees>
</Position>
<AltitudeMeters>489.4</AltitudeMeters>
<DistanceMeters>1294.6</DistanceMeters>
<Extensions>
<ns3:TPX>
<ns3:Speed>4.408</ns3:Speed>
</ns3:TPX>
</Extensions>
</Trackpoint>
<Trackpoint>
<Time>2026-09-17T23:04:21Z</Time>
<Position>
<LatitudeDegrees>44.4069121</LatitudeDegrees>
<LongitudeDegrees>131.1496429</LongitudeDegrees>
</Position>
<AltitudeMeters>489.4</AltitudeMeters>
<DistanceMeters>1308.2</DistanceMeters>
<Extensions>
<ns3:TPX>
<ns3:Speed>4.53</ns3:Speed>
</ns3:TPX>
</Extensions>
</Trackpoint>
<Trackpoint>
<Time>2026-09-17T23:04:29Z</Time>
<Position>
<LatitudeDegrees>44.4069535</LatitudeDegrees>
<LongitudeDegrees>131.1491720</LongitudeDegrees>
</Position>
<AltitudeMeters>489.2</AltitudeMeters>
<DistanceMeters>1345.8</DistanceMeters>
<Extensions>
<ns3:TPX>
<ns3:Speed>4.719</ns3:Speed>
</ns3:TPX>
</Extensions>
</Trackpoint>
<Trackpoint>
<Time>2026-09-17T23:04:37Z</Time>
<Position>
<LatitudeDegrees>44.4070083</LatitudeDegrees>
<LongitudeDegrees>131.1487080</LongitudeDegrees>
</Position>
<AltitudeMeters>489.2</AltitudeMeters>
<DistanceMeters>1383.1</DistanceMeters>
<Extensions>
<ns3:TPX>
<ns3:Speed>4.341</ns3:Speed>
</ns3:TPX>
</Extensions>
</Trackpoint>
<Trackpoint>
<Time>2026-09-17T23:04:47Z</Time>
<Position>
<LatitudeDegrees>44.4070642</LatitudeDegrees>
<LongitudeDegrees>131.1482668</LongitudeDegrees>
</Position>
<AltitudeMeters>489.6</AltitudeMeters>
<DistanceMeters>1418.6</DistanceMeters>
<Extensions>
<ns3:TPX>
<ns3:Speed>3.316</ns3:Speed>
</ns3:TPX>
</Extensions>
</Trackpoint>
<Trackpoint>
<Time>2026-09-17T23:04:55Z</Time>
<Position>
<LatitudeDegrees>44.4070926</LatitudeDegrees>
<LongitudeDegrees>131.1479419</LongitudeDegrees>
</Position>
<AltitudeMeters>490.2</AltitudeMeters>
<DistanceMeters>1444.6</DistanceMeters>
<Extensions>
<ns3:TPX>
<ns3:Speed>3.262</ns3:Speed>
</ns3:TPX>
</Extensions>
</Trackpoint>
<Trackpoint>
<Time>2026-09-17T23:05:01Z</Time>
<Position>
<LatitudeDegrees>44.4071156</LatitudeDegrees>
<LongitudeDegrees>131.1477229</LongitudeDegrees>
</Position>
<AltitudeMeters>490.6</AltitudeMeters>
<DistanceMeters>1462.2</DistanceMeters>
<Extensions>
<ns3:TPX>
<ns3:Speed>2.793</ns3:Speed>
</ns3:TPX>
</Extensions>
</Trackpoint>
<Trackpoint>
<Time>2026-09-17T23:05:03Z</Time>
<Position>
<LatitudeDegrees>44.4071247</LatitudeDegrees>
<LongitudeDegrees>131.1476566</LongitudeDegrees>
</Position>
<AltitudeMeters>490.8</AltitudeMeters>
<DistanceMeters>1467.5</DistanceMeters>
<Extensions>
<ns3:TPX>
<ns3:Speed>2.654</ns3:Speed>
</ns3:TPX>
</Extensions>
</Trackpoint>
<Trackpoint>
<Time>2026-09-17T23:05:04Z</Time>
<Position>
<LatitudeDegrees>44.4071291</LatitudeDegrees>
<LongitudeDegrees>131.1476244</LongitudeDegrees>
</Position>
<AltitudeMeters>490.8</AltitudeMeters>
<DistanceMeters>1470.1</DistanceMeters>
<Extensions>
<ns3:TPX>
<ns3:Speed>2.586</ns3:Speed>
</ns3:TPX>
</Extensions>
</Trackpoint>
<Trackpoint>
<Time>2026-09-17T23:05:05Z</Time>
<Position>
<LatitudeDegrees>44.4071332</LatitudeDegrees>
<LongitudeDegrees>131.1475923</LongitudeDegrees>
</Position>
<AltitudeMeters>491.0</AltitudeMeters>
<DistanceMeters>1472.7</DistanceMeters>
<Extensions>
<ns3:TPX>
<ns3:Speed>2.61</ns3:Speed>
</ns3:TPX>
</Extensions>
</Trackpoint>
<Trackpoint>
<Time>2026-09-17T23:05:06Z</Time>
<Position>
<LatitudeDegrees>44.4071365</LatitudeDegrees>
<LongitudeDegrees>131.1475601</LongitudeDegrees>
</Position>
<AltitudeMeters>491.0</AltitudeMeters>
<DistanceMeters>1475.3</DistanceMeters>
<Extensions>
<ns3:TPX>
<ns3:Speed>2.598</ns3:Speed>
</ns3:TPX>
</Extensions>
</Trackpoint>
<Trackpoint>
<Time>2026-09-17T23:05:07Z</Time>
<Position>
<LatitudeDegrees>44.4071392</LatitudeDegrees>
<LongitudeDegrees>131.1475278</LongitudeDegrees>
</Position>
<AltitudeMeters>491.2</AltitudeMeters>
<DistanceMeters>1477.8</DistanceMeters>
<Extensions>
<ns3:TPX>
<ns3:Speed>2.576</ns3:Speed>
</ns3:TPX>
</Extensions>
</Trackpoint>
<Trackpoint>
<Time>2026-09-17T23:05:08Z</Time>
<Position>
<LatitudeDegrees>44.4071415</LatitudeDegrees>
<LongitudeDegrees>131.1474952</LongitudeDegrees>
</Position>
<AltitudeMeters>491.2</AltitudeMeters>
<DistanceMeters>1480.4</DistanceMeters>
<Extensions>
<ns3:TPX>
<ns3:Speed>2.579</ns3:Speed>
</ns3:TPX>
</Extensions>
</Trackpoint>
<Trackpoint>
<Time>2026-09-17T23:05:09Z</Time>
<Position>
<LatitudeDegrees>44.4071446</LatitudeDegrees>
<LongitudeDegrees>131.1474635</LongitudeDegrees>
</Position>
<AltitudeMeters>491.4</AltitudeMeters>
<DistanceMeters>1483.0</DistanceMeters>
<Extensions>
<ns3:TPX>
<ns3:Speed>2.455</ns3:Speed>
</ns3:TPX>
</Extensions>
</Trackpoint>
<Trackpoint>
<Time>2026-09-17T23:05:10Z</Time>
<Position>
<LatitudeDegrees>44.4071478</LatitudeDegrees>
<LongitudeDegrees>131.1474323</LongitudeDegrees>
</Position>
<AltitudeMeters>491.4</AltitudeMeters>
<DistanceMeters>1485.5</DistanceMeters>
<Extensions>
<ns3:TPX>
<ns3:Speed>2.5</ns3:Speed>
</ns3:TPX>
</Extensions>
</Trackpoint>
<Trackpoint>
<Time>2026-09-17T23:05:11Z</Time>
<Position>
<LatitudeDegrees>44.4071500</LatitudeDegrees>
<LongitudeDegrees>131.1474014</LongitudeDegrees>
</Position>
<AltitudeMeters>491.6</AltitudeMeters>
<DistanceMeters>1487.9</DistanceMeters>
<Extensions>
<ns3:TPX>
<ns3:Speed>2.46</ns3:Speed>
</ns3:TPX>
</Extensions>
</Trackpoint>
<Trackpoint>
<Time>2026-09-17T23:05:13Z</Time>
<Position>
<LatitudeDegrees>44.4071550</LatitudeDegrees>
<LongitudeDegrees>131.1473401</LongitudeDegrees>
</Position>
<AltitudeMeters>491.8</AltitudeMeters>
<DistanceMeters>1492.8</DistanceMeters>
<Extensions>
<ns3:TPX>
<ns3:Speed>2.475</ns3:Speed>
</ns3:TPX>
</Extensions>
</Trackpoint>
<Trackpoint>
<Time>2026-09-17T23:05:14Z</Time>
<Position>
<LatitudeDegrees>44.4071584</LatitudeDegrees>
<LongitudeDegrees>131.1473090</LongitudeDegrees>
</Position>
<AltitudeMeters>492.0</AltitudeMeters>
<DistanceMeters>1495.3</DistanceMeters>
<Extensions>
<ns3:TPX>
<ns3:Speed>2.552</ns3:Speed>
</ns3:TPX>
</Extensions>
</Trackpoint>
<Trackpoint>
<Time>2026-09-17T23:05:16Z</Time>
<Position>
<LatitudeDegrees>44.4071667</LatitudeDegrees>
<LongitudeDegrees>131.1472496</LongitudeDegrees>
</Position>
<AltitudeMeters>492.2</AltitudeMeters>
<DistanceMeters>1500.1</DistanceMeters>
<Extensions>
<ns3:TPX>
<ns3:Speed>2.346</ns3:Speed>
</ns3:TPX>
</Extensions>
</Trackpoint>
<Trackpoint>
<Time>2026-09-17T23:05:17Z</Time>
<Position>
<LatitudeDegrees>44.4071704</LatitudeDegrees>
<LongitudeDegrees>131.1472207</LongitudeDegrees>
</Position>
<AltitudeMeters>492.4</AltitudeMeters>
<DistanceMeters>1502.5</DistanceMeters>
<Extensions>
<ns3:TPX>
<ns3:Speed>2.268</ns3:Speed>
</ns3:TPX>
</Extensions>
</Trackpoint>
<Trackpoint>
<Time>2026-09-17T23:05:18Z</Time>
<Position>
<LatitudeDegrees>44.4071738</LatitudeDegrees>
<LongitudeDegrees>131.1471919</LongitudeDegrees>
</Position>
<AltitudeMeters>492.4</AltitudeMeters>
<DistanceMeters>1504.8</DistanceMeters>
<Extensions>
<ns3:TPX>
<ns3:Speed>2.318</ns3:Speed>
</ns3:TPX>
</Extensions>
</Trackpoint>
<Trackpoint>
<Time>2026-09-17T23:05:19Z</Time>
<Position>
<LatitudeDegrees>44.4071766</LatitudeDegrees>
<LongitudeDegrees>131.1471633</LongitudeDegrees>
</Position>
<AltitudeMeters>492.6</AltitudeMeters>
<DistanceMeters>1507.1</DistanceMeters>
<Extensions>
<ns3:TPX>
<ns3:Speed>2.297</ns3:Speed>
</ns3:TPX>
</Extensions>
</Trackpoint>
<Trackpoint>
<Time>2026-09-17T23:05:20Z</Time>
<Position>
<LatitudeDegrees>44.4071792</LatitudeDegrees>
<LongitudeDegrees>131.1471342</LongitudeDegrees>
</Position>
<AltitudeMeters>492.8</AltitudeMeters>
<DistanceMeters>1509.4</DistanceMeters>
<Extensions>
<ns3:TPX>
<ns3:Speed>2.373</ns3:Speed>
</ns3:TPX>
</Extensions>
</Trackpoint>
<Trackpoint>
<Time>2026-09-17T23:05:21Z</Time>
<Position>
<LatitudeDegrees>44.4071814</LatitudeDegrees>
<LongitudeDegrees>131.1471050</LongitudeDegrees>
</Position>
<AltitudeMeters>492.8</AltitudeMeters>
<DistanceMeters>1511.7</DistanceMeters>
<Extensions>
<ns3:TPX>
<ns3:Speed>2.331</ns3:Speed>
</ns3:TPX>
</Extensions>
</Trackpoint>
<Trackpoint>
<Time>2026-09-17T23:05:23Z</Time>
<Position>
<LatitudeDegrees>44.4071872</LatitudeDegrees>
<LongitudeDegrees>131.1470463</LongitudeDegrees>
</Position>
<AltitudeMeters>493.0</AltitudeMeters>
<DistanceMeters>1516.4</DistanceMeters>
<Extensions>
<ns3:TPX>
<ns3:Speed>2.14</ns3:Speed>
</ns3:TPX>
</Extensions>
</Trackpoint>
<Trackpoint>
<Time>2026-09-17T23:05:24Z</Time>
<Position>
<LatitudeDegrees>44.4071907</LatitudeDegrees>
<LongitudeDegrees>131.1470184</LongitudeDegrees>
</Position>
<AltitudeMeters>493.2</AltitudeMeters>
<DistanceMeters>1518.7</DistanceMeters>
<Extensions>
<ns3:TPX>
<ns3:Speed>2.113</ns3:Speed>
</ns3:TPX>
</Extensions>
</Trackpoint>
<Trackpoint>
<Time>2026-09-17T23:05:25Z</Time>
<Position>
<LatitudeDegrees>44.4071936</LatitudeDegrees>
<LongitudeDegrees>131.1469905</LongitudeDegrees>
</Position>
<AltitudeMeters>493.4</AltitudeMeters>
<DistanceMeters>1520.9</DistanceMeters>
<Extensions>
<ns3:TPX>
<ns3:Speed>2.29</ns3:Speed>
</ns3:TPX>
</Extensions>
</Trackpoint>
<Trackpoint>
<Time>2026-09-17T23:05:26Z</Time>
<Position>
<LatitudeDegrees>44.4071963</LatitudeDegrees>
<LongitudeDegrees>131.1469618</LongitudeDegrees>
</Position>
<AltitudeMeters>493.6</AltitudeMeters>
<DistanceMeters>1523.2</DistanceMeters>
<Extensions>
<ns3:TPX>
<ns3:Speed>2.358</ns3:Speed>
</ns3:TPX>
</Extensions>
</Trackpoint>
<Trackpoint>
<Time>2026-09-17T23:05:27Z</Time>
<Position>
<LatitudeDegrees>44.4071996</LatitudeDegrees>
<LongitudeDegrees>131.1469334</LongitudeDegrees>
</Position>
<AltitudeMeters>493.8</AltitudeMeters>
<DistanceMeters>1525.5</DistanceMeters>
<Extensions>
<ns3:TPX>
<ns3:Speed>2.174</ns3:Speed>
</ns3:TPX>
</Extensions>
</Trackpoint>
<Trackpoint>
<Time>2026-09-17T23:05:29Z</Time>
<Position>
<LatitudeDegrees>44.4072065</LatitudeDegrees>
<LongitudeDegrees>131.1468771</LongitudeDegrees>
</Position>
<AltitudeMeters>494.0</AltitudeMeters>
<DistanceMeters>1530.0</DistanceMeters>
<Extensions>
<ns3:TPX>
<ns3:Speed>2.164</ns3:Speed>
</ns3:TPX>
</Extensions>
</Trackpoint>
<Trackpoint>
<Time>2026-09-17T23:05:32Z</Time>
<Position>
<LatitudeDegrees>44.4072142</LatitudeDegrees>
<LongitudeDegrees>131.1467890</LongitudeDegrees>
</Position>
<AltitudeMeters>494.4</AltitudeMeters>
<DistanceMeters>1537.1</DistanceMeters>
<Extensions>
<ns3:TPX>
<ns3:Speed>2.076</ns3:Speed>
</ns3:TPX>
</Extensions>
</Trackpoint>
<Trackpoint>
<Time>2026-09-17T23:05:40Z</Time>
<Position>
<LatitudeDegrees>44.4072343</LatitudeDegrees>
<LongitudeDegrees>131.1465519</LongitudeDegrees>
</Position>
<AltitudeMeters>495.6</AltitudeMeters>
<DistanceMeters>1556.0</DistanceMeters>
<Extensions>
<ns3:TPX>
<ns3:Speed>2.048</ns3:Speed>
</ns3:TPX>
</Extensions>
</Trackpoint>
<Trackpoint>
<Time>2026-09-17T23:05:48Z</Time>
<Position>
<LatitudeDegrees>44.4072528</LatitudeDegrees>
<LongitudeDegrees>131.1463494</LongitudeDegrees>
</Position>
<AltitudeMeters>496.6</AltitudeMeters>
<DistanceMeters>1572.2</DistanceMeters>
<Extensions>
<ns3:TPX>
<ns3:Speed>1.98</ns3:Speed>
</ns3:TPX>
</Extensions>
</Trackpoint>
<Trackpoint>
<Time>2026-09-17T23:05:56Z</Time>
<Position>
<LatitudeDegrees>44.4072744</LatitudeDegrees>
<LongitudeDegrees>131.1461494</LongitudeDegrees>
</Position>
<AltitudeMeters>497.4</AltitudeMeters>
<DistanceMeters>1588.2</DistanceMeters>
<Extensions>
<ns3:TPX>
<ns3:Speed>1.961</ns3:Speed>
</ns3:TPX>
</Extensions>
</Trackpoint>
<Trackpoint>
<Time>2026-09-17T23:06:04Z</Time>
<Position>
<LatitudeDegrees>44.4072972</LatitudeDegrees>
<LongitudeDegrees>131.1459498</LongitudeDegrees>
</Position>
<AltitudeMeters>498.4</AltitudeMeters>
<DistanceMeters>1604.3</DistanceMeters>
<Extensions>
<ns3:TPX>
<ns3:Speed>2.021</ns3:Speed>
</ns3:TPX>
</Extensions>
</Trackpoint>
<Trackpoint>
<Time>2026-09-17T23:06:13Z</Time>
<Position>
<LatitudeDegrees>44.4073160</LatitudeDegrees>
<LongitudeDegrees>131.1457362</LongitudeDegrees>
</Position>
<AltitudeMeters>499.6</AltitudeMeters>
<DistanceMeters>1621.3</DistanceMeters>
<Extensions>
<ns3:TPX>
<ns3:Speed>1.961</ns3:Speed>
</ns3:TPX>
</Extensions>
</Trackpoint>
<Trackpoint>
<Time>2026-09-17T23:06:14Z</Time>
<Position>
<LatitudeDegrees>44.4073175</LatitudeDegrees>
<LongitudeDegrees>131.1457125</LongitudeDegrees>
</Position>
<AltitudeMeters>499.6</AltitudeMeters>
<DistanceMeters>1623.2</DistanceMeters>
<Extensions>
<ns3:TPX>
<ns3:Speed>1.958</ns3:Speed>
</ns3:TPX>
</Extensions>
</Trackpoint>
<Trackpoint>
<Time>2026-09-17T23:06:22Z</Time>
<Position>
<LatitudeDegrees>44.4073344</LatitudeDegrees>
<LongitudeDegrees>131.1455073</LongitudeDegrees>
</Position>
<AltitudeMeters>500.8</AltitudeMeters>
<DistanceMeters>1639.6</DistanceMeters>
<Extensions>
<ns3:TPX>
<ns3:Speed>2.03</ns3:Speed>
</ns3:TPX>
</Extensions>
</Trackpoint>
<Trackpoint>
<Time>2026-09-17T23:06:30Z</Time>
<Position>
<LatitudeDegrees>44.4073600</LatitudeDegrees>
<LongitudeDegrees>131.1453066</LongitudeDegrees>
</Position>
<AltitudeMeters>501.6</AltitudeMeters>
<DistanceMeters>1655.8</DistanceMeters>
<Extensions>
<ns3:TPX>
<ns3:Speed>1.889</ns3:Speed>
</ns3:TPX>
</Extensions>
</Trackpoint>
<Trackpoint>
<Time>2026-09-17T23:06:38Z</Time>
<Position>
<LatitudeDegrees>44.4073830</LatitudeDegrees>
<LongitudeDegrees>131.1451128</LongitudeDegrees>
</Position>
<AltitudeMeters>502.6</AltitudeMeters>
<DistanceMeters>1671.4</DistanceMeters>
<Extensions>
<ns3:TPX>
<ns3:Speed>2.032</ns3:Speed>
</ns3:TPX>
</Extensions>
</Trackpoint>
<Trackpoint>
<Time>2026-09-17T23:06:47Z</Time>
<Position>
<LatitudeDegrees>44.4074007</LatitudeDegrees>
<LongitudeDegrees>131.1449154</LongitudeDegrees>
</Position>
<AltitudeMeters>503.6</AltitudeMeters>
<DistanceMeters>1687.2</DistanceMeters>
<Extensions>
<ns3:TPX>
<ns3:Speed>1.928</ns3:Speed>
</ns3:TPX>
</Extensions>
</Trackpoint>
<Trackpoint>
<Time>2026-09-17T23:06:55Z</Time>
<Position>
<LatitudeDegrees>44.4074183</LatitudeDegrees>
<LongitudeDegrees>131.1447192</LongitudeDegrees>
</Position>
<AltitudeMeters>504.6</AltitudeMeters>
<DistanceMeters>1702.8</DistanceMeters>
<Extensions>
<ns3:TPX>
<ns3:Speed>2.004</ns3:Speed>
</ns3:TPX>
</Extensions>
</Trackpoint>
<Trackpoint>
<Time>2026-09-17T23:07:03Z</Time>
<Position>
<LatitudeDegrees>44.4074412</LatitudeDegrees>
<LongitudeDegrees>131.1445205</LongitudeDegrees>
</Position>
<AltitudeMeters>505.4</AltitudeMeters>
<DistanceMeters>1718.8</DistanceMeters>
<Extensions>
<ns3:TPX>
<ns3:Speed>1.964</ns3:Speed>
</ns3:TPX>
</Extensions>
</Trackpoint>
<Trackpoint>
<Time>2026-09-17T23:07:11Z</Time>
<Position>
<LatitudeDegrees>44.4074579</LatitudeDegrees>
<LongitudeDegrees>131.1443160</LongitudeDegrees>
</Position>
<AltitudeMeters>506.4</AltitudeMeters>
<DistanceMeters>1735.1</DistanceMeters>
<Extensions>
<ns3:TPX>
<ns3:Speed>2.049</ns3:Speed>
</ns3:TPX>
</Extensions>
</Trackpoint>
<Trackpoint>
<Time>2026-09-17T23:07:19Z</Time>
<Position>
<LatitudeDegrees>44.4074896</LatitudeDegrees>
<LongitudeDegrees>131.1441291</LongitudeDegrees>
</Position>
<AltitudeMeters>507.0</AltitudeMeters>
<DistanceMeters>1750.4</DistanceMeters>
<Extensions>
<ns3:TPX>
<ns3:Speed>1.425</ns3:Speed>
</ns3:TPX>
</Extensions>
</Trackpoint>
<Trackpoint>
<Time>2026-09-17T23:07:26Z</Time>
<Position>
<LatitudeDegrees>44.4075137</LatitudeDegrees>
<LongitudeDegrees>131.1440494</LongitudeDegrees>
</Position>
<AltitudeMeters>507.4</AltitudeMeters>
<DistanceMeters>1756.9</DistanceMeters>
<Extensions>
<ns3:TPX>
<ns3:Speed>1.961</ns3:Speed>
</ns3:TPX>
</Extensions>
</Trackpoint>
<Trackpoint>
<Time>2026-09-17T23:07:34Z</Time>
<Position>
<LatitudeDegrees>44.4075187</LatitudeDegrees>
<LongitudeDegrees>131.1438132</LongitudeDegrees>
</Position>
<AltitudeMeters>508.0</AltitudeMeters>
<DistanceMeters>1775.6</DistanceMeters>
<Extensions>
<ns3:TPX>
<ns3:Speed>2.432</ns3:Speed>
</ns3:TPX>
</Extensions>
</Trackpoint>
<Trackpoint>
<Time>2026-09-17T23:07:42Z</Time>
<Position>
<LatitudeDegrees>44.4075294</LatitudeDegrees>
<LongitudeDegrees>131.1435625</LongitudeDegrees>
</Position>
<AltitudeMeters>508.4</AltitudeMeters>
<DistanceMeters>1795.6</DistanceMeters>
<Extensions>
<ns3:TPX>
<ns3:Speed>2.591</ns3:Speed>
</ns3:TPX>
</Extensions>
</Trackpoint>
<Trackpoint>
<Time>2026-09-17T23:07:50Z</Time>
<Position>
<LatitudeDegrees>44.4075625</LatitudeDegrees>
<LongitudeDegrees>131.1433014</LongitudeDegrees>
</Position>
<AltitudeMeters>508.8</AltitudeMeters>
<DistanceMeters>1816.6</DistanceMeters>
<Extensions>
<ns3:TPX>
<ns3:Speed>2.524</ns3:Speed>
</ns3:TPX>
</Extensions>
</Trackpoint>
<Trackpoint>
<Time>2026-09-17T23:07:58Z</Time>
<Position>
<LatitudeDegrees>44.4075887</LatitudeDegrees>
<LongitudeDegrees>131.1430261</LongitudeDegrees>
</Position>
<AltitudeMeters>509.0</AltitudeMeters>
<DistanceMeters>1838.7</DistanceMeters>
<Extensions>
<ns3:TPX>
<ns3:Speed>2.925</ns3:Speed>
</ns3:TPX>
</Extensions>
</Trackpoint>
<Trackpoint>
<Time>2026-09-17T23:08:06Z</Time>
<Position>
<LatitudeDegrees>44.4076219</LatitudeDegrees>
<LongitudeDegrees>131.1426909</LongitudeDegrees>
</Position>
<AltitudeMeters>509.4</AltitudeMeters>
<DistanceMeters>1865.5</DistanceMeters>
<Extensions>
<ns3:TPX>
<ns3:Speed>2.948</ns3:Speed>
</ns3:TPX>
</Extensions>
</Trackpoint>
<Trackpoint>
<Time>2026-09-17T23:08:14Z</Time>
<Position>
<LatitudeDegrees>44.4076512</LatitudeDegrees>
<LongitudeDegrees>131.1423979</LongitudeDegrees>
</Position>
<AltitudeMeters>509.8</AltitudeMeters>
<DistanceMeters>1889.0</DistanceMeters>
<Extensions>
<ns3:TPX>
<ns3:Speed>2.866</ns3:Speed>
</ns3:TPX>
</Extensions>
</Trackpoint>
<Trackpoint>
<Time>2026-09-17T23:08:22Z</Time>
<Position>
<LatitudeDegrees>44.4076701</LatitudeDegrees>
<LongitudeDegrees>131.1420984</LongitudeDegrees>
</Position>
<AltitudeMeters>510.2</AltitudeMeters>
<DistanceMeters>1912.8</DistanceMeters>
<Extensions>
<ns3:TPX>
<ns3:Speed>2.977</ns3:Speed>
</ns3:TPX>
</Extensions>
</Trackpoint>
<Trackpoint>
<Time>2026-09-17T23:08:30Z</Time>
<Position>
<LatitudeDegrees>44.4076967</LatitudeDegrees>
<LongitudeDegrees>131.1418039</LongitudeDegrees>
</Position>
<AltitudeMeters>510.4</AltitudeMeters>
<DistanceMeters>1936.4</DistanceMeters>
<Extensions>
<ns3:TPX>
<ns3:Speed>2.714</ns3:Speed>
</ns3:TPX>
</Extensions>
</Trackpoint>
<Trackpoint>
<Time>2026-09-17T23:08:38Z</Time>
<Position>
<LatitudeDegrees>44.4077388</LatitudeDegrees>
<LongitudeDegrees>131.1415145</LongitudeDegrees>
</Position>
<AltitudeMeters>510.6</AltitudeMeters>
<DistanceMeters>1959.9</DistanceMeters>
<Extensions>
<ns3:TPX>
<ns3:Speed>3.011</ns3:Speed>
</ns3:TPX>
</Extensions>
</Trackpoint>
<Trackpoint>
<Time>2026-09-17T23:08:46Z</Time>
<Position>
<LatitudeDegrees>44.4077624</LatitudeDegrees>
<LongitudeDegrees>131.1412033</LongitudeDegrees>
</Position>
<AltitudeMeters>511.0</AltitudeMeters>
<DistanceMeters>1984.7</DistanceMeters>
<Extensions>
<ns3:TPX>
<ns3:Speed>3.094</ns3:Speed>
</ns3:TPX>
</Extensions>
</Trackpoint>
<Trackpoint>
<Time>2026-09-17T23:08:54Z</Time>
<Position>
<LatitudeDegrees>44.4077820</LatitudeDegrees>
<LongitudeDegrees>131.1408903</LongitudeDegrees>
</Position>
<AltitudeMeters>511.2</AltitudeMeters>
<DistanceMeters>2009.7</DistanceMeters>
<Extensions>
<ns3:TPX>
<ns3:Speed>2.936</ns3:Speed>
</ns3:TPX>
</Extensions>
</Trackpoint>
<Trackpoint>
<Time>2026-09-17T23:09:02Z</Time>
<Position>
<LatitudeDegrees>44.4078033</LatitudeDegrees>
<LongitudeDegrees>131.1405959</LongitudeDegrees>
</Position>
<AltitudeMeters>511.6</AltitudeMeters>
<DistanceMeters>2033.2</DistanceMeters>
<Extensions>
<ns3:TPX>
<ns3:Speed>3.118</ns3:Speed>
</ns3:TPX>
</Extensions>
</Trackpoint>
<Trackpoint>
<Time>2026-09-17T23:09:11Z</Time>
<Position>
<LatitudeDegrees>44.4078213</LatitudeDegrees>
<LongitudeDegrees>131.1402899</LongitudeDegrees>
</Position>
<AltitudeMeters>512.0</AltitudeMeters>
<DistanceMeters>2057.5</DistanceMeters>
<Extensions>
<ns3:TPX>
<ns3:Speed>3.041</ns3:Speed>
</ns3:TPX>
</Extensions>
</Trackpoint>
<Trackpoint>
<Time>2026-09-17T23:09:19Z</Time>
<Position>
<LatitudeDegrees>44.4078407</LatitudeDegrees>
<LongitudeDegrees>131.1399899</LongitudeDegrees>
</Position>
<AltitudeMeters>512.4</AltitudeMeters>
<DistanceMeters>2081.4</DistanceMeters>
<Extensions>
<ns3:TPX>
<ns3:Speed>2.969</ns3:Speed>
</ns3:TPX>
</Extensions>
</Trackpoint>
<Trackpoint>
<Time>2026-09-17T23:09:27Z</Time>
<Position>
<LatitudeDegrees>44.4078514</LatitudeDegrees>
<LongitudeDegrees>131.1396886</LongitudeDegrees>
</Position>
<AltitudeMeters>512.6</AltitudeMeters>
<DistanceMeters>2105.4</DistanceMeters>
<Extensions>
<ns3:TPX>
<ns3:Speed>3.012</ns3:Speed>
</ns3:TPX>
</Extensions>
</Trackpoint>
<Trackpoint>
<Time>2026-09-17T23:09:35Z</Time>
<Position>
<LatitudeDegrees>44.4078649</LatitudeDegrees>
<LongitudeDegrees>131.1393787</LongitudeDegrees>
</Position>
<AltitudeMeters>513.0</AltitudeMeters>
<DistanceMeters>2130.0</DistanceMeters>
<Extensions>
<ns3:TPX>
<ns3:Speed>3.176</ns3:Speed>
</ns3:TPX>
</Extensions>
</Trackpoint>
<Trackpoint>
<Time>2026-09-17T23:09:43Z</Time>
<Position>
<LatitudeDegrees>44.4078735</LatitudeDegrees>
<LongitudeDegrees>131.1390730</LongitudeDegrees>
</Position>
<AltitudeMeters>513.4</AltitudeMeters>
<DistanceMeters>2154.3</DistanceMeters>
<Extensions>
<ns3:TPX>
<ns3:Speed>2.931</ns3:Speed>
</ns3:TPX>
</Extensions>
</Trackpoint>
<Trackpoint>
<Time>2026-09-17T23:09:50Z</Time>
<Position>
<LatitudeDegrees>44.4078916</LatitudeDegrees>
<LongitudeDegrees>131.1388514</LongitudeDegrees>
</Position>
<AltitudeMeters>513.6</AltitudeMeters>
<DistanceMeters>2172.1</DistanceMeters>
<Extensions>
<ns3:TPX>
<ns3:Speed>2.042</ns3:Speed>
</ns3:TPX>
</Extensions>
</Trackpoint>
<Trackpoint>
<Time>2026-09-17T23:09:56Z</Time>
<Position>
<LatitudeDegrees>44.4078974</LatitudeDegrees>
<LongitudeDegrees>131.1386351</LongitudeDegrees>
</Position>
<AltitudeMeters>514.0</AltitudeMeters>
<DistanceMeters>2189.4</DistanceMeters>
<Extensions>
<ns3:TPX>
<ns3:Speed>3.186</ns3:Speed>
</ns3:TPX>
</Extensions>
</Trackpoint>
<Trackpoint>
<Time>2026-09-17T23:10:04Z</Time>
<Position>
<LatitudeDegrees>44.4078886</LatitudeDegrees>
<LongitudeDegrees>131.1383059</LongitudeDegrees>
</Position>
<AltitudeMeters>514.2</AltitudeMeters>
<DistanceMeters>2215.5</DistanceMeters>
<Extensions>
<ns3:TPX>
<ns3:Speed>3.308</ns3:Speed>
</ns3:TPX>
</Extensions>
</Trackpoint>
<Trackpoint>
<Time>2026-09-17T23:10:12Z</Time>
<Position>
<LatitudeDegrees>44.4078951</LatitudeDegrees>
<LongitudeDegrees>131.1379725</LongitudeDegrees>
</Position>
<AltitudeMeters>514.4</AltitudeMeters>
<DistanceMeters>2242.0</DistanceMeters>
<Extensions>
<ns3:TPX>
<ns3:Speed>3.422</ns3:Speed>
</ns3:TPX>
</Extensions>
</Trackpoint>
<Trackpoint>
<Time>2026-09-17T23:10:20Z</Time>
<Position>
<LatitudeDegrees>44.4078850</LatitudeDegrees>
<LongitudeDegrees>131.1376009</LongitudeDegrees>
</Position>
<AltitudeMeters>514.4</AltitudeMeters>
<DistanceMeters>2271.5</DistanceMeters>
<Extensions>
<ns3:TPX>
<ns3:Speed>4.018</ns3:Speed>
</ns3:TPX>
</Extensions>
</Trackpoint>
<Trackpoint>
<Time>2026-09-17T23:10:28Z</Time>
<Position>
<LatitudeDegrees>44.4078649</LatitudeDegrees>
<LongitudeDegrees>131.1371181</LongitudeDegrees>
</Position>
<AltitudeMeters>514.2</AltitudeMeters>
<DistanceMeters>2309.8</DistanceMeters>
<Extensions>
<ns3:TPX>
<ns3:Speed>4.179</ns3:Speed>
</ns3:TPX>
</Extensions>
</Trackpoint>
<Trackpoint>
<Time>2026-09-17T23:10:36Z</Time>
<Position>
<LatitudeDegrees>44.4078605</LatitudeDegrees>
<LongitudeDegrees>131.1367020</LongitudeDegrees>
</Position>
<AltitudeMeters>514.0</AltitudeMeters>
<DistanceMeters>2342.9</DistanceMeters>
<Extensions>
<ns3:TPX>
<ns3:Speed>4.371</ns3:Speed>
</ns3:TPX>
</Extensions>
</Trackpoint>
<Trackpoint>
<Time>2026-09-17T23:10:44Z</Time>
<Position>
<LatitudeDegrees>44.4078518</LatitudeDegrees>
<LongitudeDegrees>131.1362320</LongitudeDegrees>
</Position>
<AltitudeMeters>513.4</AltitudeMeters>
<DistanceMeters>2380.1</DistanceMeters>
<Extensions>
<ns3:TPX>
<ns3:Speed>5.08</ns3:Speed>
</ns3:TPX>
</Extensions>
</Trackpoint>
<Trackpoint>
<Time>2026-09-17T23:10:52Z</Time>
<Position>
<LatitudeDegrees>44.4078246</LatitudeDegrees>
<LongitudeDegrees>131.1356592</LongitudeDegrees>
</Position>
<AltitudeMeters>512.2</AltitudeMeters>
<DistanceMeters>2425.7</DistanceMeters>
<Extensions>
<ns3:TPX>
<ns3:Speed>5.985</ns3:Speed>
</ns3:TPX>
</Extensions>
</Trackpoint>
<Trackpoint>
<Time>2026-09-17T23:11:00Z</Time>
<Position>
<LatitudeDegrees>44.4077849</LatitudeDegrees>
<LongitudeDegrees>131.1350474</LongitudeDegrees>
</Position>
<AltitudeMeters>510.2</AltitudeMeters>
<DistanceMeters>2474.4</DistanceMeters>
<Extensions>
<ns3:TPX>
<ns3:Speed>6.028</ns3:Speed>
</ns3:TPX>
</Extensions>
</Trackpoint>
<Trackpoint>
<Time>2026-09-17T23:11:08Z</Time>
<Position>
<LatitudeDegrees>44.4077459</LatitudeDegrees>
<LongitudeDegrees>131.1344402</LongitudeDegrees>
</Position>
<AltitudeMeters>508.0</AltitudeMeters>
<DistanceMeters>2522.7</DistanceMeters>
<Extensions>
<ns3:TPX>
<ns3:Speed>6.584</ns3:Speed>
</ns3:TPX>
</Extensions>
</Trackpoint>
<Trackpoint>
<Time>2026-09-17T23:11:16Z</Time>
<Position>
<LatitudeDegrees>44.4076801</LatitudeDegrees>
<LongitudeDegrees>131.1337950</LongitudeDegrees>
</Position>
<AltitudeMeters>505.6</AltitudeMeters>
<DistanceMeters>2574.4</DistanceMeters>
<Extensions>
<ns3:TPX>
<ns3:Speed>6.781</ns3:Speed>
</ns3:TPX>
</Extensions>
</Trackpoint>
<Trackpoint>
<Time>2026-09-17T23:11:25Z</Time>
<Position>
<LatitudeDegrees>44.4076023</LatitudeDegrees>
<LongitudeDegrees>131.1330613</LongitudeDegrees>
</Position>
<AltitudeMeters>502.6</AltitudeMeters>
<DistanceMeters>2633.3</DistanceMeters>
<Extensions>
<ns3:TPX>
<ns3:Speed>7.077</ns3:Speed>
</ns3:TPX>
</Extensions>
</Trackpoint>
<Trackpoint>
<Time>2026-09-17T23:11:26Z</Time>
<Position>
<LatitudeDegrees>44.4075936</LatitudeDegrees>
<LongitudeDegrees>131.1329728</LongitudeDegrees>
</Position>
<AltitudeMeters>502.2</AltitudeMeters>
<DistanceMeters>2640.3</DistanceMeters>
<Extensions>
<ns3:TPX>
<ns3:Speed>7.358</ns3:Speed>
</ns3:TPX>
</Extensions>
</Trackpoint>
<Trackpoint>
<Time>2026-09-17T23:11:27Z</Time>
<Position>
<LatitudeDegrees>44.4075845</LatitudeDegrees>
<LongitudeDegrees>131.1328809</LongitudeDegrees>
</Position>
<AltitudeMeters>502.0</AltitudeMeters>
<DistanceMeters>2647.7</DistanceMeters>
<Extensions>
<ns3:TPX>
<ns3:Speed>7.478</ns3:Speed>
</ns3:TPX>
</Extensions>
</Trackpoint>
<Trackpoint>
<Time>2026-09-17T23:11:36Z</Time>
<Position>
<LatitudeDegrees>44.4074904</LatitudeDegrees>
<LongitudeDegrees>131.1321842</LongitudeDegrees>
</Position>
<AltitudeMeters>498.8</AltitudeMeters>
<DistanceMeters>2703.9</DistanceMeters>
<Extensions>
<ns3:TPX>
<ns3:Speed>6.844</ns3:Speed>
</ns3:TPX>
</Extensions>
</Trackpoint>
<Trackpoint>
<Time>2026-09-17T23:11:44Z</Time>
<Position>
<LatitudeDegrees>44.4073846</LatitudeDegrees>
<LongitudeDegrees>131.1314907</LongitudeDegrees>
</Position>
<AltitudeMeters>496.0</AltitudeMeters>
<DistanceMeters>2760.2</DistanceMeters>
<Extensions>
<ns3:TPX>
<ns3:Speed>6.353</ns3:Speed>
</ns3:TPX>
</Extensions>
</Trackpoint>
<Trackpoint>
<Time>2026-09-17T23:11:50Z</Time>
<Position>
<LatitudeDegrees>44.4073018</LatitudeDegrees>
<LongitudeDegrees>131.1310052</LongitudeDegrees>
</Position>
<AltitudeMeters>493.8</AltitudeMeters>
<DistanceMeters>2799.8</DistanceMeters>
<Extensions>
<ns3:TPX>
<ns3:Speed>6.559</ns3:Speed>
</ns3:TPX>
</Extensions>
</Trackpoint>
<Trackpoint>
<Time>2026-09-17T23:11:53Z</Time>
<Position>
<LatitudeDegrees>44.4072078</LatitudeDegrees>
<LongitudeDegrees>131.1307869</LongitudeDegrees>
</Position>
<AltitudeMeters>493.0</AltitudeMeters>
<DistanceMeters>2820.1</DistanceMeters>
<Extensions>
<ns3:TPX>
<ns3:Speed>7.041</ns3:Speed>
</ns3:TPX>
</Extensions>
</Trackpoint>
<Trackpoint>
<Time>2026-09-17T23:11:59Z</Time>
<Position>
<LatitudeDegrees>44.4069845</LatitudeDegrees>
<LongitudeDegrees>131.1304825</LongitudeDegrees>
</Position>
<AltitudeMeters>491.6</AltitudeMeters>
<DistanceMeters>2854.8</DistanceMeters>
<Extensions>
<ns3:TPX>
<ns3:Speed>5.277</ns3:Speed>
</ns3:TPX>
</Extensions>
</Trackpoint>
<Trackpoint>
<Time>2026-09-17T23:12:07Z</Time>
<Position>
<LatitudeDegrees>44.4066308</LatitudeDegrees>
<LongitudeDegrees>131.1303234</LongitudeDegrees>
</Position>
<AltitudeMeters>491.0</AltitudeMeters>
<DistanceMeters>2896.1</DistanceMeters>
<Extensions>
<ns3:TPX>
<ns3:Speed>4.8</ns3:Speed>
</ns3:TPX>
</Extensions>
</Trackpoint>
<Trackpoint>
<Time>2026-09-17T23:12:11Z</Time>
<Position>
<LatitudeDegrees>44.4064656</LatitudeDegrees>
<LongitudeDegrees>131.1303177</LongitudeDegrees>
</Position>
<AltitudeMeters>490.8</AltitudeMeters>
<DistanceMeters>2914.5</DistanceMeters>
<Extensions>
<ns3:TPX>
<ns3:Speed>4.479</ns3:Speed>
</ns3:TPX>
</Extensions>
</Trackpoint>
<Trackpoint>
<Time>2026-09-17T23:12:19Z</Time>
<Position>
<LatitudeDegrees>44.4061331</LatitudeDegrees>
<LongitudeDegrees>131.1303372</LongitudeDegrees>
</Position>
<AltitudeMeters>490.2</AltitudeMeters>
<DistanceMeters>2951.5</DistanceMeters>
<Extensions>
<ns3:TPX>
<ns3:Speed>4.782</ns3:Speed>
</ns3:TPX>
</Extensions>
</Trackpoint>
<Trackpoint>
<Time>2026-09-17T23:12:27Z</Time>
<Position>
<LatitudeDegrees>44.4057733</LatitudeDegrees>
<LongitudeDegrees>131.1303301</LongitudeDegrees>
</Position>
<AltitudeMeters>489.2</AltitudeMeters>
<DistanceMeters>2991.5</DistanceMeters>
<Extensions>
<ns3:TPX>
<ns3:Speed>5.195</ns3:Speed>
</ns3:TPX>
</Extensions>
</Trackpoint>
<Trackpoint>
<Time>2026-09-17T23:12:35Z</Time>
<Position>
<LatitudeDegrees>44.4053856</LatitudeDegrees>
<LongitudeDegrees>131.1303330</LongitudeDegrees>
</Position>
<AltitudeMeters>488.4</AltitudeMeters>
<DistanceMeters>3034.5</DistanceMeters>
<Extensions>
<ns3:TPX>
<ns3:Speed>5.566</ns3:Speed>
</ns3:TPX>
</Extensions>
</Trackpoint>
<Trackpoint>
<Time>2026-09-17T23:12:43Z</Time>
<Position>
<LatitudeDegrees>44.4049827</LatitudeDegrees>
<LongitudeDegrees>131.1303363</LongitudeDegrees>
</Position>
<AltitudeMeters>487.4</AltitudeMeters>
<DistanceMeters>3079.2</DistanceMeters>
<Extensions>
<ns3:TPX>
<ns3:Speed>5.487</ns3:Speed>
</ns3:TPX>
</Extensions>
</Trackpoint>
<Trackpoint>
<Time>2026-09-17T23:12:51Z</Time>
<Position>
<LatitudeDegrees>44.4046274</LatitudeDegrees>
<LongitudeDegrees>131.1302612</LongitudeDegrees>
</Position>
<AltitudeMeters>487.2</AltitudeMeters>
<DistanceMeters>3119.2</DistanceMeters>
<Extensions>
<ns3:TPX>
<ns3:Speed>1.596</ns3:Speed>
</ns3:TPX>
</Extensions>
</Trackpoint>
<Trackpoint>
<Time>2026-09-17T23:12:59Z</Time>
<Position>
<LatitudeDegrees>44.4046025</LatitudeDegrees>
<LongitudeDegrees>131.1301588</LongitudeDegrees>
</Position>
<AltitudeMeters>487.4</AltitudeMeters>
<DistanceMeters>3126.2</DistanceMeters>
<Extensions>
<ns3:TPX>
<ns3:Speed>0.0</ns3:Speed>
</ns3:TPX>
</Extensions>
</Trackpoint>
<Trackpoint>
<Time>2026-09-17T23:13:06Z</Time>
<Position>
<LatitudeDegrees>44.4045658</LatitudeDegrees>
<LongitudeDegrees>131.1302432</LongitudeDegrees>
</Position>
<AltitudeMeters>487.4</AltitudeMeters>
<DistanceMeters>3126.2</DistanceMeters>
<Extensions>
<ns3:TPX>
<ns3:Speed>0.0</ns3:Speed>
</ns3:TPX>
</Extensions>
</Trackpoint>
<Trackpoint>
<Time>2026-09-17T23:13:44Z</Time>
<Position>
<LatitudeDegrees>44.4047427</LatitudeDegrees>
<LongitudeDegrees>131.1300959</LongitudeDegrees>
</Position>
<AltitudeMeters>487.4</AltitudeMeters>
<DistanceMeters>3149.2</DistanceMeters>
<Extensions>
<ns3:TPX>
<ns3:Speed>1.475</ns3:Speed>
</ns3:TPX>
</Extensions>
</Trackpoint>
<Trackpoint>
<Time>2026-09-17T23:13:50Z</Time>
<Position>
<LatitudeDegrees>44.4047831</LatitudeDegrees>
<LongitudeDegrees>131.1301174</LongitudeDegrees>
</Position>
<AltitudeMeters>487.4</AltitudeMeters>
<DistanceMeters>3152.5</DistanceMeters>
<Extensions>
<ns3:TPX>
<ns3:Speed>0.0</ns3:Speed>
</ns3:TPX>
</Extensions>
</Trackpoint>
</Track>
</Lap>
</Activity>
</Activities>
</TrainingCenterDatabase>