<?xml version="1.0" encoding="UTF-8"?>
<TrainingCenterDatabase xmlns="http://www.garmin.com/xmlschemas/TrainingCenterDatabase/v2" xmlns:ns3="http://www.garmin.com/xmlschemas/ActivityExtension/v2" xmlns:xsi="http://www.w3.org/2001/XMLSchema-instance" xsi:schemaLocation="http://www.garmin.com/xmlschemas/TrainingCenterDatabase/v2 http://www.garmin.com/xmlschemas/TrainingCenterDatabasev2.xsd">
<Activities>
<Activity Sport="Biking">
<Id>2026-05-28T14:34:36Z</Id>
<Lap StartTime="2026-05-28T14:34:36Z">
<TotalTimeSeconds>1040.0</TotalTimeSeconds>
<DistanceMeters>1302.17</DistanceMeters>
<MaximumSpeed>2.792</MaximumSpeed>
<Calories>102</Calories>
<Intensity>Active</Intensity>
<TriggerMethod>Manual</TriggerMethod>
<Track>
<Trackpoint>
<Time>2026-05-28T14:34:36Z</Time>
<Position>
<LatitudeDegrees>57.2930213</LatitudeDegrees>
<LongitudeDegrees>47.8653213</LongitudeDegrees>
</Position>
<DistanceMeters>0.0</DistanceMeters>
<Extensions>
<ns3:TPX>
<ns3:Speed>0.0</ns3:Speed>
</ns3:TPX>
</Extensions>
</Trackpoint>
<Trackpoint>
<Time>2026-05-28T14:34:43Z</Time>
<Position>
<LatitudeDegrees>57.2929742</LatitudeDegrees>
<LongitudeDegrees>47.8653209</LongitudeDegrees>
</Position>
<DistanceMeters>5.2</DistanceMeters>
<Extensions>
<ns3:TPX>
<ns3:Speed>0.879</ns3:Speed>
</ns3:TPX>
</Extensions>
</Trackpoint>
<Trackpoint>
<Time>2026-05-28T14:34:46Z</Time>
<Position>
<LatitudeDegrees>57.2929501</LatitudeDegrees>
<LongitudeDegrees>47.8653044</LongitudeDegrees>
</Position>
<DistanceMeters>6.3</DistanceMeters>
<Extensions>
<ns3:TPX>
<ns3:Speed>2.095</ns3:Speed>
</ns3:TPX>
</Extensions>
</Trackpoint>
<Trackpoint>
<Time>2026-05-28T14:34:49Z</Time>
<Position>
<LatitudeDegrees>57.2929114</LatitudeDegrees>
<LongitudeDegrees>47.8652928</LongitudeDegrees>
</Position>
<DistanceMeters>10.7</DistanceMeters>
<Extensions>
<ns3:TPX>
<ns3:Speed>2.792</ns3:Speed>
</ns3:TPX>
</Extensions>
</Trackpoint>
<Trackpoint>
<Time>2026-05-28T14:34:50Z</Time>
<Position>
<LatitudeDegrees>57.2928946</LatitudeDegrees>
<LongitudeDegrees>47.8652906</LongitudeDegrees>
</Position>
<DistanceMeters>12.6</DistanceMeters>
<Extensions>
<ns3:TPX>
<ns3:Speed>1.274</ns3:Speed>
</ns3:TPX>
</Extensions>
</Trackpoint>
<Trackpoint>
<Time>2026-05-28T14:34:56Z</Time>
<Position>
<LatitudeDegrees>57.2928242</LatitudeDegrees>
<LongitudeDegrees>47.8652761</LongitudeDegrees>
</Position>
<DistanceMeters>18.1</DistanceMeters>
<Extensions>
<ns3:TPX>
<ns3:Speed>0.0</ns3:Speed>
</ns3:TPX>
</Extensions>
</Trackpoint>
<Trackpoint>
<Time>2026-05-28T14:35:07Z</Time>
<Position>
<LatitudeDegrees>57.2927099</LatitudeDegrees>
<LongitudeDegrees>47.8652557</LongitudeDegrees>
</Position>
<DistanceMeters>29.5</DistanceMeters>
<Extensions>
<ns3:TPX>
<ns3:Speed>0.0</ns3:Speed>
</ns3:TPX>
</Extensions>
</Trackpoint>
<Trackpoint>
<Time>2026-05-28T14:35:19Z</Time>
<Position>
<LatitudeDegrees>57.2925906</LatitudeDegrees>
<LongitudeDegrees>47.8653154</LongitudeDegrees>
</Position>
<DistanceMeters>41.4</DistanceMeters>
<Extensions>
<ns3:TPX>
<ns3:Speed>0.0</ns3:Speed>
</ns3:TPX>
</Extensions>
</Trackpoint>
<Trackpoint>
<Time>2026-05-28T14:35:28Z</Time>
<Position>
<LatitudeDegrees>57.2925248</LatitudeDegrees>
<LongitudeDegrees>47.8653034</LongitudeDegrees>
</Position>
<AltitudeMeters>102.8</AltitudeMeters>
<DistanceMeters>48.7</DistanceMeters>
<Extensions>
<ns3:TPX>
<ns3:Speed>1.208</ns3:Speed>
</ns3:TPX>
</Extensions>
</Trackpoint>
<Trackpoint>
<Time>2026-05-28T14:35:33Z</Time>
<Position>
<LatitudeDegrees>57.2924660</LatitudeDegrees>
<LongitudeDegrees>47.8652578</LongitudeDegrees>
</Position>
<AltitudeMeters>102.8</AltitudeMeters>
<DistanceMeters>55.8</DistanceMeters>
<Extensions>
<ns3:TPX>
<ns3:Speed>1.129</ns3:Speed>
</ns3:TPX>
</Extensions>
</Trackpoint>
<Trackpoint>
<Time>2026-05-28T14:35:37Z</Time>
<Position>
<LatitudeDegrees>57.2924200</LatitudeDegrees>
<LongitudeDegrees>47.8652215</LongitudeDegrees>
</Position>
<AltitudeMeters>103.0</AltitudeMeters>
<DistanceMeters>61.4</DistanceMeters>
<Extensions>
<ns3:TPX>
<ns3:Speed>1.296</ns3:Speed>
</ns3:TPX>
</Extensions>
</Trackpoint>
<Trackpoint>
<Time>2026-05-28T14:35:45Z</Time>
<Position>
<LatitudeDegrees>57.2923391</LatitudeDegrees>
<LongitudeDegrees>47.8651138</LongitudeDegrees>
</Position>
<AltitudeMeters>102.8</AltitudeMeters>
<DistanceMeters>72.5</DistanceMeters>
<Extensions>
<ns3:TPX>
<ns3:Speed>1.312</ns3:Speed>
</ns3:TPX>
</Extensions>
</Trackpoint>
<Trackpoint>
<Time>2026-05-28T14:35:53Z</Time>
<Position>
<LatitudeDegrees>57.2922570</LatitudeDegrees>
<LongitudeDegrees>47.8650393</LongitudeDegrees>
</Position>
<AltitudeMeters>103.0</AltitudeMeters>
<DistanceMeters>82.7</DistanceMeters>
<Extensions>
<ns3:TPX>
<ns3:Speed>1.35</ns3:Speed>
</ns3:TPX>
</Extensions>
</Trackpoint>
<Trackpoint>
<Time>2026-05-28T14:36:01Z</Time>
<Position>
<LatitudeDegrees>57.2921858</LatitudeDegrees>
<LongitudeDegrees>47.8649777</LongitudeDegrees>
</Position>
<AltitudeMeters>103.6</AltitudeMeters>
<DistanceMeters>90.5</DistanceMeters>
<Extensions>
<ns3:TPX>
<ns3:Speed>1.265</ns3:Speed>
</ns3:TPX>
</Extensions>
</Trackpoint>
<Trackpoint>
<Time>2026-05-28T14:36:02Z</Time>
<Position>
<LatitudeDegrees>57.2921764</LatitudeDegrees>
<LongitudeDegrees>47.8649740</LongitudeDegrees>
</Position>
<AltitudeMeters>103.6</AltitudeMeters>
<DistanceMeters>91.6</DistanceMeters>
<Extensions>
<ns3:TPX>
<ns3:Speed>1.148</ns3:Speed>
</ns3:TPX>
</Extensions>
</Trackpoint>
<Trackpoint>
<Time>2026-05-28T14:36:03Z</Time>
<Position>
<LatitudeDegrees>57.2921663</LatitudeDegrees>
<LongitudeDegrees>47.8649702</LongitudeDegrees>
</Position>
<AltitudeMeters>103.8</AltitudeMeters>
<DistanceMeters>92.7</DistanceMeters>
<Extensions>
<ns3:TPX>
<ns3:Speed>1.185</ns3:Speed>
</ns3:TPX>
</Extensions>
</Trackpoint>
<Trackpoint>
<Time>2026-05-28T14:36:04Z</Time>
<Position>
<LatitudeDegrees>57.2921558</LatitudeDegrees>
<LongitudeDegrees>47.8649654</LongitudeDegrees>
</Position>
<AltitudeMeters>103.8</AltitudeMeters>
<DistanceMeters>93.9</DistanceMeters>
<Extensions>
<ns3:TPX>
<ns3:Speed>1.233</ns3:Speed>
</ns3:TPX>
</Extensions>
</Trackpoint>
<Trackpoint>
<Time>2026-05-28T14:36:06Z</Time>
<Position>
<LatitudeDegrees>57.2921327</LatitudeDegrees>
<LongitudeDegrees>47.8649543</LongitudeDegrees>
</Position>
<AltitudeMeters>103.8</AltitudeMeters>
<DistanceMeters>96.6</DistanceMeters>
<Extensions>
<ns3:TPX>
<ns3:Speed>1.324</ns3:Speed>
</ns3:TPX>
</Extensions>
</Trackpoint>
<Trackpoint>
<Time>2026-05-28T14:36:08Z</Time>
<Position>
<LatitudeDegrees>57.2921094</LatitudeDegrees>
<LongitudeDegrees>47.8649421</LongitudeDegrees>
</Position>
<AltitudeMeters>103.8</AltitudeMeters>
<DistanceMeters>99.3</DistanceMeters>
<Extensions>
<ns3:TPX>
<ns3:Speed>1.146</ns3:Speed>
</ns3:TPX>
</Extensions>
</Trackpoint>
<Trackpoint>
<Time>2026-05-28T14:36:11Z</Time>
<Position>
<LatitudeDegrees>57.2920756</LatitudeDegrees>
<LongitudeDegrees>47.8649284</LongitudeDegrees>
</Position>
<AltitudeMeters>104.0</AltitudeMeters>
<DistanceMeters>103.1</DistanceMeters>
<Extensions>
<ns3:TPX>
<ns3:Speed>1.237</ns3:Speed>
</ns3:TPX>
</Extensions>
</Trackpoint>
<Trackpoint>
<Time>2026-05-28T14:36:19Z</Time>
<Position>
<LatitudeDegrees>57.2919884</LatitudeDegrees>
<LongitudeDegrees>47.8649367</LongitudeDegrees>
</Position>
<AltitudeMeters>104.0</AltitudeMeters>
<DistanceMeters>112.9</DistanceMeters>
<Extensions>
<ns3:TPX>
<ns3:Speed>1.485</ns3:Speed>
</ns3:TPX>
</Extensions>
</Trackpoint>
<Trackpoint>
<Time>2026-05-28T14:36:27Z</Time>
<Position>
<LatitudeDegrees>57.2918936</LatitudeDegrees>
<LongitudeDegrees>47.8649828</LongitudeDegrees>
</Position>
<AltitudeMeters>104.0</AltitudeMeters>
<DistanceMeters>123.8</DistanceMeters>
<Extensions>
<ns3:TPX>
<ns3:Speed>1.274</ns3:Speed>
</ns3:TPX>
</Extensions>
</Trackpoint>
<Trackpoint>
<Time>2026-05-28T14:36:33Z</Time>
<Position>
<LatitudeDegrees>57.2918502</LatitudeDegrees>
<LongitudeDegrees>47.8650281</LongitudeDegrees>
</Position>
<AltitudeMeters>104.0</AltitudeMeters>
<DistanceMeters>127.5</DistanceMeters>
<Extensions>
<ns3:TPX>
<ns3:Speed>0.0</ns3:Speed>
</ns3:TPX>
</Extensions>
</Trackpoint>
<Trackpoint>
<Time>2026-05-28T14:42:07Z</Time>
<Position>
<LatitudeDegrees>57.2915530</LatitudeDegrees>
<LongitudeDegrees>47.8651391</LongitudeDegrees>
</Position>
<AltitudeMeters>104.0</AltitudeMeters>
<DistanceMeters>161.2</DistanceMeters>
<Extensions>
<ns3:TPX>
<ns3:Speed>1.014</ns3:Speed>
</ns3:TPX>
</Extensions>
</Trackpoint>
<Trackpoint>
<Time>2026-05-28T14:42:15Z</Time>
<Position>
<LatitudeDegrees>57.2914865</LatitudeDegrees>
<LongitudeDegrees>47.8651675</LongitudeDegrees>
</Position>
<AltitudeMeters>104.0</AltitudeMeters>
<DistanceMeters>168.8</DistanceMeters>
<Extensions>
<ns3:TPX>
<ns3:Speed>1.44</ns3:Speed>
</ns3:TPX>
</Extensions>
</Trackpoint>
<Trackpoint>
<Time>2026-05-28T14:42:23Z</Time>
<Position>
<LatitudeDegrees>57.2914066</LatitudeDegrees>
<LongitudeDegrees>47.8652128</LongitudeDegrees>
</Position>
<AltitudeMeters>104.0</AltitudeMeters>
<DistanceMeters>178.1</DistanceMeters>
<Extensions>
<ns3:TPX>
<ns3:Speed>1.158</ns3:Speed>
</ns3:TPX>
</Extensions>
</Trackpoint>
<Trackpoint>
<Time>2026-05-28T14:42:31Z</Time>
<Position>
<LatitudeDegrees>57.2913360</LatitudeDegrees>
<LongitudeDegrees>47.8652593</LongitudeDegrees>
</Position>
<AltitudeMeters>104.0</AltitudeMeters>
<DistanceMeters>186.4</DistanceMeters>
<Extensions>
<ns3:TPX>
<ns3:Speed>1.067</ns3:Speed>
</ns3:TPX>
</Extensions>
</Trackpoint>
<Trackpoint>
<Time>2026-05-28T14:42:39Z</Time>
<Position>
<LatitudeDegrees>57.2912569</LatitudeDegrees>
<LongitudeDegrees>47.8653261</LongitudeDegrees>
</Position>
<AltitudeMeters>104.0</AltitudeMeters>
<DistanceMeters>196.1</DistanceMeters>
<Extensions>
<ns3:TPX>
<ns3:Speed>1.293</ns3:Speed>
</ns3:TPX>
</Extensions>
</Trackpoint>
<Trackpoint>
<Time>2026-05-28T14:42:47Z</Time>
<Position>
<LatitudeDegrees>57.2911944</LatitudeDegrees>
<LongitudeDegrees>47.8654072</LongitudeDegrees>
</Position>
<AltitudeMeters>104.2</AltitudeMeters>
<DistanceMeters>204.6</DistanceMeters>
<Extensions>
<ns3:TPX>
<ns3:Speed>0.905</ns3:Speed>
</ns3:TPX>
</Extensions>
</Trackpoint>
<Trackpoint>
<Time>2026-05-28T14:42:55Z</Time>
<Position>
<LatitudeDegrees>57.2911281</LatitudeDegrees>
<LongitudeDegrees>47.8654905</LongitudeDegrees>
</Position>
<AltitudeMeters>104.2</AltitudeMeters>
<DistanceMeters>213.5</DistanceMeters>
<Extensions>
<ns3:TPX>
<ns3:Speed>1.216</ns3:Speed>
</ns3:TPX>
</Extensions>
</Trackpoint>
<Trackpoint>
<Time>2026-05-28T14:43:03Z</Time>
<Position>
<LatitudeDegrees>57.2910561</LatitudeDegrees>
<LongitudeDegrees>47.8655848</LongitudeDegrees>
</Position>
<AltitudeMeters>104.0</AltitudeMeters>
<DistanceMeters>223.3</DistanceMeters>
<Extensions>
<ns3:TPX>
<ns3:Speed>1.133</ns3:Speed>
</ns3:TPX>
</Extensions>
</Trackpoint>
<Trackpoint>
<Time>2026-05-28T14:43:11Z</Time>
<Position>
<LatitudeDegrees>57.2909951</LatitudeDegrees>
<LongitudeDegrees>47.8656493</LongitudeDegrees>
</Position>
<AltitudeMeters>103.8</AltitudeMeters>
<DistanceMeters>229.3</DistanceMeters>
<Extensions>
<ns3:TPX>
<ns3:Speed>0.0</ns3:Speed>
</ns3:TPX>
</Extensions>
</Trackpoint>
<Trackpoint>
<Time>2026-05-28T14:43:19Z</Time>
<Position>
<LatitudeDegrees>57.2909226</LatitudeDegrees>
<LongitudeDegrees>47.8657321</LongitudeDegrees>
</Position>
<AltitudeMeters>103.8</AltitudeMeters>
<DistanceMeters>237.9</DistanceMeters>
<Extensions>
<ns3:TPX>
<ns3:Speed>1.462</ns3:Speed>
</ns3:TPX>
</Extensions>
</Trackpoint>
<Trackpoint>
<Time>2026-05-28T14:43:27Z</Time>
<Position>
<LatitudeDegrees>57.2908525</LatitudeDegrees>
<LongitudeDegrees>47.8657913</LongitudeDegrees>
</Position>
<AltitudeMeters>103.8</AltitudeMeters>
<DistanceMeters>246.5</DistanceMeters>
<Extensions>
<ns3:TPX>
<ns3:Speed>0.849</ns3:Speed>
</ns3:TPX>
</Extensions>
</Trackpoint>
<Trackpoint>
<Time>2026-05-28T14:43:35Z</Time>
<Position>
<LatitudeDegrees>57.2907927</LatitudeDegrees>
<LongitudeDegrees>47.8658583</LongitudeDegrees>
</Position>
<AltitudeMeters>104.0</AltitudeMeters>
<DistanceMeters>254.3</DistanceMeters>
<Extensions>
<ns3:TPX>
<ns3:Speed>1.102</ns3:Speed>
</ns3:TPX>
</Extensions>
</Trackpoint>
<Trackpoint>
<Time>2026-05-28T14:43:43Z</Time>
<Position>
<LatitudeDegrees>57.2907276</LatitudeDegrees>
<LongitudeDegrees>47.8659344</LongitudeDegrees>
</Position>
<AltitudeMeters>104.0</AltitudeMeters>
<DistanceMeters>262.9</DistanceMeters>
<Extensions>
<ns3:TPX>
<ns3:Speed>1.236</ns3:Speed>
</ns3:TPX>
</Extensions>
</Trackpoint>
<Trackpoint>
<Time>2026-05-28T14:43:51Z</Time>
<Position>
<LatitudeDegrees>57.2906519</LatitudeDegrees>
<LongitudeDegrees>47.8659866</LongitudeDegrees>
</Position>
<AltitudeMeters>104.0</AltitudeMeters>
<DistanceMeters>271.8</DistanceMeters>
<Extensions>
<ns3:TPX>
<ns3:Speed>1.283</ns3:Speed>
</ns3:TPX>
</Extensions>
</Trackpoint>
<Trackpoint>
<Time>2026-05-28T14:43:59Z</Time>
<Position>
<LatitudeDegrees>57.2905745</LatitudeDegrees>
<LongitudeDegrees>47.8660492</LongitudeDegrees>
</Position>
<AltitudeMeters>104.0</AltitudeMeters>
<DistanceMeters>281.2</DistanceMeters>
<Extensions>
<ns3:TPX>
<ns3:Speed>1.266</ns3:Speed>
</ns3:TPX>
</Extensions>
</Trackpoint>
<Trackpoint>
<Time>2026-05-28T14:44:08Z</Time>
<Position>
<LatitudeDegrees>57.2904977</LatitudeDegrees>
<LongitudeDegrees>47.8661323</LongitudeDegrees>
</Position>
<AltitudeMeters>104.0</AltitudeMeters>
<DistanceMeters>291.1</DistanceMeters>
<Extensions>
<ns3:TPX>
<ns3:Speed>1.12</ns3:Speed>
</ns3:TPX>
</Extensions>
</Trackpoint>
<Trackpoint>
<Time>2026-05-28T14:44:16Z</Time>
<Position>
<LatitudeDegrees>57.2904326</LatitudeDegrees>
<LongitudeDegrees>47.8661727</LongitudeDegrees>
</Position>
<AltitudeMeters>104.0</AltitudeMeters>
<DistanceMeters>297.9</DistanceMeters>
<Extensions>
<ns3:TPX>
<ns3:Speed>1.019</ns3:Speed>
</ns3:TPX>
</Extensions>
</Trackpoint>
<Trackpoint>
<Time>2026-05-28T14:44:24Z</Time>
<Position>
<LatitudeDegrees>57.2903503</LatitudeDegrees>
<LongitudeDegrees>47.8662285</LongitudeDegrees>
</Position>
<AltitudeMeters>104.0</AltitudeMeters>
<DistanceMeters>307.6</DistanceMeters>
<Extensions>
<ns3:TPX>
<ns3:Speed>1.207</ns3:Speed>
</ns3:TPX>
</Extensions>
</Trackpoint>
<Trackpoint>
<Time>2026-05-28T14:44:30Z</Time>
<Position>
<LatitudeDegrees>57.2902875</LatitudeDegrees>
<LongitudeDegrees>47.8662608</LongitudeDegrees>
</Position>
<AltitudeMeters>104.0</AltitudeMeters>
<DistanceMeters>314.9</DistanceMeters>
<Extensions>
<ns3:TPX>
<ns3:Speed>1.267</ns3:Speed>
</ns3:TPX>
</Extensions>
</Trackpoint>
<Trackpoint>
<Time>2026-05-28T14:44:38Z</Time>
<Position>
<LatitudeDegrees>57.2902123</LatitudeDegrees>
<LongitudeDegrees>47.8662773</LongitudeDegrees>
</Position>
<AltitudeMeters>104.0</AltitudeMeters>
<DistanceMeters>321.8</DistanceMeters>
<Extensions>
<ns3:TPX>
<ns3:Speed>0.0</ns3:Speed>
</ns3:TPX>
</Extensions>
</Trackpoint>
<Trackpoint>
<Time>2026-05-28T14:44:46Z</Time>
<Position>
<LatitudeDegrees>57.2901325</LatitudeDegrees>
<LongitudeDegrees>47.8663048</LongitudeDegrees>
</Position>
<AltitudeMeters>103.8</AltitudeMeters>
<DistanceMeters>330.8</DistanceMeters>
<Extensions>
<ns3:TPX>
<ns3:Speed>1.33</ns3:Speed>
</ns3:TPX>
</Extensions>
</Trackpoint>
<Trackpoint>
<Time>2026-05-28T14:44:51Z</Time>
<Position>
<LatitudeDegrees>57.2900776</LatitudeDegrees>
<LongitudeDegrees>47.8663356</LongitudeDegrees>
</Position>
<AltitudeMeters>103.8</AltitudeMeters>
<DistanceMeters>337.2</DistanceMeters>
<Extensions>
<ns3:TPX>
<ns3:Speed>1.263</ns3:Speed>
</ns3:TPX>
</Extensions>
</Trackpoint>
<Trackpoint>
<Time>2026-05-28T14:44:59Z</Time>
<Position>
<LatitudeDegrees>57.2900038</LatitudeDegrees>
<LongitudeDegrees>47.8663885</LongitudeDegrees>
</Position>
<AltitudeMeters>104.0</AltitudeMeters>
<DistanceMeters>346.0</DistanceMeters>
<Extensions>
<ns3:TPX>
<ns3:Speed>1.197</ns3:Speed>
</ns3:TPX>
</Extensions>
</Trackpoint>
<Trackpoint>
<Time>2026-05-28T14:45:07Z</Time>
<Position>
<LatitudeDegrees>57.2899199</LatitudeDegrees>
<LongitudeDegrees>47.8664781</LongitudeDegrees>
</Position>
<AltitudeMeters>104.0</AltitudeMeters>
<DistanceMeters>356.8</DistanceMeters>
<Extensions>
<ns3:TPX>
<ns3:Speed>1.225</ns3:Speed>
</ns3:TPX>
</Extensions>
</Trackpoint>
<Trackpoint>
<Time>2026-05-28T14:45:15Z</Time>
<Position>
<LatitudeDegrees>57.2898563</LatitudeDegrees>
<LongitudeDegrees>47.8665427</LongitudeDegrees>
</Position>
<AltitudeMeters>104.2</AltitudeMeters>
<DistanceMeters>364.8</DistanceMeters>
<Extensions>
<ns3:TPX>
<ns3:Speed>1.151</ns3:Speed>
</ns3:TPX>
</Extensions>
</Trackpoint>
<Trackpoint>
<Time>2026-05-28T14:45:23Z</Time>
<Position>
<LatitudeDegrees>57.2897846</LatitudeDegrees>
<LongitudeDegrees>47.8666096</LongitudeDegrees>
</Position>
<AltitudeMeters>104.2</AltitudeMeters>
<DistanceMeters>373.8</DistanceMeters>
<Extensions>
<ns3:TPX>
<ns3:Speed>1.272</ns3:Speed>
</ns3:TPX>
</Extensions>
</Trackpoint>
<Trackpoint>
<Time>2026-05-28T14:45:31Z</Time>
<Position>
<LatitudeDegrees>57.2897177</LatitudeDegrees>
<LongitudeDegrees>47.8666649</LongitudeDegrees>
</Position>
<AltitudeMeters>104.2</AltitudeMeters>
<DistanceMeters>381.1</DistanceMeters>
<Extensions>
<ns3:TPX>
<ns3:Speed>1.049</ns3:Speed>
</ns3:TPX>
</Extensions>
</Trackpoint>
<Trackpoint>
<Time>2026-05-28T14:45:39Z</Time>
<Position>
<LatitudeDegrees>57.2896516</LatitudeDegrees>
<LongitudeDegrees>47.8667607</LongitudeDegrees>
</Position>
<AltitudeMeters>104.2</AltitudeMeters>
<DistanceMeters>389.6</DistanceMeters>
<Extensions>
<ns3:TPX>
<ns3:Speed>1.424</ns3:Speed>
</ns3:TPX>
</Extensions>
</Trackpoint>
<Trackpoint>
<Time>2026-05-28T14:45:47Z</Time>
<Position>
<LatitudeDegrees>57.2895831</LatitudeDegrees>
<LongitudeDegrees>47.8668457</LongitudeDegrees>
</Position>
<AltitudeMeters>104.2</AltitudeMeters>
<DistanceMeters>397.8</DistanceMeters>
<Extensions>
<ns3:TPX>
<ns3:Speed>0.0</ns3:Speed>
</ns3:TPX>
</Extensions>
</Trackpoint>
<Trackpoint>
<Time>2026-05-28T14:45:55Z</Time>
<Position>
<LatitudeDegrees>57.2895244</LatitudeDegrees>
<LongitudeDegrees>47.8668762</LongitudeDegrees>
</Position>
<AltitudeMeters>104.2</AltitudeMeters>
<DistanceMeters>401.8</DistanceMeters>
<Extensions>
<ns3:TPX>
<ns3:Speed>0.0</ns3:Speed>
</ns3:TPX>
</Extensions>
</Trackpoint>
<Trackpoint>
<Time>2026-05-28T14:46:30Z</Time>
<Position>
<LatitudeDegrees>57.2895132</LatitudeDegrees>
<LongitudeDegrees>47.8670890</LongitudeDegrees>
</Position>
<AltitudeMeters>104.2</AltitudeMeters>
<DistanceMeters>414.8</DistanceMeters>
<Extensions>
<ns3:TPX>
<ns3:Speed>1.38</ns3:Speed>
</ns3:TPX>
</Extensions>
</Trackpoint>
<Trackpoint>
<Time>2026-05-28T14:46:38Z</Time>
<Position>
<LatitudeDegrees>57.2894841</LatitudeDegrees>
<LongitudeDegrees>47.8672391</LongitudeDegrees>
</Position>
<AltitudeMeters>104.2</AltitudeMeters>
<DistanceMeters>424.4</DistanceMeters>
<Extensions>
<ns3:TPX>
<ns3:Speed>1.281</ns3:Speed>
</ns3:TPX>
</Extensions>
</Trackpoint>
<Trackpoint>
<Time>2026-05-28T14:46:46Z</Time>
<Position>
<LatitudeDegrees>57.2894529</LatitudeDegrees>
<LongitudeDegrees>47.8674011</LongitudeDegrees>
</Position>
<AltitudeMeters>104.4</AltitudeMeters>
<DistanceMeters>434.8</DistanceMeters>
<Extensions>
<ns3:TPX>
<ns3:Speed>1.286</ns3:Speed>
</ns3:TPX>
</Extensions>
</Trackpoint>
<Trackpoint>
<Time>2026-05-28T14:46:54Z</Time>
<Position>
<LatitudeDegrees>57.2894229</LatitudeDegrees>
<LongitudeDegrees>47.8675696</LongitudeDegrees>
</Position>
<AltitudeMeters>104.2</AltitudeMeters>
<DistanceMeters>445.5</DistanceMeters>
<Extensions>
<ns3:TPX>
<ns3:Speed>1.473</ns3:Speed>
</ns3:TPX>
</Extensions>
</Trackpoint>
<Trackpoint>
<Time>2026-05-28T14:47:02Z</Time>
<Position>
<LatitudeDegrees>57.2893800</LatitudeDegrees>
<LongitudeDegrees>47.8677193</LongitudeDegrees>
</Position>
<AltitudeMeters>104.2</AltitudeMeters>
<DistanceMeters>455.7</DistanceMeters>
<Extensions>
<ns3:TPX>
<ns3:Speed>1.19</ns3:Speed>
</ns3:TPX>
</Extensions>
</Trackpoint>
<Trackpoint>
<Time>2026-05-28T14:47:10Z</Time>
<Position>
<LatitudeDegrees>57.2893370</LatitudeDegrees>
<LongitudeDegrees>47.8678595</LongitudeDegrees>
</Position>
<AltitudeMeters>104.4</AltitudeMeters>
<DistanceMeters>465.4</DistanceMeters>
<Extensions>
<ns3:TPX>
<ns3:Speed>1.406</ns3:Speed>
</ns3:TPX>
</Extensions>
</Trackpoint>
<Trackpoint>
<Time>2026-05-28T14:47:18Z</Time>
<Position>
<LatitudeDegrees>57.2892775</LatitudeDegrees>
<LongitudeDegrees>47.8679917</LongitudeDegrees>
</Position>
<AltitudeMeters>104.4</AltitudeMeters>
<DistanceMeters>475.8</DistanceMeters>
<Extensions>
<ns3:TPX>
<ns3:Speed>1.14</ns3:Speed>
</ns3:TPX>
</Extensions>
</Trackpoint>
<Trackpoint>
<Time>2026-05-28T14:47:26Z</Time>
<Position>
<LatitudeDegrees>57.2892075</LatitudeDegrees>
<LongitudeDegrees>47.8681069</LongitudeDegrees>
</Position>
<AltitudeMeters>104.2</AltitudeMeters>
<DistanceMeters>486.3</DistanceMeters>
<Extensions>
<ns3:TPX>
<ns3:Speed>1.091</ns3:Speed>
</ns3:TPX>
</Extensions>
</Trackpoint>
<Trackpoint>
<Time>2026-05-28T14:47:34Z</Time>
<Position>
<LatitudeDegrees>57.2891308</LatitudeDegrees>
<LongitudeDegrees>47.8681542</LongitudeDegrees>
</Position>
<AltitudeMeters>104.2</AltitudeMeters>
<DistanceMeters>494.6</DistanceMeters>
<Extensions>
<ns3:TPX>
<ns3:Speed>1.252</ns3:Speed>
</ns3:TPX>
</Extensions>
</Trackpoint>
<Trackpoint>
<Time>2026-05-28T14:47:42Z</Time>
<Position>
<LatitudeDegrees>57.2890576</LatitudeDegrees>
<LongitudeDegrees>47.8681774</LongitudeDegrees>
</Position>
<AltitudeMeters>104.2</AltitudeMeters>
<DistanceMeters>501.8</DistanceMeters>
<Extensions>
<ns3:TPX>
<ns3:Speed>1.104</ns3:Speed>
</ns3:TPX>
</Extensions>
</Trackpoint>
<Trackpoint>
<Time>2026-05-28T14:47:50Z</Time>
<Position>
<LatitudeDegrees>57.2889830</LatitudeDegrees>
<LongitudeDegrees>47.8681818</LongitudeDegrees>
</Position>
<AltitudeMeters>104.0</AltitudeMeters>
<DistanceMeters>509.0</DistanceMeters>
<Extensions>
<ns3:TPX>
<ns3:Speed>0.907</ns3:Speed>
</ns3:TPX>
</Extensions>
</Trackpoint>
<Trackpoint>
<Time>2026-05-28T14:47:58Z</Time>
<Position>
<LatitudeDegrees>57.2888897</LatitudeDegrees>
<LongitudeDegrees>47.8681768</LongitudeDegrees>
</Position>
<AltitudeMeters>104.0</AltitudeMeters>
<DistanceMeters>519.4</DistanceMeters>
<Extensions>
<ns3:TPX>
<ns3:Speed>1.491</ns3:Speed>
</ns3:TPX>
</Extensions>
</Trackpoint>
<Trackpoint>
<Time>2026-05-28T14:48:06Z</Time>
<Position>
<LatitudeDegrees>57.2888089</LatitudeDegrees>
<LongitudeDegrees>47.8681342</LongitudeDegrees>
</Position>
<AltitudeMeters>104.2</AltitudeMeters>
<DistanceMeters>527.8</DistanceMeters>
<Extensions>
<ns3:TPX>
<ns3:Speed>0.0</ns3:Speed>
</ns3:TPX>
</Extensions>
</Trackpoint>
<Trackpoint>
<Time>2026-05-28T14:48:10Z</Time>
<Position>
<LatitudeDegrees>57.2887884</LatitudeDegrees>
<LongitudeDegrees>47.8681114</LongitudeDegrees>
</Position>
<AltitudeMeters>104.2</AltitudeMeters>
<DistanceMeters>528.7</DistanceMeters>
<Extensions>
<ns3:TPX>
<ns3:Speed>0.0</ns3:Speed>
</ns3:TPX>
</Extensions>
</Trackpoint>
<Trackpoint>
<Time>2026-05-28T14:48:22Z</Time>
<Position>
<LatitudeDegrees>57.2886791</LatitudeDegrees>
<LongitudeDegrees>47.8680261</LongitudeDegrees>
</Position>
<AltitudeMeters>104.0</AltitudeMeters>
<DistanceMeters>539.7</DistanceMeters>
<Extensions>
<ns3:TPX>
<ns3:Speed>0.0</ns3:Speed>
</ns3:TPX>
</Extensions>
</Trackpoint>
<Trackpoint>
<Time>2026-05-28T14:48:24Z</Time>
<Position>
<LatitudeDegrees>57.2886654</LatitudeDegrees>
<LongitudeDegrees>47.8680171</LongitudeDegrees>
</Position>
<AltitudeMeters>104.0</AltitudeMeters>
<DistanceMeters>539.7</DistanceMeters>
<Extensions>
<ns3:TPX>
<ns3:Speed>0.0</ns3:Speed>
</ns3:TPX>
</Extensions>
</Trackpoint>
<Trackpoint>
<Time>2026-05-28T14:48:42Z</Time>
<Position>
<LatitudeDegrees>57.2885299</LatitudeDegrees>
<LongitudeDegrees>47.8679211</LongitudeDegrees>
</Position>
<AltitudeMeters>104.0</AltitudeMeters>
<DistanceMeters>555.8</DistanceMeters>
<Extensions>
<ns3:TPX>
<ns3:Speed>1.313</ns3:Speed>
</ns3:TPX>
</Extensions>
</Trackpoint>
<Trackpoint>
<Time>2026-05-28T14:48:48Z</Time>
<Position>
<LatitudeDegrees>57.2884881</LatitudeDegrees>
<LongitudeDegrees>47.8678907</LongitudeDegrees>
</Position>
<AltitudeMeters>104.0</AltitudeMeters>
<DistanceMeters>558.6</DistanceMeters>
<Extensions>
<ns3:TPX>
<ns3:Speed>0.0</ns3:Speed>
</ns3:TPX>
</Extensions>
</Trackpoint>
<Trackpoint>
<Time>2026-05-28T14:48:58Z</Time>
<Position>
<LatitudeDegrees>57.2883681</LatitudeDegrees>
<LongitudeDegrees>47.8678972</LongitudeDegrees>
</Position>
<AltitudeMeters>103.8</AltitudeMeters>
<DistanceMeters>572.0</DistanceMeters>
<Extensions>
<ns3:TPX>
<ns3:Speed>1.306</ns3:Speed>
</ns3:TPX>
</Extensions>
</Trackpoint>
<Trackpoint>
<Time>2026-05-28T14:49:06Z</Time>
<Position>
<LatitudeDegrees>57.2882845</LatitudeDegrees>
<LongitudeDegrees>47.8679308</LongitudeDegrees>
</Position>
<AltitudeMeters>103.8</AltitudeMeters>
<DistanceMeters>581.6</DistanceMeters>
<Extensions>
<ns3:TPX>
<ns3:Speed>0.895</ns3:Speed>
</ns3:TPX>
</Extensions>
</Trackpoint>
<Trackpoint>
<Time>2026-05-28T14:49:14Z</Time>
<Position>
<LatitudeDegrees>57.2882128</LatitudeDegrees>
<LongitudeDegrees>47.8679964</LongitudeDegrees>
</Position>
<AltitudeMeters>103.8</AltitudeMeters>
<DistanceMeters>590.5</DistanceMeters>
<Extensions>
<ns3:TPX>
<ns3:Speed>1.261</ns3:Speed>
</ns3:TPX>
</Extensions>
</Trackpoint>
<Trackpoint>
<Time>2026-05-28T14:49:22Z</Time>
<Position>
<LatitudeDegrees>57.2881355</LatitudeDegrees>
<LongitudeDegrees>47.8681204</LongitudeDegrees>
</Position>
<AltitudeMeters>104.0</AltitudeMeters>
<DistanceMeters>601.9</DistanceMeters>
<Extensions>
<ns3:TPX>
<ns3:Speed>1.231</ns3:Speed>
</ns3:TPX>
</Extensions>
</Trackpoint>
<Trackpoint>
<Time>2026-05-28T14:49:30Z</Time>
<Position>
<LatitudeDegrees>57.2880848</LatitudeDegrees>
<LongitudeDegrees>47.8682584</LongitudeDegrees>
</Position>
<AltitudeMeters>103.8</AltitudeMeters>
<DistanceMeters>612.0</DistanceMeters>
<Extensions>
<ns3:TPX>
<ns3:Speed>1.375</ns3:Speed>
</ns3:TPX>
</Extensions>
</Trackpoint>
<Trackpoint>
<Time>2026-05-28T14:49:38Z</Time>
<Position>
<LatitudeDegrees>57.2880678</LatitudeDegrees>
<LongitudeDegrees>47.8684026</LongitudeDegrees>
</Position>
<AltitudeMeters>103.6</AltitudeMeters>
<DistanceMeters>621.0</DistanceMeters>
<Extensions>
<ns3:TPX>
<ns3:Speed>1.199</ns3:Speed>
</ns3:TPX>
</Extensions>
</Trackpoint>
<Trackpoint>
<Time>2026-05-28T14:49:46Z</Time>
<Position>
<LatitudeDegrees>57.2880602</LatitudeDegrees>
<LongitudeDegrees>47.8685424</LongitudeDegrees>
</Position>
<AltitudeMeters>103.6</AltitudeMeters>
<DistanceMeters>629.5</DistanceMeters>
<Extensions>
<ns3:TPX>
<ns3:Speed>1.1</ns3:Speed>
</ns3:TPX>
</Extensions>
</Trackpoint>
<Trackpoint>
<Time>2026-05-28T14:49:54Z</Time>
<Position>
<LatitudeDegrees>57.2880732</LatitudeDegrees>
<LongitudeDegrees>47.8687005</LongitudeDegrees>
</Position>
<AltitudeMeters>103.8</AltitudeMeters>
<DistanceMeters>635.0</DistanceMeters>
<Extensions>
<ns3:TPX>
<ns3:Speed>0.0</ns3:Speed>
</ns3:TPX>
</Extensions>
</Trackpoint>
<Trackpoint>
<Time>2026-05-28T14:50:09Z</Time>
<Position>
<LatitudeDegrees>57.2881127</LatitudeDegrees>
<LongitudeDegrees>47.8689207</LongitudeDegrees>
</Position>
<AltitudeMeters>103.8</AltitudeMeters>
<DistanceMeters>649.0</DistanceMeters>
<Extensions>
<ns3:TPX>
<ns3:Speed>1.048</ns3:Speed>
</ns3:TPX>
</Extensions>
</Trackpoint>
<Trackpoint>
<Time>2026-05-28T14:50:17Z</Time>
<Position>
<LatitudeDegrees>57.2881377</LatitudeDegrees>
<LongitudeDegrees>47.8690577</LongitudeDegrees>
</Position>
<AltitudeMeters>103.8</AltitudeMeters>
<DistanceMeters>657.8</DistanceMeters>
<Extensions>
<ns3:TPX>
<ns3:Speed>1.143</ns3:Speed>
</ns3:TPX>
</Extensions>
</Trackpoint>
<Trackpoint>
<Time>2026-05-28T14:50:25Z</Time>
<Position>
<LatitudeDegrees>57.2881844</LatitudeDegrees>
<LongitudeDegrees>47.8691934</LongitudeDegrees>
</Position>
<AltitudeMeters>103.6</AltitudeMeters>
<DistanceMeters>667.6</DistanceMeters>
<Extensions>
<ns3:TPX>
<ns3:Speed>1.446</ns3:Speed>
</ns3:TPX>
</Extensions>
</Trackpoint>
<Trackpoint>
<Time>2026-05-28T14:50:33Z</Time>
<Position>
<LatitudeDegrees>57.2882388</LatitudeDegrees>
<LongitudeDegrees>47.8693113</LongitudeDegrees>
</Position>
<AltitudeMeters>103.8</AltitudeMeters>
<DistanceMeters>676.9</DistanceMeters>
<Extensions>
<ns3:TPX>
<ns3:Speed>1.147</ns3:Speed>
</ns3:TPX>
</Extensions>
</Trackpoint>
<Trackpoint>
<Time>2026-05-28T14:50:41Z</Time>
<Position>
<LatitudeDegrees>57.2883093</LatitudeDegrees>
<LongitudeDegrees>47.8694230</LongitudeDegrees>
</Position>
<AltitudeMeters>103.8</AltitudeMeters>
<DistanceMeters>687.2</DistanceMeters>
<Extensions>
<ns3:TPX>
<ns3:Speed>1.225</ns3:Speed>
</ns3:TPX>
</Extensions>
</Trackpoint>
<Trackpoint>
<Time>2026-05-28T14:50:49Z</Time>
<Position>
<LatitudeDegrees>57.2883773</LatitudeDegrees>
<LongitudeDegrees>47.8695061</LongitudeDegrees>
</Position>
<AltitudeMeters>103.8</AltitudeMeters>
<DistanceMeters>696.3</DistanceMeters>
<Extensions>
<ns3:TPX>
<ns3:Speed>1.029</ns3:Speed>
</ns3:TPX>
</Extensions>
</Trackpoint>
<Trackpoint>
<Time>2026-05-28T14:50:57Z</Time>
<Position>
<LatitudeDegrees>57.2884589</LatitudeDegrees>
<LongitudeDegrees>47.8695894</LongitudeDegrees>
</Position>
<AltitudeMeters>103.6</AltitudeMeters>
<DistanceMeters>706.7</DistanceMeters>
<Extensions>
<ns3:TPX>
<ns3:Speed>1.214</ns3:Speed>
</ns3:TPX>
</Extensions>
</Trackpoint>
<Trackpoint>
<Time>2026-05-28T14:51:05Z</Time>
<Position>
<LatitudeDegrees>57.2885366</LatitudeDegrees>
<LongitudeDegrees>47.8696692</LongitudeDegrees>
</Position>
<AltitudeMeters>103.6</AltitudeMeters>
<DistanceMeters>715.5</DistanceMeters>
<Extensions>
<ns3:TPX>
<ns3:Speed>1.099</ns3:Speed>
</ns3:TPX>
</Extensions>
</Trackpoint>
<Trackpoint>
<Time>2026-05-28T14:51:09Z</Time>
<Position>
<LatitudeDegrees>57.2885662</LatitudeDegrees>
<LongitudeDegrees>47.8696841</LongitudeDegrees>
</Position>
<AltitudeMeters>103.6</AltitudeMeters>
<DistanceMeters>718.9</DistanceMeters>
<Extensions>
<ns3:TPX>
<ns3:Speed>1.137</ns3:Speed>
</ns3:TPX>
</Extensions>
</Trackpoint>
<Trackpoint>
<Time>2026-05-28T14:51:17Z</Time>
<Position>
<LatitudeDegrees>57.2886496</LatitudeDegrees>
<LongitudeDegrees>47.8697254</LongitudeDegrees>
</Position>
<AltitudeMeters>103.8</AltitudeMeters>
<DistanceMeters>728.5</DistanceMeters>
<Extensions>
<ns3:TPX>
<ns3:Speed>1.182</ns3:Speed>
</ns3:TPX>
</Extensions>
</Trackpoint>
<Trackpoint>
<Time>2026-05-28T14:51:25Z</Time>
<Position>
<LatitudeDegrees>57.2887289</LatitudeDegrees>
<LongitudeDegrees>47.8697685</LongitudeDegrees>
</Position>
<AltitudeMeters>104.0</AltitudeMeters>
<DistanceMeters>737.7</DistanceMeters>
<Extensions>
<ns3:TPX>
<ns3:Speed>1.298</ns3:Speed>
</ns3:TPX>
</Extensions>
</Trackpoint>
<Trackpoint>
<Time>2026-05-28T14:51:33Z</Time>
<Position>
<LatitudeDegrees>57.2888098</LatitudeDegrees>
<LongitudeDegrees>47.8698032</LongitudeDegrees>
</Position>
<AltitudeMeters>104.0</AltitudeMeters>
<DistanceMeters>746.9</DistanceMeters>
<Extensions>
<ns3:TPX>
<ns3:Speed>1.396</ns3:Speed>
</ns3:TPX>
</Extensions>
</Trackpoint>
<Trackpoint>
<Time>2026-05-28T14:51:41Z</Time>
<Position>
<LatitudeDegrees>57.2888835</LatitudeDegrees>
<LongitudeDegrees>47.8698246</LongitudeDegrees>
</Position>
<AltitudeMeters>104.0</AltitudeMeters>
<DistanceMeters>755.2</DistanceMeters>
<Extensions>
<ns3:TPX>
<ns3:Speed>1.082</ns3:Speed>
</ns3:TPX>
</Extensions>
</Trackpoint>
<Trackpoint>
<Time>2026-05-28T14:51:49Z</Time>
<Position>
<LatitudeDegrees>57.2889546</LatitudeDegrees>
<LongitudeDegrees>47.8698390</LongitudeDegrees>
</Position>
<AltitudeMeters>104.0</AltitudeMeters>
<DistanceMeters>762.1</DistanceMeters>
<Extensions>
<ns3:TPX>
<ns3:Speed>1.148</ns3:Speed>
</ns3:TPX>
</Extensions>
</Trackpoint>
<Trackpoint>
<Time>2026-05-28T14:51:53Z</Time>
<Position>
<LatitudeDegrees>57.2889926</LatitudeDegrees>
<LongitudeDegrees>47.8698404</LongitudeDegrees>
</Position>
<AltitudeMeters>104.0</AltitudeMeters>
<DistanceMeters>763.3</DistanceMeters>
<Extensions>
<ns3:TPX>
<ns3:Speed>0.0</ns3:Speed>
</ns3:TPX>
</Extensions>
</Trackpoint>
<Trackpoint>
<Time>2026-05-28T14:52:07Z</Time>
<Position>
<LatitudeDegrees>57.2891312</LatitudeDegrees>
<LongitudeDegrees>47.8698324</LongitudeDegrees>
</Position>
<AltitudeMeters>103.8</AltitudeMeters>
<DistanceMeters>778.8</DistanceMeters>
<Extensions>
<ns3:TPX>
<ns3:Speed>1.203</ns3:Speed>
</ns3:TPX>
</Extensions>
</Trackpoint>
<Trackpoint>
<Time>2026-05-28T14:52:15Z</Time>
<Position>
<LatitudeDegrees>57.2892258</LatitudeDegrees>
<LongitudeDegrees>47.8698175</LongitudeDegrees>
</Position>
<AltitudeMeters>103.6</AltitudeMeters>
<DistanceMeters>789.4</DistanceMeters>
<Extensions>
<ns3:TPX>
<ns3:Speed>1.403</ns3:Speed>
</ns3:TPX>
</Extensions>
</Trackpoint>
<Trackpoint>
<Time>2026-05-28T14:52:19Z</Time>
<Position>
<LatitudeDegrees>57.2892789</LatitudeDegrees>
<LongitudeDegrees>47.8697873</LongitudeDegrees>
</Position>
<AltitudeMeters>103.6</AltitudeMeters>
<DistanceMeters>795.6</DistanceMeters>
<Extensions>
<ns3:TPX>
<ns3:Speed>1.428</ns3:Speed>
</ns3:TPX>
</Extensions>
</Trackpoint>
<Trackpoint>
<Time>2026-05-28T14:52:28Z</Time>
<Position>
<LatitudeDegrees>57.2893757</LatitudeDegrees>
<LongitudeDegrees>47.8697662</LongitudeDegrees>
</Position>
<AltitudeMeters>103.4</AltitudeMeters>
<DistanceMeters>806.4</DistanceMeters>
<Extensions>
<ns3:TPX>
<ns3:Speed>1.24</ns3:Speed>
</ns3:TPX>
</Extensions>
</Trackpoint>
<Trackpoint>
<Time>2026-05-28T14:52:36Z</Time>
<Position>
<LatitudeDegrees>57.2894611</LatitudeDegrees>
<LongitudeDegrees>47.8697833</LongitudeDegrees>
</Position>
<AltitudeMeters>103.4</AltitudeMeters>
<DistanceMeters>816.0</DistanceMeters>
<Extensions>
<ns3:TPX>
<ns3:Speed>1.141</ns3:Speed>
</ns3:TPX>
</Extensions>
</Trackpoint>
<Trackpoint>
<Time>2026-05-28T14:52:44Z</Time>
<Position>
<LatitudeDegrees>57.2895574</LatitudeDegrees>
<LongitudeDegrees>47.8698300</LongitudeDegrees>
</Position>
<AltitudeMeters>103.4</AltitudeMeters>
<DistanceMeters>827.0</DistanceMeters>
<Extensions>
<ns3:TPX>
<ns3:Speed>1.224</ns3:Speed>
</ns3:TPX>
</Extensions>
</Trackpoint>
<Trackpoint>
<Time>2026-05-28T14:52:52Z</Time>
<Position>
<LatitudeDegrees>57.2896278</LatitudeDegrees>
<LongitudeDegrees>47.8698947</LongitudeDegrees>
</Position>
<AltitudeMeters>103.6</AltitudeMeters>
<DistanceMeters>835.8</DistanceMeters>
<Extensions>
<ns3:TPX>
<ns3:Speed>1.173</ns3:Speed>
</ns3:TPX>
</Extensions>
</Trackpoint>
<Trackpoint>
<Time>2026-05-28T14:53:00Z</Time>
<Position>
<LatitudeDegrees>57.2897049</LatitudeDegrees>
<LongitudeDegrees>47.8699753</LongitudeDegrees>
</Position>
<AltitudeMeters>103.6</AltitudeMeters>
<DistanceMeters>845.7</DistanceMeters>
<Extensions>
<ns3:TPX>
<ns3:Speed>1.176</ns3:Speed>
</ns3:TPX>
</Extensions>
</Trackpoint>
<Trackpoint>
<Time>2026-05-28T14:53:08Z</Time>
<Position>
<LatitudeDegrees>57.2897784</LatitudeDegrees>
<LongitudeDegrees>47.8700732</LongitudeDegrees>
</Position>
<AltitudeMeters>103.6</AltitudeMeters>
<DistanceMeters>855.8</DistanceMeters>
<Extensions>
<ns3:TPX>
<ns3:Speed>1.177</ns3:Speed>
</ns3:TPX>
</Extensions>
</Trackpoint>
<Trackpoint>
<Time>2026-05-28T14:53:16Z</Time>
<Position>
<LatitudeDegrees>57.2898529</LatitudeDegrees>
<LongitudeDegrees>47.8701944</LongitudeDegrees>
</Position>
<AltitudeMeters>103.8</AltitudeMeters>
<DistanceMeters>866.8</DistanceMeters>
<Extensions>
<ns3:TPX>
<ns3:Speed>1.332</ns3:Speed>
</ns3:TPX>
</Extensions>
</Trackpoint>
<Trackpoint>
<Time>2026-05-28T14:53:24Z</Time>
<Position>
<LatitudeDegrees>57.2899084</LatitudeDegrees>
<LongitudeDegrees>47.8703257</LongitudeDegrees>
</Position>
<AltitudeMeters>103.8</AltitudeMeters>
<DistanceMeters>876.8</DistanceMeters>
<Extensions>
<ns3:TPX>
<ns3:Speed>1.191</ns3:Speed>
</ns3:TPX>
</Extensions>
</Trackpoint>
<Trackpoint>
<Time>2026-05-28T14:53:33Z</Time>
<Position>
<LatitudeDegrees>57.2899530</LatitudeDegrees>
<LongitudeDegrees>47.8704588</LongitudeDegrees>
</Position>
<AltitudeMeters>103.6</AltitudeMeters>
<DistanceMeters>886.2</DistanceMeters>
<Extensions>
<ns3:TPX>
<ns3:Speed>1.21</ns3:Speed>
</ns3:TPX>
</Extensions>
</Trackpoint>
<Trackpoint>
<Time>2026-05-28T14:53:41Z</Time>
<Position>
<LatitudeDegrees>57.2900097</LatitudeDegrees>
<LongitudeDegrees>47.8706039</LongitudeDegrees>
</Position>
<AltitudeMeters>103.8</AltitudeMeters>
<DistanceMeters>897.0</DistanceMeters>
<Extensions>
<ns3:TPX>
<ns3:Speed>1.387</ns3:Speed>
</ns3:TPX>
</Extensions>
</Trackpoint>
<Trackpoint>
<Time>2026-05-28T14:53:49Z</Time>
<Position>
<LatitudeDegrees>57.2900588</LatitudeDegrees>
<LongitudeDegrees>47.8707688</LongitudeDegrees>
</Position>
<AltitudeMeters>103.8</AltitudeMeters>
<DistanceMeters>908.3</DistanceMeters>
<Extensions>
<ns3:TPX>
<ns3:Speed>1.453</ns3:Speed>
</ns3:TPX>
</Extensions>
</Trackpoint>
<Trackpoint>
<Time>2026-05-28T14:53:57Z</Time>
<Position>
<LatitudeDegrees>57.2900797</LatitudeDegrees>
<LongitudeDegrees>47.8709275</LongitudeDegrees>
</Position>
<AltitudeMeters>103.8</AltitudeMeters>
<DistanceMeters>918.2</DistanceMeters>
<Extensions>
<ns3:TPX>
<ns3:Speed>1.527</ns3:Speed>
</ns3:TPX>
</Extensions>
</Trackpoint>
<Trackpoint>
<Time>2026-05-28T14:54:05Z</Time>
<Position>
<LatitudeDegrees>57.2901034</LatitudeDegrees>
<LongitudeDegrees>47.8710892</LongitudeDegrees>
</Position>
<AltitudeMeters>103.8</AltitudeMeters>
<DistanceMeters>928.3</DistanceMeters>
<Extensions>
<ns3:TPX>
<ns3:Speed>1.331</ns3:Speed>
</ns3:TPX>
</Extensions>
</Trackpoint>
<Trackpoint>
<Time>2026-05-28T14:54:13Z</Time>
<Position>
<LatitudeDegrees>57.2901325</LatitudeDegrees>
<LongitudeDegrees>47.8712367</LongitudeDegrees>
</Position>
<AltitudeMeters>103.8</AltitudeMeters>
<DistanceMeters>937.7</DistanceMeters>
<Extensions>
<ns3:TPX>
<ns3:Speed>1.251</ns3:Speed>
</ns3:TPX>
</Extensions>
</Trackpoint>
<Trackpoint>
<Time>2026-05-28T14:54:21Z</Time>
<Position>
<LatitudeDegrees>57.2901541</LatitudeDegrees>
<LongitudeDegrees>47.8713894</LongitudeDegrees>
</Position>
<AltitudeMeters>103.8</AltitudeMeters>
<DistanceMeters>947.2</DistanceMeters>
<Extensions>
<ns3:TPX>
<ns3:Speed>1.206</ns3:Speed>
</ns3:TPX>
</Extensions>
</Trackpoint>
<Trackpoint>
<Time>2026-05-28T14:54:29Z</Time>
<Position>
<LatitudeDegrees>57.2901954</LatitudeDegrees>
<LongitudeDegrees>47.8715462</LongitudeDegrees>
</Position>
<AltitudeMeters>103.6</AltitudeMeters>
<DistanceMeters>957.7</DistanceMeters>
<Extensions>
<ns3:TPX>
<ns3:Speed>1.155</ns3:Speed>
</ns3:TPX>
</Extensions>
</Trackpoint>
<Trackpoint>
<Time>2026-05-28T14:54:37Z</Time>
<Position>
<LatitudeDegrees>57.2902517</LatitudeDegrees>
<LongitudeDegrees>47.8717058</LongitudeDegrees>
</Position>
<AltitudeMeters>103.4</AltitudeMeters>
<DistanceMeters>969.2</DistanceMeters>
<Extensions>
<ns3:TPX>
<ns3:Speed>1.141</ns3:Speed>
</ns3:TPX>
</Extensions>
</Trackpoint>
<Trackpoint>
<Time>2026-05-28T14:54:45Z</Time>
<Position>
<LatitudeDegrees>57.2903106</LatitudeDegrees>
<LongitudeDegrees>47.8718417</LongitudeDegrees>
</Position>
<AltitudeMeters>103.4</AltitudeMeters>
<DistanceMeters>979.7</DistanceMeters>
<Extensions>
<ns3:TPX>
<ns3:Speed>1.293</ns3:Speed>
</ns3:TPX>
</Extensions>
</Trackpoint>
<Trackpoint>
<Time>2026-05-28T14:54:53Z</Time>
<Position>
<LatitudeDegrees>57.2903436</LatitudeDegrees>
<LongitudeDegrees>47.8720016</LongitudeDegrees>
</Position>
<AltitudeMeters>103.4</AltitudeMeters>
<DistanceMeters>990.0</DistanceMeters>
<Extensions>
<ns3:TPX>
<ns3:Speed>1.106</ns3:Speed>
</ns3:TPX>
</Extensions>
</Trackpoint>
<Trackpoint>
<Time>2026-05-28T14:55:01Z</Time>
<Position>
<LatitudeDegrees>57.2903553</LatitudeDegrees>
<LongitudeDegrees>47.8721626</LongitudeDegrees>
</Position>
<AltitudeMeters>103.2</AltitudeMeters>
<DistanceMeters>999.9</DistanceMeters>
<Extensions>
<ns3:TPX>
<ns3:Speed>1.419</ns3:Speed>
</ns3:TPX>
</Extensions>
</Trackpoint>
<Trackpoint>
<Time>2026-05-28T14:55:09Z</Time>
<Position>
<LatitudeDegrees>57.2903621</LatitudeDegrees>
<LongitudeDegrees>47.8723023</LongitudeDegrees>
</Position>
<AltitudeMeters>103.0</AltitudeMeters>
<DistanceMeters>1008.5</DistanceMeters>
<Extensions>
<ns3:TPX>
<ns3:Speed>1.488</ns3:Speed>
</ns3:TPX>
</Extensions>
</Trackpoint>
<Trackpoint>
<Time>2026-05-28T14:55:17Z</Time>
<Position>
<LatitudeDegrees>57.2903703</LatitudeDegrees>
<LongitudeDegrees>47.8724542</LongitudeDegrees>
</Position>
<AltitudeMeters>103.2</AltitudeMeters>
<DistanceMeters>1016.4</DistanceMeters>
<Extensions>
<ns3:TPX>
<ns3:Speed>1.094</ns3:Speed>
</ns3:TPX>
</Extensions>
</Trackpoint>
<Trackpoint>
<Time>2026-05-28T14:55:25Z</Time>
<Position>
<LatitudeDegrees>57.2903894</LatitudeDegrees>
<LongitudeDegrees>47.8726264</LongitudeDegrees>
</Position>
<AltitudeMeters>103.2</AltitudeMeters>
<DistanceMeters>1027.0</DistanceMeters>
<Extensions>
<ns3:TPX>
<ns3:Speed>1.191</ns3:Speed>
</ns3:TPX>
</Extensions>
</Trackpoint>
<Trackpoint>
<Time>2026-05-28T14:55:33Z</Time>
<Position>
<LatitudeDegrees>57.2904045</LatitudeDegrees>
<LongitudeDegrees>47.8727832</LongitudeDegrees>
</Position>
<AltitudeMeters>103.2</AltitudeMeters>
<DistanceMeters>1036.5</DistanceMeters>
<Extensions>
<ns3:TPX>
<ns3:Speed>0.885</ns3:Speed>
</ns3:TPX>
</Extensions>
</Trackpoint>
<Trackpoint>
<Time>2026-05-28T14:55:41Z</Time>
<Position>
<LatitudeDegrees>57.2904115</LatitudeDegrees>
<LongitudeDegrees>47.8729295</LongitudeDegrees>
</Position>
<AltitudeMeters>103.2</AltitudeMeters>
<DistanceMeters>1045.5</DistanceMeters>
<Extensions>
<ns3:TPX>
<ns3:Speed>1.162</ns3:Speed>
</ns3:TPX>
</Extensions>
</Trackpoint>
<Trackpoint>
<Time>2026-05-28T14:55:49Z</Time>
<Position>
<LatitudeDegrees>57.2904176</LatitudeDegrees>
<LongitudeDegrees>47.8730607</LongitudeDegrees>
</Position>
<AltitudeMeters>103.2</AltitudeMeters>
<DistanceMeters>1052.6</DistanceMeters>
<Extensions>
<ns3:TPX>
<ns3:Speed>0.978</ns3:Speed>
</ns3:TPX>
</Extensions>
</Trackpoint>
<Trackpoint>
<Time>2026-05-28T14:55:58Z</Time>
<Position>
<LatitudeDegrees>57.2904102</LatitudeDegrees>
<LongitudeDegrees>47.8731877</LongitudeDegrees>
</Position>
<AltitudeMeters>103.2</AltitudeMeters>
<DistanceMeters>1060.3</DistanceMeters>
<Extensions>
<ns3:TPX>
<ns3:Speed>1.149</ns3:Speed>
</ns3:TPX>
</Extensions>
</Trackpoint>
<Trackpoint>
<Time>2026-05-28T14:56:04Z</Time>
<Position>
<LatitudeDegrees>57.2903737</LatitudeDegrees>
<LongitudeDegrees>47.8732581</LongitudeDegrees>
</Position>
<AltitudeMeters>103.2</AltitudeMeters>
<DistanceMeters>1066.6</DistanceMeters>
<Extensions>
<ns3:TPX>
<ns3:Speed>1.02</ns3:Speed>
</ns3:TPX>
</Extensions>
</Trackpoint>
<Trackpoint>
<Time>2026-05-28T14:56:12Z</Time>
<Position>
<LatitudeDegrees>57.2903151</LatitudeDegrees>
<LongitudeDegrees>47.8732753</LongitudeDegrees>
</Position>
<AltitudeMeters>103.0</AltitudeMeters>
<DistanceMeters>1070.8</DistanceMeters>
<Extensions>
<ns3:TPX>
<ns3:Speed>0.0</ns3:Speed>
</ns3:TPX>
</Extensions>
</Trackpoint>
<Trackpoint>
<Time>2026-05-28T14:56:16Z</Time>
<Position>
<LatitudeDegrees>57.2902933</LatitudeDegrees>
<LongitudeDegrees>47.8732719</LongitudeDegrees>
</Position>
<AltitudeMeters>102.6</AltitudeMeters>
<DistanceMeters>1071.6</DistanceMeters>
<Extensions>
<ns3:TPX>
<ns3:Speed>0.0</ns3:Speed>
</ns3:TPX>
</Extensions>
</Trackpoint>
<Trackpoint>
<Time>2026-05-28T14:56:48Z</Time>
<Position>
<LatitudeDegrees>57.2903874</LatitudeDegrees>
<LongitudeDegrees>47.8734202</LongitudeDegrees>
</Position>
<AltitudeMeters>102.8</AltitudeMeters>
<DistanceMeters>1084.7</DistanceMeters>
<Extensions>
<ns3:TPX>
<ns3:Speed>0.88</ns3:Speed>
</ns3:TPX>
</Extensions>
</Trackpoint>
<Trackpoint>
<Time>2026-05-28T14:56:52Z</Time>
<Position>
<LatitudeDegrees>57.2904122</LatitudeDegrees>
<LongitudeDegrees>47.8734489</LongitudeDegrees>
</Position>
<AltitudeMeters>103.0</AltitudeMeters>
<DistanceMeters>1088.4</DistanceMeters>
<Extensions>
<ns3:TPX>
<ns3:Speed>1.097</ns3:Speed>
</ns3:TPX>
</Extensions>
</Trackpoint>
<Trackpoint>
<Time>2026-05-28T14:57:00Z</Time>
<Position>
<LatitudeDegrees>57.2904054</LatitudeDegrees>
<LongitudeDegrees>47.8735918</LongitudeDegrees>
</Position>
<AltitudeMeters>103.0</AltitudeMeters>
<DistanceMeters>1095.6</DistanceMeters>
<Extensions>
<ns3:TPX>
<ns3:Speed>1.061</ns3:Speed>
</ns3:TPX>
</Extensions>
</Trackpoint>
<Trackpoint>
<Time>2026-05-28T14:57:08Z</Time>
<Position>
<LatitudeDegrees>57.2904038</LatitudeDegrees>
<LongitudeDegrees>47.8737491</LongitudeDegrees>
</Position>
<AltitudeMeters>102.8</AltitudeMeters>
<DistanceMeters>1105.1</DistanceMeters>
<Extensions>
<ns3:TPX>
<ns3:Speed>0.887</ns3:Speed>
</ns3:TPX>
</Extensions>
</Trackpoint>
<Trackpoint>
<Time>2026-05-28T14:57:16Z</Time>
<Position>
<LatitudeDegrees>57.2904199</LatitudeDegrees>
<LongitudeDegrees>47.8738990</LongitudeDegrees>
</Position>
<AltitudeMeters>102.6</AltitudeMeters>
<DistanceMeters>1113.4</DistanceMeters>
<Extensions>
<ns3:TPX>
<ns3:Speed>1.048</ns3:Speed>
</ns3:TPX>
</Extensions>
</Trackpoint>
<Trackpoint>
<Time>2026-05-28T14:57:24Z</Time>
<Position>
<LatitudeDegrees>57.2904329</LatitudeDegrees>
<LongitudeDegrees>47.8740762</LongitudeDegrees>
</Position>
<AltitudeMeters>102.6</AltitudeMeters>
<DistanceMeters>1124.2</DistanceMeters>
<Extensions>
<ns3:TPX>
<ns3:Speed>1.571</ns3:Speed>
</ns3:TPX>
</Extensions>
</Trackpoint>
<Trackpoint>
<Time>2026-05-28T14:57:32Z</Time>
<Position>
<LatitudeDegrees>57.2904375</LatitudeDegrees>
<LongitudeDegrees>47.8742733</LongitudeDegrees>
</Position>
<AltitudeMeters>102.4</AltitudeMeters>
<DistanceMeters>1134.7</DistanceMeters>
<Extensions>
<ns3:TPX>
<ns3:Speed>0.0</ns3:Speed>
</ns3:TPX>
</Extensions>
</Trackpoint>
<Trackpoint>
<Time>2026-05-28T14:57:45Z</Time>
<Position>
<LatitudeDegrees>57.2904358</LatitudeDegrees>
<LongitudeDegrees>47.8745335</LongitudeDegrees>
</Position>
<AltitudeMeters>102.2</AltitudeMeters>
<DistanceMeters>1147.8</DistanceMeters>
<Extensions>
<ns3:TPX>
<ns3:Speed>2.061</ns3:Speed>
</ns3:TPX>
</Extensions>
</Trackpoint>
<Trackpoint>
<Time>2026-05-28T14:57:50Z</Time>
<Position>
<LatitudeDegrees>57.2904365</LatitudeDegrees>
<LongitudeDegrees>47.8746324</LongitudeDegrees>
</Position>
<AltitudeMeters>102.2</AltitudeMeters>
<DistanceMeters>1151.3</DistanceMeters>
<Extensions>
<ns3:TPX>
<ns3:Speed>0.0</ns3:Speed>
</ns3:TPX>
</Extensions>
</Trackpoint>
<Trackpoint>
<Time>2026-05-28T14:58:00Z</Time>
<Position>
<LatitudeDegrees>57.2904430</LatitudeDegrees>
<LongitudeDegrees>47.8748337</LongitudeDegrees>
</Position>
<AltitudeMeters>102.2</AltitudeMeters>
<DistanceMeters>1160.4</DistanceMeters>
<Extensions>
<ns3:TPX>
<ns3:Speed>0.0</ns3:Speed>
</ns3:TPX>
</Extensions>
</Trackpoint>
<Trackpoint>
<Time>2026-05-28T14:58:13Z</Time>
<Position>
<LatitudeDegrees>57.2904622</LatitudeDegrees>
<LongitudeDegrees>47.8750737</LongitudeDegrees>
</Position>
<AltitudeMeters>101.8</AltitudeMeters>
<DistanceMeters>1173.7</DistanceMeters>
<Extensions>
<ns3:TPX>
<ns3:Speed>1.063</ns3:Speed>
</ns3:TPX>
</Extensions>
</Trackpoint>
<Trackpoint>
<Time>2026-05-28T14:58:22Z</Time>
<Position>
<LatitudeDegrees>57.2904624</LatitudeDegrees>
<LongitudeDegrees>47.8751969</LongitudeDegrees>
</Position>
<AltitudeMeters>102.2</AltitudeMeters>
<DistanceMeters>1179.5</DistanceMeters>
<Extensions>
<ns3:TPX>
<ns3:Speed>2.06</ns3:Speed>
</ns3:TPX>
</Extensions>
</Trackpoint>
<Trackpoint>
<Time>2026-05-28T14:58:30Z</Time>
<Position>
<LatitudeDegrees>57.2904720</LatitudeDegrees>
<LongitudeDegrees>47.8753884</LongitudeDegrees>
</Position>
<AltitudeMeters>102.2</AltitudeMeters>
<DistanceMeters>1189.1</DistanceMeters>
<Extensions>
<ns3:TPX>
<ns3:Speed>0.0</ns3:Speed>
</ns3:TPX>
</Extensions>
</Trackpoint>
<Trackpoint>
<Time>2026-05-28T14:58:37Z</Time>
<Position>
<LatitudeDegrees>57.2904586</LatitudeDegrees>
<LongitudeDegrees>47.8754851</LongitudeDegrees>
</Position>
<AltitudeMeters>102.0</AltitudeMeters>
<DistanceMeters>1189.1</DistanceMeters>
<Extensions>
<ns3:TPX>
<ns3:Speed>0.0</ns3:Speed>
</ns3:TPX>
</Extensions>
</Trackpoint>
<Trackpoint>
<Time>2026-05-28T14:58:47Z</Time>
<Position>
<LatitudeDegrees>57.2904636</LatitudeDegrees>
<LongitudeDegrees>47.8756963</LongitudeDegrees>
</Position>
<AltitudeMeters>102.2</AltitudeMeters>
<DistanceMeters>1199.2</DistanceMeters>
<Extensions>
<ns3:TPX>
<ns3:Speed>0.0</ns3:Speed>
</ns3:TPX>
</Extensions>
</Trackpoint>
<Trackpoint>
<Time>2026-05-28T14:58:56Z</Time>
<Position>
<LatitudeDegrees>57.2904788</LatitudeDegrees>
<LongitudeDegrees>47.8758818</LongitudeDegrees>
</Position>
<AltitudeMeters>101.8</AltitudeMeters>
<DistanceMeters>1207.4</DistanceMeters>
<Extensions>
<ns3:TPX>
<ns3:Speed>0.0</ns3:Speed>
</ns3:TPX>
</Extensions>
</Trackpoint>
<Trackpoint>
<Time>2026-05-28T14:59:08Z</Time>
<Position>
<LatitudeDegrees>57.2904610</LatitudeDegrees>
<LongitudeDegrees>47.8760897</LongitudeDegrees>
</Position>
<AltitudeMeters>102.2</AltitudeMeters>
<DistanceMeters>1217.0</DistanceMeters>
<Extensions>
<ns3:TPX>
<ns3:Speed>0.0</ns3:Speed>
</ns3:TPX>
</Extensions>
</Trackpoint>
<Trackpoint>
<Time>2026-05-28T14:59:19Z</Time>
<Position>
<LatitudeDegrees>57.2904637</LatitudeDegrees>
<LongitudeDegrees>47.8763353</LongitudeDegrees>
</Position>
<AltitudeMeters>102.2</AltitudeMeters>
<DistanceMeters>1228.5</DistanceMeters>
<Extensions>
<ns3:TPX>
<ns3:Speed>0.0</ns3:Speed>
</ns3:TPX>
</Extensions>
</Trackpoint>
<Trackpoint>
<Time>2026-05-28T14:59:27Z</Time>
<Position>
<LatitudeDegrees>57.2904907</LatitudeDegrees>
<LongitudeDegrees>47.8765436</LongitudeDegrees>
</Position>
<AltitudeMeters>102.6</AltitudeMeters>
<DistanceMeters>1240.7</DistanceMeters>
<Extensions>
<ns3:TPX>
<ns3:Speed>0.0</ns3:Speed>
</ns3:TPX>
</Extensions>
</Trackpoint>
<Trackpoint>
<Time>2026-05-28T14:59:29Z</Time>
<Position>
<LatitudeDegrees>57.2904856</LatitudeDegrees>
<LongitudeDegrees>47.8765750</LongitudeDegrees>
</Position>
<AltitudeMeters>102.4</AltitudeMeters>
<DistanceMeters>1240.7</DistanceMeters>
<Extensions>
<ns3:TPX>
<ns3:Speed>0.0</ns3:Speed>
</ns3:TPX>
</Extensions>
</Trackpoint>
<Trackpoint>
<Time>2026-05-28T14:59:35Z</Time>
<Position>
<LatitudeDegrees>57.2904824</LatitudeDegrees>
<LongitudeDegrees>47.8766577</LongitudeDegrees>
</Position>
<AltitudeMeters>102.0</AltitudeMeters>
<DistanceMeters>1240.7</DistanceMeters>
<Extensions>
<ns3:TPX>
<ns3:Speed>0.0</ns3:Speed>
</ns3:TPX>
</Extensions>
</Trackpoint>
<Trackpoint>
<Time>2026-05-28T14:59:41Z</Time>
<Position>
<LatitudeDegrees>57.2904889</LatitudeDegrees>
<LongitudeDegrees>47.8767515</LongitudeDegrees>
</Position>
<AltitudeMeters>102.4</AltitudeMeters>
<DistanceMeters>1240.7</DistanceMeters>
<Extensions>
<ns3:TPX>
<ns3:Speed>0.0</ns3:Speed>
</ns3:TPX>
</Extensions>
</Trackpoint>
<Trackpoint>
<Time>2026-05-28T14:59:49Z</Time>
<Position>
<LatitudeDegrees>57.2904932</LatitudeDegrees>
<LongitudeDegrees>47.8768876</LongitudeDegrees>
</Position>
<AltitudeMeters>102.4</AltitudeMeters>
<DistanceMeters>1246.9</DistanceMeters>
<Extensions>
<ns3:TPX>
<ns3:Speed>0.0</ns3:Speed>
</ns3:TPX>
</Extensions>
</Trackpoint>
<Trackpoint>
<Time>2026-05-28T14:59:57Z</Time>
<Position>
<LatitudeDegrees>57.2905115</LatitudeDegrees>
<LongitudeDegrees>47.8770542</LongitudeDegrees>
</Position>
<AltitudeMeters>102.2</AltitudeMeters>
<DistanceMeters>1255.0</DistanceMeters>
<Extensions>
<ns3:TPX>
<ns3:Speed>0.94</ns3:Speed>
</ns3:TPX>
</Extensions>
</Trackpoint>
<Trackpoint>
<Time>2026-05-28T15:00:03Z</Time>
<Position>
<LatitudeDegrees>57.2905699</LatitudeDegrees>
<LongitudeDegrees>47.8770623</LongitudeDegrees>
</Position>
<AltitudeMeters>102.2</AltitudeMeters>
<DistanceMeters>1259.1</DistanceMeters>
<Extensions>
<ns3:TPX>
<ns3:Speed>0.0</ns3:Speed>
</ns3:TPX>
</Extensions>
</Trackpoint>
<Trackpoint>
<Time>2026-05-28T15:00:10Z</Time>
<Position>
<LatitudeDegrees>57.2906400</LatitudeDegrees>
<LongitudeDegrees>47.8770648</LongitudeDegrees>
</Position>
<AltitudeMeters>102.2</AltitudeMeters>
<DistanceMeters>1259.1</DistanceMeters>
<Extensions>
<ns3:TPX>
<ns3:Speed>0.0</ns3:Speed>
</ns3:TPX>
</Extensions>
</Trackpoint>
<Trackpoint>
<Time>2026-05-28T15:00:22Z</Time>
<Position>
<LatitudeDegrees>57.2907589</LatitudeDegrees>
<LongitudeDegrees>47.8770454</LongitudeDegrees>
</Position>
<AltitudeMeters>102.0</AltitudeMeters>
<DistanceMeters>1263.5</DistanceMeters>
<Extensions>
<ns3:TPX>
<ns3:Speed>0.0</ns3:Speed>
</ns3:TPX>
</Extensions>
</Trackpoint>
<Trackpoint>
<Time>2026-05-28T15:00:32Z</Time>
<Position>
<LatitudeDegrees>57.2907678</LatitudeDegrees>
<LongitudeDegrees>47.8772034</LongitudeDegrees>
</Position>
<AltitudeMeters>102.2</AltitudeMeters>
<DistanceMeters>1266.8</DistanceMeters>
<Extensions>
<ns3:TPX>
<ns3:Speed>1.217</ns3:Speed>
</ns3:TPX>
</Extensions>
</Trackpoint>
<Trackpoint>
<Time>2026-05-28T15:00:35Z</Time>
<Position>
<LatitudeDegrees>57.2907710</LatitudeDegrees>
<LongitudeDegrees>47.8772378</LongitudeDegrees>
</Position>
<AltitudeMeters>102.2</AltitudeMeters>
<DistanceMeters>1266.8</DistanceMeters>
<Extensions>
<ns3:TPX>
<ns3:Speed>0.0</ns3:Speed>
</ns3:TPX>
</Extensions>
</Trackpoint>
<Trackpoint>
<Time>2026-05-28T15:00:42Z</Time>
<Position>
<LatitudeDegrees>57.2908094</LatitudeDegrees>
<LongitudeDegrees>47.8773129</LongitudeDegrees>
</Position>
<AltitudeMeters>102.2</AltitudeMeters>
<DistanceMeters>1273.4</DistanceMeters>
<Extensions>
<ns3:TPX>
<ns3:Speed>1.821</ns3:Speed>
</ns3:TPX>
</Extensions>
</Trackpoint>
<Trackpoint>
<Time>2026-05-28T15:00:47Z</Time>
<Position>
<LatitudeDegrees>57.2908488</LatitudeDegrees>
<LongitudeDegrees>47.8773519</LongitudeDegrees>
</Position>
<AltitudeMeters>102.2</AltitudeMeters>
<DistanceMeters>1276.3</DistanceMeters>
<Extensions>
<ns3:TPX>
<ns3:Speed>0.0</ns3:Speed>
</ns3:TPX>
</Extensions>
</Trackpoint>
<Trackpoint>
<Time>2026-05-28T15:02:38Z</Time>
<Position>
<LatitudeDegrees>57.2912208</LatitudeDegrees>
<LongitudeDegrees>47.8782642</LongitudeDegrees>
</Position>
<AltitudeMeters>103.0</AltitudeMeters>
<DistanceMeters>1276.3</DistanceMeters>
<Extensions>
<ns3:TPX>
<ns3:Speed>0.0</ns3:Speed>
</ns3:TPX>
</Extensions>
</Trackpoint>
<Trackpoint>
<Time>2026-05-28T15:02:53Z</Time>
<Position>
<LatitudeDegrees>57.2913744</LatitudeDegrees>
<LongitudeDegrees>47.8784071</LongitudeDegrees>
</Position>
<AltitudeMeters>103.4</AltitudeMeters>
<DistanceMeters>1291.8</DistanceMeters>
<Extensions>
<ns3:TPX>
<ns3:Speed>0.0</ns3:Speed>
</ns3:TPX>
</Extensions>
</Trackpoint>
<Trackpoint>
<Time>2026-05-28T15:02:55Z</Time>
<Position>
<LatitudeDegrees>57.2913838</LatitudeDegrees>
<LongitudeDegrees>47.8784109</LongitudeDegrees>
</Position>
<AltitudeMeters>103.4</AltitudeMeters>
<DistanceMeters>1291.8</DistanceMeters>
<Extensions>
<ns3:TPX>
<ns3:Speed>0.0</ns3:Speed>
</ns3:TPX>
</Extensions>
</Trackpoint>
<Trackpoint>
<Time>2026-05-28T15:03:07Z</Time>
<Position>
<LatitudeDegrees>57.2914587</LatitudeDegrees>
<LongitudeDegrees>47.8784624</LongitudeDegrees>
</Position>
<AltitudeMeters>103.6</AltitudeMeters>
<DistanceMeters>1291.8</DistanceMeters>
<Extensions>
<ns3:TPX>
<ns3:Speed>0.0</ns3:Speed>
</ns3:TPX>
</Extensions>
</Trackpoint>
<Trackpoint>
<Time>2026-05-28T15:03:16Z</Time>
<Position>
<LatitudeDegrees>57.2915027</LatitudeDegrees>
<LongitudeDegrees>47.8785893</LongitudeDegrees>
</Position>
<AltitudeMeters>103.8</AltitudeMeters>
<DistanceMeters>1298.9</DistanceMeters>
<Extensions>
<ns3:TPX>
<ns3:Speed>0.0</ns3:Speed>
</ns3:TPX>
</Extensions>
</Trackpoint>
<Trackpoint>
<Time>2026-05-28T15:03:28Z</Time>
<Position>
<LatitudeDegrees>57.2915568</LatitudeDegrees>
<LongitudeDegrees>47.8787495</LongitudeDegrees>
</Position>
<AltitudeMeters>104.4</AltitudeMeters>
<DistanceMeters>1302.2</DistanceMeters>
<Extensions>
<ns3:TPX>
<ns3:Speed>0.0</ns3:Speed>
</ns3:TPX>
</Extensions>
</Trackpoint>
</Track>
</Lap>
</Activity>
</Activities>
</TrainingCenterDatabase>