<?xml version="1.0" encoding="UTF-8"?>
<TrainingCenterDatabase xmlns="http://www.garmin.com/xmlschemas/TrainingCenterDatabase/v2" xmlns:ns3="http://www.garmin.com/xmlschemas/ActivityExtension/v2" xmlns:xsi="http://www.w3.org/2001/XMLSchema-instance" xsi:schemaLocation="http://www.garmin.com/xmlschemas/TrainingCenterDatabase/v2 http://www.garmin.com/xmlschemas/TrainingCenterDatabasev2.xsd">
<Activities>
<Activity Sport="Biking">
<Id>2026-05-28T13:40:27Z</Id>
<Lap StartTime="2026-05-28T13:40:27Z">
<TotalTimeSeconds>660.0</TotalTimeSeconds>
<DistanceMeters>858.98</DistanceMeters>
<MaximumSpeed>2.887</MaximumSpeed>
<Calories>55</Calories>
<Intensity>Active</Intensity>
<TriggerMethod>Manual</TriggerMethod>
<Track>
<Trackpoint>
<Time>2026-05-28T13:45:12Z</Time>
<Position>
<LatitudeDegrees>57.2904767</LatitudeDegrees>
<LongitudeDegrees>47.8762821</LongitudeDegrees>
</Position>
<DistanceMeters>1.0</DistanceMeters>
<Extensions>
<ns3:TPX>
<ns3:Speed>0.898</ns3:Speed>
</ns3:TPX>
</Extensions>
</Trackpoint>
<Trackpoint>
<Time>2026-05-28T13:45:13Z</Time>
<Position>
<LatitudeDegrees>57.2904749</LatitudeDegrees>
<LongitudeDegrees>47.8762669</LongitudeDegrees>
</Position>
<DistanceMeters>2.0</DistanceMeters>
<Extensions>
<ns3:TPX>
<ns3:Speed>1.096</ns3:Speed>
</ns3:TPX>
</Extensions>
</Trackpoint>
<Trackpoint>
<Time>2026-05-28T13:45:14Z</Time>
<Position>
<LatitudeDegrees>57.2904744</LatitudeDegrees>
<LongitudeDegrees>47.8762503</LongitudeDegrees>
</Position>
<DistanceMeters>3.0</DistanceMeters>
<Extensions>
<ns3:TPX>
<ns3:Speed>1.343</ns3:Speed>
</ns3:TPX>
</Extensions>
</Trackpoint>
<Trackpoint>
<Time>2026-05-28T13:45:16Z</Time>
<Position>
<LatitudeDegrees>57.2904752</LatitudeDegrees>
<LongitudeDegrees>47.8762118</LongitudeDegrees>
</Position>
<AltitudeMeters>105.6</AltitudeMeters>
<DistanceMeters>5.3</DistanceMeters>
<Extensions>
<ns3:TPX>
<ns3:Speed>1.326</ns3:Speed>
</ns3:TPX>
</Extensions>
</Trackpoint>
<Trackpoint>
<Time>2026-05-28T13:45:18Z</Time>
<Position>
<LatitudeDegrees>57.2904765</LatitudeDegrees>
<LongitudeDegrees>47.8761650</LongitudeDegrees>
</Position>
<AltitudeMeters>105.6</AltitudeMeters>
<DistanceMeters>8.1</DistanceMeters>
<Extensions>
<ns3:TPX>
<ns3:Speed>2.065</ns3:Speed>
</ns3:TPX>
</Extensions>
</Trackpoint>
<Trackpoint>
<Time>2026-05-28T13:45:26Z</Time>
<Position>
<LatitudeDegrees>57.2904804</LatitudeDegrees>
<LongitudeDegrees>47.8760008</LongitudeDegrees>
</Position>
<AltitudeMeters>105.4</AltitudeMeters>
<DistanceMeters>18.0</DistanceMeters>
<Extensions>
<ns3:TPX>
<ns3:Speed>1.613</ns3:Speed>
</ns3:TPX>
</Extensions>
</Trackpoint>
<Trackpoint>
<Time>2026-05-28T13:45:33Z</Time>
<Position>
<LatitudeDegrees>57.2904751</LatitudeDegrees>
<LongitudeDegrees>47.8758748</LongitudeDegrees>
</Position>
<AltitudeMeters>105.0</AltitudeMeters>
<DistanceMeters>24.1</DistanceMeters>
<Extensions>
<ns3:TPX>
<ns3:Speed>0.0</ns3:Speed>
</ns3:TPX>
</Extensions>
</Trackpoint>
<Trackpoint>
<Time>2026-05-28T13:45:34Z</Time>
<Position>
<LatitudeDegrees>57.2904775</LatitudeDegrees>
<LongitudeDegrees>47.8758678</LongitudeDegrees>
</Position>
<AltitudeMeters>105.0</AltitudeMeters>
<DistanceMeters>24.1</DistanceMeters>
<Extensions>
<ns3:TPX>
<ns3:Speed>0.0</ns3:Speed>
</ns3:TPX>
</Extensions>
</Trackpoint>
<Trackpoint>
<Time>2026-05-28T13:45:48Z</Time>
<Position>
<LatitudeDegrees>57.2904750</LatitudeDegrees>
<LongitudeDegrees>47.8756363</LongitudeDegrees>
</Position>
<AltitudeMeters>105.4</AltitudeMeters>
<DistanceMeters>38.1</DistanceMeters>
<Extensions>
<ns3:TPX>
<ns3:Speed>1.158</ns3:Speed>
</ns3:TPX>
</Extensions>
</Trackpoint>
<Trackpoint>
<Time>2026-05-28T13:45:57Z</Time>
<Position>
<LatitudeDegrees>57.2904725</LatitudeDegrees>
<LongitudeDegrees>47.8754600</LongitudeDegrees>
</Position>
<AltitudeMeters>105.4</AltitudeMeters>
<DistanceMeters>48.8</DistanceMeters>
<Extensions>
<ns3:TPX>
<ns3:Speed>2.113</ns3:Speed>
</ns3:TPX>
</Extensions>
</Trackpoint>
<Trackpoint>
<Time>2026-05-28T13:46:02Z</Time>
<Position>
<LatitudeDegrees>57.2904746</LatitudeDegrees>
<LongitudeDegrees>47.8753644</LongitudeDegrees>
</Position>
<AltitudeMeters>105.4</AltitudeMeters>
<DistanceMeters>52.0</DistanceMeters>
<Extensions>
<ns3:TPX>
<ns3:Speed>0.0</ns3:Speed>
</ns3:TPX>
</Extensions>
</Trackpoint>
<Trackpoint>
<Time>2026-05-28T13:46:14Z</Time>
<Position>
<LatitudeDegrees>57.2904665</LatitudeDegrees>
<LongitudeDegrees>47.8751346</LongitudeDegrees>
</Position>
<AltitudeMeters>105.6</AltitudeMeters>
<DistanceMeters>64.4</DistanceMeters>
<Extensions>
<ns3:TPX>
<ns3:Speed>0.901</ns3:Speed>
</ns3:TPX>
</Extensions>
</Trackpoint>
<Trackpoint>
<Time>2026-05-28T13:46:22Z</Time>
<Position>
<LatitudeDegrees>57.2904785</LatitudeDegrees>
<LongitudeDegrees>47.8750385</LongitudeDegrees>
</Position>
<AltitudeMeters>105.0</AltitudeMeters>
<DistanceMeters>67.6</DistanceMeters>
<Extensions>
<ns3:TPX>
<ns3:Speed>0.0</ns3:Speed>
</ns3:TPX>
</Extensions>
</Trackpoint>
<Trackpoint>
<Time>2026-05-28T13:46:37Z</Time>
<Position>
<LatitudeDegrees>57.2904595</LatitudeDegrees>
<LongitudeDegrees>47.8747771</LongitudeDegrees>
</Position>
<AltitudeMeters>105.4</AltitudeMeters>
<DistanceMeters>82.9</DistanceMeters>
<Extensions>
<ns3:TPX>
<ns3:Speed>1.065</ns3:Speed>
</ns3:TPX>
</Extensions>
</Trackpoint>
<Trackpoint>
<Time>2026-05-28T13:46:45Z</Time>
<Position>
<LatitudeDegrees>57.2904543</LatitudeDegrees>
<LongitudeDegrees>47.8746533</LongitudeDegrees>
</Position>
<AltitudeMeters>105.4</AltitudeMeters>
<DistanceMeters>88.8</DistanceMeters>
<Extensions>
<ns3:TPX>
<ns3:Speed>1.108</ns3:Speed>
</ns3:TPX>
</Extensions>
</Trackpoint>
<Trackpoint>
<Time>2026-05-28T13:46:51Z</Time>
<Position>
<LatitudeDegrees>57.2904448</LatitudeDegrees>
<LongitudeDegrees>47.8745687</LongitudeDegrees>
</Position>
<AltitudeMeters>105.4</AltitudeMeters>
<DistanceMeters>92.7</DistanceMeters>
<Extensions>
<ns3:TPX>
<ns3:Speed>1.143</ns3:Speed>
</ns3:TPX>
</Extensions>
</Trackpoint>
<Trackpoint>
<Time>2026-05-28T13:46:55Z</Time>
<Position>
<LatitudeDegrees>57.2903979</LatitudeDegrees>
<LongitudeDegrees>47.8745225</LongitudeDegrees>
</Position>
<AltitudeMeters>105.4</AltitudeMeters>
<DistanceMeters>97.0</DistanceMeters>
<Extensions>
<ns3:TPX>
<ns3:Speed>0.88</ns3:Speed>
</ns3:TPX>
</Extensions>
</Trackpoint>
<Trackpoint>
<Time>2026-05-28T13:47:03Z</Time>
<Position>
<LatitudeDegrees>57.2903177</LatitudeDegrees>
<LongitudeDegrees>47.8745170</LongitudeDegrees>
</Position>
<AltitudeMeters>105.6</AltitudeMeters>
<DistanceMeters>104.3</DistanceMeters>
<Extensions>
<ns3:TPX>
<ns3:Speed>1.169</ns3:Speed>
</ns3:TPX>
</Extensions>
</Trackpoint>
<Trackpoint>
<Time>2026-05-28T13:47:06Z</Time>
<Position>
<LatitudeDegrees>57.2902921</LatitudeDegrees>
<LongitudeDegrees>47.8745182</LongitudeDegrees>
</Position>
<AltitudeMeters>105.6</AltitudeMeters>
<DistanceMeters>104.3</DistanceMeters>
<Extensions>
<ns3:TPX>
<ns3:Speed>0.0</ns3:Speed>
</ns3:TPX>
</Extensions>
</Trackpoint>
<Trackpoint>
<Time>2026-05-28T13:47:14Z</Time>
<Position>
<LatitudeDegrees>57.2901855</LatitudeDegrees>
<LongitudeDegrees>47.8744957</LongitudeDegrees>
</Position>
<AltitudeMeters>105.6</AltitudeMeters>
<DistanceMeters>116.3</DistanceMeters>
<Extensions>
<ns3:TPX>
<ns3:Speed>1.09</ns3:Speed>
</ns3:TPX>
</Extensions>
</Trackpoint>
<Trackpoint>
<Time>2026-05-28T13:47:22Z</Time>
<Position>
<LatitudeDegrees>57.2900944</LatitudeDegrees>
<LongitudeDegrees>47.8744585</LongitudeDegrees>
</Position>
<AltitudeMeters>105.6</AltitudeMeters>
<DistanceMeters>124.9</DistanceMeters>
<Extensions>
<ns3:TPX>
<ns3:Speed>0.0</ns3:Speed>
</ns3:TPX>
</Extensions>
</Trackpoint>
<Trackpoint>
<Time>2026-05-28T13:47:30Z</Time>
<Position>
<LatitudeDegrees>57.2900254</LatitudeDegrees>
<LongitudeDegrees>47.8744252</LongitudeDegrees>
</Position>
<AltitudeMeters>105.8</AltitudeMeters>
<DistanceMeters>130.9</DistanceMeters>
<Extensions>
<ns3:TPX>
<ns3:Speed>0.0</ns3:Speed>
</ns3:TPX>
</Extensions>
</Trackpoint>
<Trackpoint>
<Time>2026-05-28T13:47:37Z</Time>
<Position>
<LatitudeDegrees>57.2899582</LatitudeDegrees>
<LongitudeDegrees>47.8743879</LongitudeDegrees>
</Position>
<AltitudeMeters>105.8</AltitudeMeters>
<DistanceMeters>130.9</DistanceMeters>
<Extensions>
<ns3:TPX>
<ns3:Speed>0.0</ns3:Speed>
</ns3:TPX>
</Extensions>
</Trackpoint>
<Trackpoint>
<Time>2026-05-28T13:47:46Z</Time>
<Position>
<LatitudeDegrees>57.2898829</LatitudeDegrees>
<LongitudeDegrees>47.8743049</LongitudeDegrees>
</Position>
<AltitudeMeters>105.8</AltitudeMeters>
<DistanceMeters>133.0</DistanceMeters>
<Extensions>
<ns3:TPX>
<ns3:Speed>0.941</ns3:Speed>
</ns3:TPX>
</Extensions>
</Trackpoint>
<Trackpoint>
<Time>2026-05-28T13:47:53Z</Time>
<Position>
<LatitudeDegrees>57.2898794</LatitudeDegrees>
<LongitudeDegrees>47.8741822</LongitudeDegrees>
</Position>
<AltitudeMeters>106.0</AltitudeMeters>
<DistanceMeters>139.5</DistanceMeters>
<Extensions>
<ns3:TPX>
<ns3:Speed>1.004</ns3:Speed>
</ns3:TPX>
</Extensions>
</Trackpoint>
<Trackpoint>
<Time>2026-05-28T13:47:57Z</Time>
<Position>
<LatitudeDegrees>57.2898914</LatitudeDegrees>
<LongitudeDegrees>47.8741362</LongitudeDegrees>
</Position>
<AltitudeMeters>106.0</AltitudeMeters>
<DistanceMeters>140.5</DistanceMeters>
<Extensions>
<ns3:TPX>
<ns3:Speed>0.0</ns3:Speed>
</ns3:TPX>
</Extensions>
</Trackpoint>
<Trackpoint>
<Time>2026-05-28T13:48:02Z</Time>
<Position>
<LatitudeDegrees>57.2899151</LatitudeDegrees>
<LongitudeDegrees>47.8740876</LongitudeDegrees>
</Position>
<AltitudeMeters>106.0</AltitudeMeters>
<DistanceMeters>144.4</DistanceMeters>
<Extensions>
<ns3:TPX>
<ns3:Speed>1.695</ns3:Speed>
</ns3:TPX>
</Extensions>
</Trackpoint>
<Trackpoint>
<Time>2026-05-28T13:48:09Z</Time>
<Position>
<LatitudeDegrees>57.2899770</LatitudeDegrees>
<LongitudeDegrees>47.8740415</LongitudeDegrees>
</Position>
<AltitudeMeters>106.0</AltitudeMeters>
<DistanceMeters>149.1</DistanceMeters>
<Extensions>
<ns3:TPX>
<ns3:Speed>0.0</ns3:Speed>
</ns3:TPX>
</Extensions>
</Trackpoint>
<Trackpoint>
<Time>2026-05-28T13:48:21Z</Time>
<Position>
<LatitudeDegrees>57.2900839</LatitudeDegrees>
<LongitudeDegrees>47.8738873</LongitudeDegrees>
</Position>
<AltitudeMeters>106.0</AltitudeMeters>
<DistanceMeters>162.5</DistanceMeters>
<Extensions>
<ns3:TPX>
<ns3:Speed>1.233</ns3:Speed>
</ns3:TPX>
</Extensions>
</Trackpoint>
<Trackpoint>
<Time>2026-05-28T13:48:24Z</Time>
<Position>
<LatitudeDegrees>57.2901006</LatitudeDegrees>
<LongitudeDegrees>47.8738608</LongitudeDegrees>
</Position>
<AltitudeMeters>106.0</AltitudeMeters>
<DistanceMeters>162.5</DistanceMeters>
<Extensions>
<ns3:TPX>
<ns3:Speed>0.0</ns3:Speed>
</ns3:TPX>
</Extensions>
</Trackpoint>
<Trackpoint>
<Time>2026-05-28T13:48:33Z</Time>
<Position>
<LatitudeDegrees>57.2901768</LatitudeDegrees>
<LongitudeDegrees>47.8737619</LongitudeDegrees>
</Position>
<AltitudeMeters>106.0</AltitudeMeters>
<DistanceMeters>170.4</DistanceMeters>
<Extensions>
<ns3:TPX>
<ns3:Speed>0.0</ns3:Speed>
</ns3:TPX>
</Extensions>
</Trackpoint>
<Trackpoint>
<Time>2026-05-28T13:48:43Z</Time>
<Position>
<LatitudeDegrees>57.2902624</LatitudeDegrees>
<LongitudeDegrees>47.8736727</LongitudeDegrees>
</Position>
<AltitudeMeters>105.8</AltitudeMeters>
<DistanceMeters>179.0</DistanceMeters>
<Extensions>
<ns3:TPX>
<ns3:Speed>0.0</ns3:Speed>
</ns3:TPX>
</Extensions>
</Trackpoint>
<Trackpoint>
<Time>2026-05-28T13:48:50Z</Time>
<Position>
<LatitudeDegrees>57.2903247</LatitudeDegrees>
<LongitudeDegrees>47.8735952</LongitudeDegrees>
</Position>
<AltitudeMeters>106.0</AltitudeMeters>
<DistanceMeters>179.0</DistanceMeters>
<Extensions>
<ns3:TPX>
<ns3:Speed>0.0</ns3:Speed>
</ns3:TPX>
</Extensions>
</Trackpoint>
<Trackpoint>
<Time>2026-05-28T13:48:58Z</Time>
<Position>
<LatitudeDegrees>57.2903650</LatitudeDegrees>
<LongitudeDegrees>47.8734532</LongitudeDegrees>
</Position>
<AltitudeMeters>106.0</AltitudeMeters>
<DistanceMeters>179.0</DistanceMeters>
<Extensions>
<ns3:TPX>
<ns3:Speed>0.0</ns3:Speed>
</ns3:TPX>
</Extensions>
</Trackpoint>
<Trackpoint>
<Time>2026-05-28T13:49:05Z</Time>
<Position>
<LatitudeDegrees>57.2903906</LatitudeDegrees>
<LongitudeDegrees>47.8733299</LongitudeDegrees>
</Position>
<AltitudeMeters>106.0</AltitudeMeters>
<DistanceMeters>186.9</DistanceMeters>
<Extensions>
<ns3:TPX>
<ns3:Speed>1.163</ns3:Speed>
</ns3:TPX>
</Extensions>
</Trackpoint>
<Trackpoint>
<Time>2026-05-28T13:49:13Z</Time>
<Position>
<LatitudeDegrees>57.2904109</LatitudeDegrees>
<LongitudeDegrees>47.8731760</LongitudeDegrees>
</Position>
<AltitudeMeters>105.8</AltitudeMeters>
<DistanceMeters>196.6</DistanceMeters>
<Extensions>
<ns3:TPX>
<ns3:Speed>1.161</ns3:Speed>
</ns3:TPX>
</Extensions>
</Trackpoint>
<Trackpoint>
<Time>2026-05-28T13:49:21Z</Time>
<Position>
<LatitudeDegrees>57.2904126</LatitudeDegrees>
<LongitudeDegrees>47.8730212</LongitudeDegrees>
</Position>
<AltitudeMeters>105.8</AltitudeMeters>
<DistanceMeters>205.9</DistanceMeters>
<Extensions>
<ns3:TPX>
<ns3:Speed>1.112</ns3:Speed>
</ns3:TPX>
</Extensions>
</Trackpoint>
<Trackpoint>
<Time>2026-05-28T13:49:29Z</Time>
<Position>
<LatitudeDegrees>57.2903981</LatitudeDegrees>
<LongitudeDegrees>47.8728579</LongitudeDegrees>
</Position>
<AltitudeMeters>105.8</AltitudeMeters>
<DistanceMeters>215.8</DistanceMeters>
<Extensions>
<ns3:TPX>
<ns3:Speed>1.205</ns3:Speed>
</ns3:TPX>
</Extensions>
</Trackpoint>
<Trackpoint>
<Time>2026-05-28T13:49:37Z</Time>
<Position>
<LatitudeDegrees>57.2903868</LatitudeDegrees>
<LongitudeDegrees>47.8727068</LongitudeDegrees>
</Position>
<AltitudeMeters>106.0</AltitudeMeters>
<DistanceMeters>225.0</DistanceMeters>
<Extensions>
<ns3:TPX>
<ns3:Speed>1.114</ns3:Speed>
</ns3:TPX>
</Extensions>
</Trackpoint>
<Trackpoint>
<Time>2026-05-28T13:49:46Z</Time>
<Position>
<LatitudeDegrees>57.2903664</LatitudeDegrees>
<LongitudeDegrees>47.8725126</LongitudeDegrees>
</Position>
<AltitudeMeters>106.0</AltitudeMeters>
<DistanceMeters>236.9</DistanceMeters>
<Extensions>
<ns3:TPX>
<ns3:Speed>2.626</ns3:Speed>
</ns3:TPX>
</Extensions>
</Trackpoint>
<Trackpoint>
<Time>2026-05-28T13:49:52Z</Time>
<Position>
<LatitudeDegrees>57.2903563</LatitudeDegrees>
<LongitudeDegrees>47.8723827</LongitudeDegrees>
</Position>
<AltitudeMeters>106.2</AltitudeMeters>
<DistanceMeters>242.9</DistanceMeters>
<Extensions>
<ns3:TPX>
<ns3:Speed>0.0</ns3:Speed>
</ns3:TPX>
</Extensions>
</Trackpoint>
<Trackpoint>
<Time>2026-05-28T13:50:03Z</Time>
<Position>
<LatitudeDegrees>57.2903268</LatitudeDegrees>
<LongitudeDegrees>47.8721833</LongitudeDegrees>
</Position>
<AltitudeMeters>105.6</AltitudeMeters>
<DistanceMeters>252.1</DistanceMeters>
<Extensions>
<ns3:TPX>
<ns3:Speed>0.0</ns3:Speed>
</ns3:TPX>
</Extensions>
</Trackpoint>
<Trackpoint>
<Time>2026-05-28T13:50:12Z</Time>
<Position>
<LatitudeDegrees>57.2903295</LatitudeDegrees>
<LongitudeDegrees>47.8720377</LongitudeDegrees>
</Position>
<AltitudeMeters>106.0</AltitudeMeters>
<DistanceMeters>258.5</DistanceMeters>
<Extensions>
<ns3:TPX>
<ns3:Speed>0.0</ns3:Speed>
</ns3:TPX>
</Extensions>
</Trackpoint>
<Trackpoint>
<Time>2026-05-28T13:50:20Z</Time>
<Position>
<LatitudeDegrees>57.2902897</LatitudeDegrees>
<LongitudeDegrees>47.8718787</LongitudeDegrees>
</Position>
<AltitudeMeters>106.2</AltitudeMeters>
<DistanceMeters>266.0</DistanceMeters>
<Extensions>
<ns3:TPX>
<ns3:Speed>0.0</ns3:Speed>
</ns3:TPX>
</Extensions>
</Trackpoint>
<Trackpoint>
<Time>2026-05-28T13:50:30Z</Time>
<Position>
<LatitudeDegrees>57.2902397</LatitudeDegrees>
<LongitudeDegrees>47.8717312</LongitudeDegrees>
</Position>
<AltitudeMeters>106.2</AltitudeMeters>
<DistanceMeters>274.1</DistanceMeters>
<Extensions>
<ns3:TPX>
<ns3:Speed>1.253</ns3:Speed>
</ns3:TPX>
</Extensions>
</Trackpoint>
<Trackpoint>
<Time>2026-05-28T13:50:38Z</Time>
<Position>
<LatitudeDegrees>57.2901961</LatitudeDegrees>
<LongitudeDegrees>47.8715799</LongitudeDegrees>
</Position>
<AltitudeMeters>106.2</AltitudeMeters>
<DistanceMeters>282.1</DistanceMeters>
<Extensions>
<ns3:TPX>
<ns3:Speed>0.0</ns3:Speed>
</ns3:TPX>
</Extensions>
</Trackpoint>
<Trackpoint>
<Time>2026-05-28T13:50:47Z</Time>
<Position>
<LatitudeDegrees>57.2901681</LatitudeDegrees>
<LongitudeDegrees>47.8714168</LongitudeDegrees>
</Position>
<AltitudeMeters>106.4</AltitudeMeters>
<DistanceMeters>290.0</DistanceMeters>
<Extensions>
<ns3:TPX>
<ns3:Speed>0.0</ns3:Speed>
</ns3:TPX>
</Extensions>
</Trackpoint>
<Trackpoint>
<Time>2026-05-28T13:50:56Z</Time>
<Position>
<LatitudeDegrees>57.2901423</LatitudeDegrees>
<LongitudeDegrees>47.8712684</LongitudeDegrees>
</Position>
<AltitudeMeters>106.2</AltitudeMeters>
<DistanceMeters>297.3</DistanceMeters>
<Extensions>
<ns3:TPX>
<ns3:Speed>0.0</ns3:Speed>
</ns3:TPX>
</Extensions>
</Trackpoint>
<Trackpoint>
<Time>2026-05-28T13:51:06Z</Time>
<Position>
<LatitudeDegrees>57.2901057</LatitudeDegrees>
<LongitudeDegrees>47.8710995</LongitudeDegrees>
</Position>
<AltitudeMeters>106.4</AltitudeMeters>
<DistanceMeters>306.1</DistanceMeters>
<Extensions>
<ns3:TPX>
<ns3:Speed>0.0</ns3:Speed>
</ns3:TPX>
</Extensions>
</Trackpoint>
<Trackpoint>
<Time>2026-05-28T13:51:21Z</Time>
<Position>
<LatitudeDegrees>57.2900739</LatitudeDegrees>
<LongitudeDegrees>47.8709092</LongitudeDegrees>
</Position>
<AltitudeMeters>106.4</AltitudeMeters>
<DistanceMeters>316.6</DistanceMeters>
<Extensions>
<ns3:TPX>
<ns3:Speed>0.0</ns3:Speed>
</ns3:TPX>
</Extensions>
</Trackpoint>
<Trackpoint>
<Time>2026-05-28T13:51:34Z</Time>
<Position>
<LatitudeDegrees>57.2900513</LatitudeDegrees>
<LongitudeDegrees>47.8707811</LongitudeDegrees>
</Position>
<AltitudeMeters>106.4</AltitudeMeters>
<DistanceMeters>323.0</DistanceMeters>
<Extensions>
<ns3:TPX>
<ns3:Speed>0.0</ns3:Speed>
</ns3:TPX>
</Extensions>
</Trackpoint>
<Trackpoint>
<Time>2026-05-28T13:51:43Z</Time>
<Position>
<LatitudeDegrees>57.2900276</LatitudeDegrees>
<LongitudeDegrees>47.8705606</LongitudeDegrees>
</Position>
<AltitudeMeters>106.4</AltitudeMeters>
<DistanceMeters>334.4</DistanceMeters>
<Extensions>
<ns3:TPX>
<ns3:Speed>0.0</ns3:Speed>
</ns3:TPX>
</Extensions>
</Trackpoint>
<Trackpoint>
<Time>2026-05-28T13:51:54Z</Time>
<Position>
<LatitudeDegrees>57.2900226</LatitudeDegrees>
<LongitudeDegrees>47.8703657</LongitudeDegrees>
</Position>
<AltitudeMeters>106.4</AltitudeMeters>
<DistanceMeters>342.8</DistanceMeters>
<Extensions>
<ns3:TPX>
<ns3:Speed>0.0</ns3:Speed>
</ns3:TPX>
</Extensions>
</Trackpoint>
<Trackpoint>
<Time>2026-05-28T13:52:07Z</Time>
<Position>
<LatitudeDegrees>57.2900177</LatitudeDegrees>
<LongitudeDegrees>47.8701133</LongitudeDegrees>
</Position>
<AltitudeMeters>106.0</AltitudeMeters>
<DistanceMeters>355.8</DistanceMeters>
<Extensions>
<ns3:TPX>
<ns3:Speed>1.287</ns3:Speed>
</ns3:TPX>
</Extensions>
</Trackpoint>
<Trackpoint>
<Time>2026-05-28T13:52:10Z</Time>
<Position>
<LatitudeDegrees>57.2900158</LatitudeDegrees>
<LongitudeDegrees>47.8700489</LongitudeDegrees>
</Position>
<AltitudeMeters>106.0</AltitudeMeters>
<DistanceMeters>359.7</DistanceMeters>
<Extensions>
<ns3:TPX>
<ns3:Speed>1.218</ns3:Speed>
</ns3:TPX>
</Extensions>
</Trackpoint>
<Trackpoint>
<Time>2026-05-28T13:52:18Z</Time>
<Position>
<LatitudeDegrees>57.2900258</LatitudeDegrees>
<LongitudeDegrees>47.8698867</LongitudeDegrees>
</Position>
<AltitudeMeters>105.8</AltitudeMeters>
<DistanceMeters>369.5</DistanceMeters>
<Extensions>
<ns3:TPX>
<ns3:Speed>1.196</ns3:Speed>
</ns3:TPX>
</Extensions>
</Trackpoint>
<Trackpoint>
<Time>2026-05-28T13:52:26Z</Time>
<Position>
<LatitudeDegrees>57.2900336</LatitudeDegrees>
<LongitudeDegrees>47.8697243</LongitudeDegrees>
</Position>
<AltitudeMeters>105.8</AltitudeMeters>
<DistanceMeters>379.3</DistanceMeters>
<Extensions>
<ns3:TPX>
<ns3:Speed>1.105</ns3:Speed>
</ns3:TPX>
</Extensions>
</Trackpoint>
<Trackpoint>
<Time>2026-05-28T13:52:34Z</Time>
<Position>
<LatitudeDegrees>57.2900501</LatitudeDegrees>
<LongitudeDegrees>47.8695659</LongitudeDegrees>
</Position>
<AltitudeMeters>105.6</AltitudeMeters>
<DistanceMeters>389.0</DistanceMeters>
<Extensions>
<ns3:TPX>
<ns3:Speed>1.211</ns3:Speed>
</ns3:TPX>
</Extensions>
</Trackpoint>
<Trackpoint>
<Time>2026-05-28T13:52:42Z</Time>
<Position>
<LatitudeDegrees>57.2900677</LatitudeDegrees>
<LongitudeDegrees>47.8694110</LongitudeDegrees>
</Position>
<AltitudeMeters>105.6</AltitudeMeters>
<DistanceMeters>398.5</DistanceMeters>
<Extensions>
<ns3:TPX>
<ns3:Speed>1.225</ns3:Speed>
</ns3:TPX>
</Extensions>
</Trackpoint>
<Trackpoint>
<Time>2026-05-28T13:52:48Z</Time>
<Position>
<LatitudeDegrees>57.2900837</LatitudeDegrees>
<LongitudeDegrees>47.8693223</LongitudeDegrees>
</Position>
<AltitudeMeters>106.0</AltitudeMeters>
<DistanceMeters>402.2</DistanceMeters>
<Extensions>
<ns3:TPX>
<ns3:Speed>0.0</ns3:Speed>
</ns3:TPX>
</Extensions>
</Trackpoint>
<Trackpoint>
<Time>2026-05-28T13:53:01Z</Time>
<Position>
<LatitudeDegrees>57.2900539</LatitudeDegrees>
<LongitudeDegrees>47.8690783</LongitudeDegrees>
</Position>
<AltitudeMeters>106.0</AltitudeMeters>
<DistanceMeters>416.8</DistanceMeters>
<Extensions>
<ns3:TPX>
<ns3:Speed>0.0</ns3:Speed>
</ns3:TPX>
</Extensions>
</Trackpoint>
<Trackpoint>
<Time>2026-05-28T13:53:08Z</Time>
<Position>
<LatitudeDegrees>57.2900149</LatitudeDegrees>
<LongitudeDegrees>47.8689329</LongitudeDegrees>
</Position>
<AltitudeMeters>106.2</AltitudeMeters>
<DistanceMeters>426.3</DistanceMeters>
<Extensions>
<ns3:TPX>
<ns3:Speed>1.462</ns3:Speed>
</ns3:TPX>
</Extensions>
</Trackpoint>
<Trackpoint>
<Time>2026-05-28T13:53:12Z</Time>
<Position>
<LatitudeDegrees>57.2900012</LatitudeDegrees>
<LongitudeDegrees>47.8688699</LongitudeDegrees>
</Position>
<AltitudeMeters>106.0</AltitudeMeters>
<DistanceMeters>427.9</DistanceMeters>
<Extensions>
<ns3:TPX>
<ns3:Speed>0.0</ns3:Speed>
</ns3:TPX>
</Extensions>
</Trackpoint>
<Trackpoint>
<Time>2026-05-28T13:53:22Z</Time>
<Position>
<LatitudeDegrees>57.2899550</LatitudeDegrees>
<LongitudeDegrees>47.8686993</LongitudeDegrees>
</Position>
<AltitudeMeters>105.8</AltitudeMeters>
<DistanceMeters>437.3</DistanceMeters>
<Extensions>
<ns3:TPX>
<ns3:Speed>0.0</ns3:Speed>
</ns3:TPX>
</Extensions>
</Trackpoint>
<Trackpoint>
<Time>2026-05-28T13:53:34Z</Time>
<Position>
<LatitudeDegrees>57.2898714</LatitudeDegrees>
<LongitudeDegrees>47.8684924</LongitudeDegrees>
</Position>
<AltitudeMeters>105.6</AltitudeMeters>
<DistanceMeters>452.8</DistanceMeters>
<Extensions>
<ns3:TPX>
<ns3:Speed>1.01</ns3:Speed>
</ns3:TPX>
</Extensions>
</Trackpoint>
<Trackpoint>
<Time>2026-05-28T13:53:42Z</Time>
<Position>
<LatitudeDegrees>57.2898266</LatitudeDegrees>
<LongitudeDegrees>47.8683731</LongitudeDegrees>
</Position>
<AltitudeMeters>105.8</AltitudeMeters>
<DistanceMeters>461.6</DistanceMeters>
<Extensions>
<ns3:TPX>
<ns3:Speed>1.119</ns3:Speed>
</ns3:TPX>
</Extensions>
</Trackpoint>
<Trackpoint>
<Time>2026-05-28T13:53:50Z</Time>
<Position>
<LatitudeDegrees>57.2897815</LatitudeDegrees>
<LongitudeDegrees>47.8682494</LongitudeDegrees>
</Position>
<AltitudeMeters>105.8</AltitudeMeters>
<DistanceMeters>470.6</DistanceMeters>
<Extensions>
<ns3:TPX>
<ns3:Speed>1.179</ns3:Speed>
</ns3:TPX>
</Extensions>
</Trackpoint>
<Trackpoint>
<Time>2026-05-28T13:53:58Z</Time>
<Position>
<LatitudeDegrees>57.2897461</LatitudeDegrees>
<LongitudeDegrees>47.8681179</LongitudeDegrees>
</Position>
<AltitudeMeters>105.6</AltitudeMeters>
<DistanceMeters>479.4</DistanceMeters>
<Extensions>
<ns3:TPX>
<ns3:Speed>1.192</ns3:Speed>
</ns3:TPX>
</Extensions>
</Trackpoint>
<Trackpoint>
<Time>2026-05-28T13:54:06Z</Time>
<Position>
<LatitudeDegrees>57.2897165</LatitudeDegrees>
<LongitudeDegrees>47.8679967</LongitudeDegrees>
</Position>
<AltitudeMeters>105.6</AltitudeMeters>
<DistanceMeters>486.6</DistanceMeters>
<Extensions>
<ns3:TPX>
<ns3:Speed>1.13</ns3:Speed>
</ns3:TPX>
</Extensions>
</Trackpoint>
<Trackpoint>
<Time>2026-05-28T13:54:14Z</Time>
<Position>
<LatitudeDegrees>57.2896891</LatitudeDegrees>
<LongitudeDegrees>47.8678479</LongitudeDegrees>
</Position>
<AltitudeMeters>105.6</AltitudeMeters>
<DistanceMeters>495.0</DistanceMeters>
<Extensions>
<ns3:TPX>
<ns3:Speed>1.087</ns3:Speed>
</ns3:TPX>
</Extensions>
</Trackpoint>
<Trackpoint>
<Time>2026-05-28T13:54:22Z</Time>
<Position>
<LatitudeDegrees>57.2896696</LatitudeDegrees>
<LongitudeDegrees>47.8677148</LongitudeDegrees>
</Position>
<AltitudeMeters>105.6</AltitudeMeters>
<DistanceMeters>503.3</DistanceMeters>
<Extensions>
<ns3:TPX>
<ns3:Speed>1.02</ns3:Speed>
</ns3:TPX>
</Extensions>
</Trackpoint>
<Trackpoint>
<Time>2026-05-28T13:54:30Z</Time>
<Position>
<LatitudeDegrees>57.2896480</LatitudeDegrees>
<LongitudeDegrees>47.8675759</LongitudeDegrees>
</Position>
<AltitudeMeters>105.6</AltitudeMeters>
<DistanceMeters>512.0</DistanceMeters>
<Extensions>
<ns3:TPX>
<ns3:Speed>1.013</ns3:Speed>
</ns3:TPX>
</Extensions>
</Trackpoint>
<Trackpoint>
<Time>2026-05-28T13:54:38Z</Time>
<Position>
<LatitudeDegrees>57.2896284</LatitudeDegrees>
<LongitudeDegrees>47.8674383</LongitudeDegrees>
</Position>
<AltitudeMeters>105.8</AltitudeMeters>
<DistanceMeters>520.5</DistanceMeters>
<Extensions>
<ns3:TPX>
<ns3:Speed>0.882</ns3:Speed>
</ns3:TPX>
</Extensions>
</Trackpoint>
<Trackpoint>
<Time>2026-05-28T13:54:46Z</Time>
<Position>
<LatitudeDegrees>57.2896053</LatitudeDegrees>
<LongitudeDegrees>47.8673332</LongitudeDegrees>
</Position>
<AltitudeMeters>106.0</AltitudeMeters>
<DistanceMeters>526.4</DistanceMeters>
<Extensions>
<ns3:TPX>
<ns3:Speed>0.0</ns3:Speed>
</ns3:TPX>
</Extensions>
</Trackpoint>
<Trackpoint>
<Time>2026-05-28T13:54:54Z</Time>
<Position>
<LatitudeDegrees>57.2895795</LatitudeDegrees>
<LongitudeDegrees>47.8672115</LongitudeDegrees>
</Position>
<AltitudeMeters>105.6</AltitudeMeters>
<DistanceMeters>534.2</DistanceMeters>
<Extensions>
<ns3:TPX>
<ns3:Speed>0.92</ns3:Speed>
</ns3:TPX>
</Extensions>
</Trackpoint>
<Trackpoint>
<Time>2026-05-28T13:55:02Z</Time>
<Position>
<LatitudeDegrees>57.2895616</LatitudeDegrees>
<LongitudeDegrees>47.8670737</LongitudeDegrees>
</Position>
<AltitudeMeters>105.4</AltitudeMeters>
<DistanceMeters>542.9</DistanceMeters>
<Extensions>
<ns3:TPX>
<ns3:Speed>1.106</ns3:Speed>
</ns3:TPX>
</Extensions>
</Trackpoint>
<Trackpoint>
<Time>2026-05-28T13:55:10Z</Time>
<Position>
<LatitudeDegrees>57.2895640</LatitudeDegrees>
<LongitudeDegrees>47.8669347</LongitudeDegrees>
</Position>
<AltitudeMeters>105.8</AltitudeMeters>
<DistanceMeters>551.3</DistanceMeters>
<Extensions>
<ns3:TPX>
<ns3:Speed>0.868</ns3:Speed>
</ns3:TPX>
</Extensions>
</Trackpoint>
<Trackpoint>
<Time>2026-05-28T13:55:16Z</Time>
<Position>
<LatitudeDegrees>57.2895743</LatitudeDegrees>
<LongitudeDegrees>47.8668724</LongitudeDegrees>
</Position>
<AltitudeMeters>105.6</AltitudeMeters>
<DistanceMeters>553.7</DistanceMeters>
<Extensions>
<ns3:TPX>
<ns3:Speed>1.073</ns3:Speed>
</ns3:TPX>
</Extensions>
</Trackpoint>
<Trackpoint>
<Time>2026-05-28T13:55:24Z</Time>
<Position>
<LatitudeDegrees>57.2896385</LatitudeDegrees>
<LongitudeDegrees>47.8667594</LongitudeDegrees>
</Position>
<AltitudeMeters>105.6</AltitudeMeters>
<DistanceMeters>560.4</DistanceMeters>
<Extensions>
<ns3:TPX>
<ns3:Speed>0.0</ns3:Speed>
</ns3:TPX>
</Extensions>
</Trackpoint>
<Trackpoint>
<Time>2026-05-28T13:55:26Z</Time>
<Position>
<LatitudeDegrees>57.2896491</LatitudeDegrees>
<LongitudeDegrees>47.8667478</LongitudeDegrees>
</Position>
<AltitudeMeters>105.6</AltitudeMeters>
<DistanceMeters>560.4</DistanceMeters>
<Extensions>
<ns3:TPX>
<ns3:Speed>0.0</ns3:Speed>
</ns3:TPX>
</Extensions>
</Trackpoint>
<Trackpoint>
<Time>2026-05-28T13:55:39Z</Time>
<Position>
<LatitudeDegrees>57.2897519</LatitudeDegrees>
<LongitudeDegrees>47.8666492</LongitudeDegrees>
</Position>
<AltitudeMeters>105.6</AltitudeMeters>
<DistanceMeters>569.6</DistanceMeters>
<Extensions>
<ns3:TPX>
<ns3:Speed>2.695</ns3:Speed>
</ns3:TPX>
</Extensions>
</Trackpoint>
<Trackpoint>
<Time>2026-05-28T13:55:44Z</Time>
<Position>
<LatitudeDegrees>57.2897929</LatitudeDegrees>
<LongitudeDegrees>47.8665979</LongitudeDegrees>
</Position>
<AltitudeMeters>105.6</AltitudeMeters>
<DistanceMeters>572.7</DistanceMeters>
<Extensions>
<ns3:TPX>
<ns3:Speed>0.0</ns3:Speed>
</ns3:TPX>
</Extensions>
</Trackpoint>
<Trackpoint>
<Time>2026-05-28T13:55:56Z</Time>
<Position>
<LatitudeDegrees>57.2898902</LatitudeDegrees>
<LongitudeDegrees>47.8665179</LongitudeDegrees>
</Position>
<AltitudeMeters>105.4</AltitudeMeters>
<DistanceMeters>577.4</DistanceMeters>
<Extensions>
<ns3:TPX>
<ns3:Speed>0.0</ns3:Speed>
</ns3:TPX>
</Extensions>
</Trackpoint>
<Trackpoint>
<Time>2026-05-28T13:56:07Z</Time>
<Position>
<LatitudeDegrees>57.2899767</LatitudeDegrees>
<LongitudeDegrees>47.8664355</LongitudeDegrees>
</Position>
<AltitudeMeters>105.2</AltitudeMeters>
<DistanceMeters>580.8</DistanceMeters>
<Extensions>
<ns3:TPX>
<ns3:Speed>0.0</ns3:Speed>
</ns3:TPX>
</Extensions>
</Trackpoint>
<Trackpoint>
<Time>2026-05-28T13:56:19Z</Time>
<Position>
<LatitudeDegrees>57.2900855</LatitudeDegrees>
<LongitudeDegrees>47.8663681</LongitudeDegrees>
</Position>
<AltitudeMeters>105.2</AltitudeMeters>
<DistanceMeters>586.5</DistanceMeters>
<Extensions>
<ns3:TPX>
<ns3:Speed>0.0</ns3:Speed>
</ns3:TPX>
</Extensions>
</Trackpoint>
<Trackpoint>
<Time>2026-05-28T13:56:26Z</Time>
<Position>
<LatitudeDegrees>57.2901379</LatitudeDegrees>
<LongitudeDegrees>47.8663397</LongitudeDegrees>
</Position>
<AltitudeMeters>105.2</AltitudeMeters>
<DistanceMeters>586.5</DistanceMeters>
<Extensions>
<ns3:TPX>
<ns3:Speed>0.0</ns3:Speed>
</ns3:TPX>
</Extensions>
</Trackpoint>
<Trackpoint>
<Time>2026-05-28T13:56:43Z</Time>
<Position>
<LatitudeDegrees>57.2903066</LatitudeDegrees>
<LongitudeDegrees>47.8662927</LongitudeDegrees>
</Position>
<AltitudeMeters>105.4</AltitudeMeters>
<DistanceMeters>592.0</DistanceMeters>
<Extensions>
<ns3:TPX>
<ns3:Speed>2.101</ns3:Speed>
</ns3:TPX>
</Extensions>
</Trackpoint>
<Trackpoint>
<Time>2026-05-28T13:56:45Z</Time>
<Position>
<LatitudeDegrees>57.2903385</LatitudeDegrees>
<LongitudeDegrees>47.8662853</LongitudeDegrees>
</Position>
<AltitudeMeters>105.4</AltitudeMeters>
<DistanceMeters>595.5</DistanceMeters>
<Extensions>
<ns3:TPX>
<ns3:Speed>2.887</ns3:Speed>
</ns3:TPX>
</Extensions>
</Trackpoint>
<Trackpoint>
<Time>2026-05-28T13:56:50Z</Time>
<Position>
<LatitudeDegrees>57.2904014</LatitudeDegrees>
<LongitudeDegrees>47.8662423</LongitudeDegrees>
</Position>
<AltitudeMeters>105.4</AltitudeMeters>
<DistanceMeters>599.9</DistanceMeters>
<Extensions>
<ns3:TPX>
<ns3:Speed>0.0</ns3:Speed>
</ns3:TPX>
</Extensions>
</Trackpoint>
<Trackpoint>
<Time>2026-05-28T13:57:01Z</Time>
<Position>
<LatitudeDegrees>57.2905072</LatitudeDegrees>
<LongitudeDegrees>47.8661616</LongitudeDegrees>
</Position>
<AltitudeMeters>105.2</AltitudeMeters>
<DistanceMeters>610.3</DistanceMeters>
<Extensions>
<ns3:TPX>
<ns3:Speed>0.0</ns3:Speed>
</ns3:TPX>
</Extensions>
</Trackpoint>
<Trackpoint>
<Time>2026-05-28T13:57:10Z</Time>
<Position>
<LatitudeDegrees>57.2906029</LatitudeDegrees>
<LongitudeDegrees>47.8660795</LongitudeDegrees>
</Position>
<AltitudeMeters>105.4</AltitudeMeters>
<DistanceMeters>619.6</DistanceMeters>
<Extensions>
<ns3:TPX>
<ns3:Speed>0.0</ns3:Speed>
</ns3:TPX>
</Extensions>
</Trackpoint>
<Trackpoint>
<Time>2026-05-28T13:57:20Z</Time>
<Position>
<LatitudeDegrees>57.2906710</LatitudeDegrees>
<LongitudeDegrees>47.8660202</LongitudeDegrees>
</Position>
<AltitudeMeters>105.4</AltitudeMeters>
<DistanceMeters>626.1</DistanceMeters>
<Extensions>
<ns3:TPX>
<ns3:Speed>0.0</ns3:Speed>
</ns3:TPX>
</Extensions>
</Trackpoint>
<Trackpoint>
<Time>2026-05-28T13:57:31Z</Time>
<Position>
<LatitudeDegrees>57.2907783</LatitudeDegrees>
<LongitudeDegrees>47.8658910</LongitudeDegrees>
</Position>
<AltitudeMeters>105.4</AltitudeMeters>
<DistanceMeters>638.1</DistanceMeters>
<Extensions>
<ns3:TPX>
<ns3:Speed>1.816</ns3:Speed>
</ns3:TPX>
</Extensions>
</Trackpoint>
<Trackpoint>
<Time>2026-05-28T13:57:39Z</Time>
<Position>
<LatitudeDegrees>57.2908224</LatitudeDegrees>
<LongitudeDegrees>47.8657604</LongitudeDegrees>
</Position>
<AltitudeMeters>105.4</AltitudeMeters>
<DistanceMeters>645.5</DistanceMeters>
<Extensions>
<ns3:TPX>
<ns3:Speed>0.0</ns3:Speed>
</ns3:TPX>
</Extensions>
</Trackpoint>
<Trackpoint>
<Time>2026-05-28T13:57:51Z</Time>
<Position>
<LatitudeDegrees>57.2909501</LatitudeDegrees>
<LongitudeDegrees>47.8656727</LongitudeDegrees>
</Position>
<AltitudeMeters>105.2</AltitudeMeters>
<DistanceMeters>658.8</DistanceMeters>
<Extensions>
<ns3:TPX>
<ns3:Speed>0.0</ns3:Speed>
</ns3:TPX>
</Extensions>
</Trackpoint>
<Trackpoint>
<Time>2026-05-28T13:58:00Z</Time>
<Position>
<LatitudeDegrees>57.2910381</LatitudeDegrees>
<LongitudeDegrees>47.8656005</LongitudeDegrees>
</Position>
<AltitudeMeters>105.4</AltitudeMeters>
<DistanceMeters>667.1</DistanceMeters>
<Extensions>
<ns3:TPX>
<ns3:Speed>0.0</ns3:Speed>
</ns3:TPX>
</Extensions>
</Trackpoint>
<Trackpoint>
<Time>2026-05-28T13:58:08Z</Time>
<Position>
<LatitudeDegrees>57.2911237</LatitudeDegrees>
<LongitudeDegrees>47.8655063</LongitudeDegrees>
</Position>
<AltitudeMeters>105.4</AltitudeMeters>
<DistanceMeters>675.3</DistanceMeters>
<Extensions>
<ns3:TPX>
<ns3:Speed>0.0</ns3:Speed>
</ns3:TPX>
</Extensions>
</Trackpoint>
<Trackpoint>
<Time>2026-05-28T13:58:16Z</Time>
<Position>
<LatitudeDegrees>57.2911891</LatitudeDegrees>
<LongitudeDegrees>47.8654138</LongitudeDegrees>
</Position>
<AltitudeMeters>105.4</AltitudeMeters>
<DistanceMeters>681.9</DistanceMeters>
<Extensions>
<ns3:TPX>
<ns3:Speed>0.0</ns3:Speed>
</ns3:TPX>
</Extensions>
</Trackpoint>
<Trackpoint>
<Time>2026-05-28T13:58:24Z</Time>
<Position>
<LatitudeDegrees>57.2912592</LatitudeDegrees>
<LongitudeDegrees>47.8653242</LongitudeDegrees>
</Position>
<AltitudeMeters>105.4</AltitudeMeters>
<DistanceMeters>688.6</DistanceMeters>
<Extensions>
<ns3:TPX>
<ns3:Speed>0.0</ns3:Speed>
</ns3:TPX>
</Extensions>
</Trackpoint>
<Trackpoint>
<Time>2026-05-28T13:58:32Z</Time>
<Position>
<LatitudeDegrees>57.2913375</LatitudeDegrees>
<LongitudeDegrees>47.8652457</LongitudeDegrees>
</Position>
<AltitudeMeters>105.4</AltitudeMeters>
<DistanceMeters>695.3</DistanceMeters>
<Extensions>
<ns3:TPX>
<ns3:Speed>0.0</ns3:Speed>
</ns3:TPX>
</Extensions>
</Trackpoint>
<Trackpoint>
<Time>2026-05-28T13:58:44Z</Time>
<Position>
<LatitudeDegrees>57.2914592</LatitudeDegrees>
<LongitudeDegrees>47.8651633</LongitudeDegrees>
</Position>
<AltitudeMeters>105.4</AltitudeMeters>
<DistanceMeters>708.0</DistanceMeters>
<Extensions>
<ns3:TPX>
<ns3:Speed>1.662</ns3:Speed>
</ns3:TPX>
</Extensions>
</Trackpoint>
<Trackpoint>
<Time>2026-05-28T13:58:52Z</Time>
<Position>
<LatitudeDegrees>57.2915533</LatitudeDegrees>
<LongitudeDegrees>47.8651331</LongitudeDegrees>
</Position>
<AltitudeMeters>105.4</AltitudeMeters>
<DistanceMeters>716.3</DistanceMeters>
<Extensions>
<ns3:TPX>
<ns3:Speed>0.0</ns3:Speed>
</ns3:TPX>
</Extensions>
</Trackpoint>
<Trackpoint>
<Time>2026-05-28T13:59:00Z</Time>
<Position>
<LatitudeDegrees>57.2916407</LatitudeDegrees>
<LongitudeDegrees>47.8650886</LongitudeDegrees>
</Position>
<AltitudeMeters>105.2</AltitudeMeters>
<DistanceMeters>723.3</DistanceMeters>
<Extensions>
<ns3:TPX>
<ns3:Speed>0.0</ns3:Speed>
</ns3:TPX>
</Extensions>
</Trackpoint>
<Trackpoint>
<Time>2026-05-28T13:59:11Z</Time>
<Position>
<LatitudeDegrees>57.2917028</LatitudeDegrees>
<LongitudeDegrees>47.8650546</LongitudeDegrees>
</Position>
<AltitudeMeters>105.0</AltitudeMeters>
<DistanceMeters>730.6</DistanceMeters>
<Extensions>
<ns3:TPX>
<ns3:Speed>0.0</ns3:Speed>
</ns3:TPX>
</Extensions>
</Trackpoint>
<Trackpoint>
<Time>2026-05-28T13:59:25Z</Time>
<Position>
<LatitudeDegrees>57.2918052</LatitudeDegrees>
<LongitudeDegrees>47.8650074</LongitudeDegrees>
</Position>
<AltitudeMeters>105.0</AltitudeMeters>
<DistanceMeters>739.3</DistanceMeters>
<Extensions>
<ns3:TPX>
<ns3:Speed>0.0</ns3:Speed>
</ns3:TPX>
</Extensions>
</Trackpoint>
<Trackpoint>
<Time>2026-05-28T13:59:37Z</Time>
<Position>
<LatitudeDegrees>57.2919080</LatitudeDegrees>
<LongitudeDegrees>47.8649404</LongitudeDegrees>
</Position>
<AltitudeMeters>105.0</AltitudeMeters>
<DistanceMeters>748.2</DistanceMeters>
<Extensions>
<ns3:TPX>
<ns3:Speed>0.0</ns3:Speed>
</ns3:TPX>
</Extensions>
</Trackpoint>
<Trackpoint>
<Time>2026-05-28T13:59:41Z</Time>
<Position>
<LatitudeDegrees>57.2919074</LatitudeDegrees>
<LongitudeDegrees>47.8649105</LongitudeDegrees>
</Position>
<AltitudeMeters>105.0</AltitudeMeters>
<DistanceMeters>748.9</DistanceMeters>
<Extensions>
<ns3:TPX>
<ns3:Speed>0.0</ns3:Speed>
</ns3:TPX>
</Extensions>
</Trackpoint>
<Trackpoint>
<Time>2026-05-28T14:00:01Z</Time>
<Position>
<LatitudeDegrees>57.2920645</LatitudeDegrees>
<LongitudeDegrees>47.8648884</LongitudeDegrees>
</Position>
<AltitudeMeters>105.2</AltitudeMeters>
<DistanceMeters>766.5</DistanceMeters>
<Extensions>
<ns3:TPX>
<ns3:Speed>1.671</ns3:Speed>
</ns3:TPX>
</Extensions>
</Trackpoint>
<Trackpoint>
<Time>2026-05-28T14:00:09Z</Time>
<Position>
<LatitudeDegrees>57.2921478</LatitudeDegrees>
<LongitudeDegrees>47.8649207</LongitudeDegrees>
</Position>
<AltitudeMeters>105.2</AltitudeMeters>
<DistanceMeters>774.1</DistanceMeters>
<Extensions>
<ns3:TPX>
<ns3:Speed>1.885</ns3:Speed>
</ns3:TPX>
</Extensions>
</Trackpoint>
<Trackpoint>
<Time>2026-05-28T14:00:17Z</Time>
<Position>
<LatitudeDegrees>57.2922342</LatitudeDegrees>
<LongitudeDegrees>47.8649716</LongitudeDegrees>
</Position>
<AltitudeMeters>105.0</AltitudeMeters>
<DistanceMeters>783.3</DistanceMeters>
<Extensions>
<ns3:TPX>
<ns3:Speed>2.026</ns3:Speed>
</ns3:TPX>
</Extensions>
</Trackpoint>
<Trackpoint>
<Time>2026-05-28T14:00:24Z</Time>
<Position>
<LatitudeDegrees>57.2923171</LatitudeDegrees>
<LongitudeDegrees>47.8650582</LongitudeDegrees>
</Position>
<AltitudeMeters>104.6</AltitudeMeters>
<DistanceMeters>791.2</DistanceMeters>
<Extensions>
<ns3:TPX>
<ns3:Speed>0.0</ns3:Speed>
</ns3:TPX>
</Extensions>
</Trackpoint>
<Trackpoint>
<Time>2026-05-28T14:00:33Z</Time>
<Position>
<LatitudeDegrees>57.2924000</LatitudeDegrees>
<LongitudeDegrees>47.8651648</LongitudeDegrees>
</Position>
<AltitudeMeters>104.6</AltitudeMeters>
<DistanceMeters>800.0</DistanceMeters>
<Extensions>
<ns3:TPX>
<ns3:Speed>0.0</ns3:Speed>
</ns3:TPX>
</Extensions>
</Trackpoint>
<Trackpoint>
<Time>2026-05-28T14:00:41Z</Time>
<Position>
<LatitudeDegrees>57.2924575</LatitudeDegrees>
<LongitudeDegrees>47.8652379</LongitudeDegrees>
</Position>
<AltitudeMeters>104.4</AltitudeMeters>
<DistanceMeters>805.7</DistanceMeters>
<Extensions>
<ns3:TPX>
<ns3:Speed>0.0</ns3:Speed>
</ns3:TPX>
</Extensions>
</Trackpoint>
<Trackpoint>
<Time>2026-05-28T14:00:51Z</Time>
<Position>
<LatitudeDegrees>57.2925755</LatitudeDegrees>
<LongitudeDegrees>47.8652899</LongitudeDegrees>
</Position>
<AltitudeMeters>104.0</AltitudeMeters>
<DistanceMeters>819.3</DistanceMeters>
<Extensions>
<ns3:TPX>
<ns3:Speed>1.126</ns3:Speed>
</ns3:TPX>
</Extensions>
</Trackpoint>
<Trackpoint>
<Time>2026-05-28T14:00:59Z</Time>
<Position>
<LatitudeDegrees>57.2926625</LatitudeDegrees>
<LongitudeDegrees>47.8652568</LongitudeDegrees>
</Position>
<AltitudeMeters>104.4</AltitudeMeters>
<DistanceMeters>829.2</DistanceMeters>
<Extensions>
<ns3:TPX>
<ns3:Speed>1.178</ns3:Speed>
</ns3:TPX>
</Extensions>
</Trackpoint>
<Trackpoint>
<Time>2026-05-28T14:01:02Z</Time>
<Position>
<LatitudeDegrees>57.2926849</LatitudeDegrees>
<LongitudeDegrees>47.8652409</LongitudeDegrees>
</Position>
<AltitudeMeters>104.4</AltitudeMeters>
<DistanceMeters>829.2</DistanceMeters>
<Extensions>
<ns3:TPX>
<ns3:Speed>0.0</ns3:Speed>
</ns3:TPX>
</Extensions>
</Trackpoint>
<Trackpoint>
<Time>2026-05-28T14:01:14Z</Time>
<Position>
<LatitudeDegrees>57.2928156</LatitudeDegrees>
<LongitudeDegrees>47.8652380</LongitudeDegrees>
</Position>
<AltitudeMeters>104.4</AltitudeMeters>
<DistanceMeters>841.7</DistanceMeters>
<Extensions>
<ns3:TPX>
<ns3:Speed>1.609</ns3:Speed>
</ns3:TPX>
</Extensions>
</Trackpoint>
<Trackpoint>
<Time>2026-05-28T14:01:22Z</Time>
<Position>
<LatitudeDegrees>57.2929002</LatitudeDegrees>
<LongitudeDegrees>47.8652551</LongitudeDegrees>
</Position>
<AltitudeMeters>104.4</AltitudeMeters>
<DistanceMeters>848.8</DistanceMeters>
<Extensions>
<ns3:TPX>
<ns3:Speed>1.358</ns3:Speed>
</ns3:TPX>
</Extensions>
</Trackpoint>
<Trackpoint>
<Time>2026-05-28T14:01:25Z</Time>
<Position>
<LatitudeDegrees>57.2929195</LatitudeDegrees>
<LongitudeDegrees>47.8652585</LongitudeDegrees>
</Position>
<AltitudeMeters>104.4</AltitudeMeters>
<DistanceMeters>848.8</DistanceMeters>
<Extensions>
<ns3:TPX>
<ns3:Speed>0.0</ns3:Speed>
</ns3:TPX>
</Extensions>
</Trackpoint>
<Trackpoint>
<Time>2026-05-28T14:01:36Z</Time>
<Position>
<LatitudeDegrees>57.2930010</LatitudeDegrees>
<LongitudeDegrees>47.8652614</LongitudeDegrees>
</Position>
<AltitudeMeters>104.6</AltitudeMeters>
<DistanceMeters>858.0</DistanceMeters>
<Extensions>
<ns3:TPX>
<ns3:Speed>1.057</ns3:Speed>
</ns3:TPX>
</Extensions>
</Trackpoint>
<Trackpoint>
<Time>2026-05-28T14:01:42Z</Time>
<Position>
<LatitudeDegrees>57.2930286</LatitudeDegrees>
<LongitudeDegrees>47.8651949</LongitudeDegrees>
</Position>
<AltitudeMeters>104.8</AltitudeMeters>
<DistanceMeters>859.0</DistanceMeters>
<Extensions>
<ns3:TPX>
<ns3:Speed>0.0</ns3:Speed>
</ns3:TPX>
</Extensions>
</Trackpoint>
</Track>
</Lap>
</Activity>
</Activities>
</TrainingCenterDatabase>