<?xml version="1.0" encoding="UTF-8"?>
<gpx creator="IGPSPORT" xmlns:xsi="http://www.w3.org/2001/XMLSchema-instance" schemaLocation="http://www.topografix.com/GPX/1/1 http://www.topografix.com/GPX/1/1/gpx.xsd" version="1.1" xmlns="http://www.topografix.com/GPX/1/1">
  <metadata>
    <time>2026-05-28T16:40:27.000Z</time>
    <link href="https://www.igpsport.cn/">
      <text>Велоспорт на свежем воздухе</text>
    </link>
  </metadata>
  <trk>
    <name>Велоспорт на свежем воздухе</name>
    <trkseg>
      <trkpt lat="57.29047489352524" lon="47.87626692093909">
        <ele>0</ele>
        <time>2026-05-28T16:45:13.000Z</time>
      </trkpt>
      <trkpt lat="57.29047522880137" lon="47.87621176801622">
        <ele>105.6</ele>
        <time>2026-05-28T16:45:16.000Z</time>
      </trkpt>
      <trkpt lat="57.290480425581336" lon="47.87600079551339">
        <ele>105.4</ele>
        <time>2026-05-28T16:45:26.000Z</time>
      </trkpt>
      <trkpt lat="57.290477491915226" lon="47.87586777471006">
        <ele>105</ele>
        <time>2026-05-28T16:45:34.000Z</time>
      </trkpt>
      <trkpt lat="57.29047246277332" lon="47.875459995120764">
        <ele>105.4</ele>
        <time>2026-05-28T16:45:57.000Z</time>
      </trkpt>
      <trkpt lat="57.29046651162207" lon="47.875134609639645">
        <ele>105.6</ele>
        <time>2026-05-28T16:46:14.000Z</time>
      </trkpt>
      <trkpt lat="57.29045947082341" lon="47.87477712146938">
        <ele>105.4</ele>
        <time>2026-05-28T16:46:37.000Z</time>
      </trkpt>
      <trkpt lat="57.29044480249286" lon="47.8745686635375">
        <ele>105.4</ele>
        <time>2026-05-28T16:46:51.000Z</time>
      </trkpt>
      <trkpt lat="57.290317732840776" lon="47.874517031013966">
        <ele>105.6</ele>
        <time>2026-05-28T16:47:03.000Z</time>
      </trkpt>
      <trkpt lat="57.29018546640873" lon="47.87449565716088">
        <ele>105.6</ele>
        <time>2026-05-28T16:47:14.000Z</time>
      </trkpt>
      <trkpt lat="57.29002537205815" lon="47.874425165355206">
        <ele>105.8</ele>
        <time>2026-05-28T16:47:30.000Z</time>
      </trkpt>
      <trkpt lat="57.28988287970424" lon="47.874304885044694">
        <ele>105.8</ele>
        <time>2026-05-28T16:47:46.000Z</time>
      </trkpt>
      <trkpt lat="57.28989142924547" lon="47.87413615733385">
        <ele>106</ele>
        <time>2026-05-28T16:47:57.000Z</time>
      </trkpt>
      <trkpt lat="57.28997700847685" lon="47.874041525647044">
        <ele>106</ele>
        <time>2026-05-28T16:48:09.000Z</time>
      </trkpt>
      <trkpt lat="57.2901005577296" lon="47.873860811814666">
        <ele>106</ele>
        <time>2026-05-28T16:48:24.000Z</time>
      </trkpt>
      <trkpt lat="57.290262412279844" lon="47.8736727219075">
        <ele>105.8</ele>
        <time>2026-05-28T16:48:43.000Z</time>
      </trkpt>
      <trkpt lat="57.290365006774664" lon="47.873453199863434">
        <ele>106</ele>
        <time>2026-05-28T16:48:58.000Z</time>
      </trkpt>
      <trkpt lat="57.29041085578501" lon="47.87317601032555">
        <ele>105.8</ele>
        <time>2026-05-28T16:49:13.000Z</time>
      </trkpt>
      <trkpt lat="57.29039811529219" lon="47.87285791710019">
        <ele>105.8</ele>
        <time>2026-05-28T16:49:29.000Z</time>
      </trkpt>
      <trkpt lat="57.2903664316982" lon="47.872512582689524">
        <ele>106</ele>
        <time>2026-05-28T16:49:46.000Z</time>
      </trkpt>
      <trkpt lat="57.2903267852962" lon="47.872183257713914">
        <ele>105.6</ele>
        <time>2026-05-28T16:50:03.000Z</time>
      </trkpt>
      <trkpt lat="57.29028965346515" lon="47.87187865935266">
        <ele>106.2</ele>
        <time>2026-05-28T16:50:20.000Z</time>
      </trkpt>
      <trkpt lat="57.29019611142576" lon="47.87157992832363">
        <ele>106.2</ele>
        <time>2026-05-28T16:50:38.000Z</time>
      </trkpt>
      <trkpt lat="57.290142299607396" lon="47.87126837298274">
        <ele>106.2</ele>
        <time>2026-05-28T16:50:56.000Z</time>
      </trkpt>
      <trkpt lat="57.290073903277516" lon="47.87090920843184">
        <ele>106.4</ele>
        <time>2026-05-28T16:51:21.000Z</time>
      </trkpt>
      <trkpt lat="57.29002763517201" lon="47.870560605078936">
        <ele>106.4</ele>
        <time>2026-05-28T16:51:43.000Z</time>
      </trkpt>
      <trkpt lat="57.290017660707235" lon="47.87011326290667">
        <ele>106</ele>
        <time>2026-05-28T16:52:07.000Z</time>
      </trkpt>
      <trkpt lat="57.29002579115331" lon="47.869886700063944">
        <ele>105.8</ele>
        <time>2026-05-28T16:52:18.000Z</time>
      </trkpt>
      <trkpt lat="57.29005009867251" lon="47.86956592462957">
        <ele>105.6</ele>
        <time>2026-05-28T16:52:34.000Z</time>
      </trkpt>
      <trkpt lat="57.29008371010423" lon="47.86932226270437">
        <ele>106</ele>
        <time>2026-05-28T16:52:48.000Z</time>
      </trkpt>
      <trkpt lat="57.29001489467919" lon="47.868932923302054">
        <ele>106.2</ele>
        <time>2026-05-28T16:53:08.000Z</time>
      </trkpt>
      <trkpt lat="57.28995496407151" lon="47.868699319660664">
        <ele>105.8</ele>
        <time>2026-05-28T16:53:22.000Z</time>
      </trkpt>
      <trkpt lat="57.289826553314924" lon="47.86837309598923">
        <ele>105.8</ele>
        <time>2026-05-28T16:53:42.000Z</time>
      </trkpt>
      <trkpt lat="57.28974608704448" lon="47.868117867037654">
        <ele>105.6</ele>
        <time>2026-05-28T16:53:58.000Z</time>
      </trkpt>
      <trkpt lat="57.28968909010291" lon="47.8678478859365">
        <ele>105.6</ele>
        <time>2026-05-28T16:54:14.000Z</time>
      </trkpt>
      <trkpt lat="57.28964801877737" lon="47.86757589317858">
        <ele>105.6</ele>
        <time>2026-05-28T16:54:30.000Z</time>
      </trkpt>
      <trkpt lat="57.289605271071196" lon="47.867333237081766">
        <ele>106</ele>
        <time>2026-05-28T16:54:46.000Z</time>
      </trkpt>
      <trkpt lat="57.28956160135567" lon="47.867073733359575">
        <ele>105.4</ele>
        <time>2026-05-28T16:55:02.000Z</time>
      </trkpt>
      <trkpt lat="57.28957425802946" lon="47.866872400045395">
        <ele>105.6</ele>
        <time>2026-05-28T16:55:16.000Z</time>
      </trkpt>
      <trkpt lat="57.28964910842478" lon="47.866747761145234">
        <ele>105.6</ele>
        <time>2026-05-28T16:55:26.000Z</time>
      </trkpt>
      <trkpt lat="57.289792858064175" lon="47.86659789271653">
        <ele>105.6</ele>
        <time>2026-05-28T16:55:44.000Z</time>
      </trkpt>
      <trkpt lat="57.28997667320073" lon="47.866435535252094">
        <ele>105.2</ele>
        <time>2026-05-28T16:56:07.000Z</time>
      </trkpt>
      <trkpt lat="57.290137857198715" lon="47.866339730098844">
        <ele>105.2</ele>
        <time>2026-05-28T16:56:26.000Z</time>
      </trkpt>
      <trkpt lat="57.29033851996064" lon="47.86628533154726">
        <ele>105.4</ele>
        <time>2026-05-28T16:56:45.000Z</time>
      </trkpt>
      <trkpt lat="57.29050716385245" lon="47.86616161465645">
        <ele>105.2</ele>
        <time>2026-05-28T16:57:01.000Z</time>
      </trkpt>
      <trkpt lat="57.29067103005946" lon="47.866020211949944">
        <ele>105.4</ele>
        <time>2026-05-28T16:57:20.000Z</time>
      </trkpt>
      <trkpt lat="57.290822407230735" lon="47.86576037295163">
        <ele>105.4</ele>
        <time>2026-05-28T16:57:39.000Z</time>
      </trkpt>
      <trkpt lat="57.29103807359934" lon="47.865600530058146">
        <ele>105.4</ele>
        <time>2026-05-28T16:58:00.000Z</time>
      </trkpt>
      <trkpt lat="57.29118911549449" lon="47.865413781255484">
        <ele>105.4</ele>
        <time>2026-05-28T16:58:16.000Z</time>
      </trkpt>
      <trkpt lat="57.291337475180626" lon="47.865245724096894">
        <ele>105.4</ele>
        <time>2026-05-28T16:58:32.000Z</time>
      </trkpt>
      <trkpt lat="57.29155330918729" lon="47.86513307131827">
        <ele>105.4</ele>
        <time>2026-05-28T16:58:52.000Z</time>
      </trkpt>
      <trkpt lat="57.29170275852084" lon="47.86505461670458">
        <ele>105</ele>
        <time>2026-05-28T16:59:11.000Z</time>
      </trkpt>
      <trkpt lat="57.29190803132951" lon="47.864940371364355">
        <ele>105</ele>
        <time>2026-05-28T16:59:37.000Z</time>
      </trkpt>
      <trkpt lat="57.292064521461725" lon="47.86488840356469">
        <ele>105.2</ele>
        <time>2026-05-28T17:00:01.000Z</time>
      </trkpt>
      <trkpt lat="57.29223417118192" lon="47.864971635863185">
        <ele>105</ele>
        <time>2026-05-28T17:00:17.000Z</time>
      </trkpt>
      <trkpt lat="57.29239996522665" lon="47.86516475491226">
        <ele>104.6</ele>
        <time>2026-05-28T17:00:33.000Z</time>
      </trkpt>
      <trkpt lat="57.29257548227906" lon="47.86528989672661">
        <ele>104</ele>
        <time>2026-05-28T17:00:51.000Z</time>
      </trkpt>
      <trkpt lat="57.29268486611545" lon="47.865240862593055">
        <ele>104.4</ele>
        <time>2026-05-28T17:01:02.000Z</time>
      </trkpt>
      <trkpt lat="57.29290019720793" lon="47.865255111828446">
        <ele>104.4</ele>
        <time>2026-05-28T17:01:22.000Z</time>
      </trkpt>
      <trkpt lat="57.29300103150308" lon="47.865261398255825">
        <ele>104.6</ele>
        <time>2026-05-28T17:01:36.000Z</time>
      </trkpt>
    </trkseg>
  </trk>
</gpx>