<?xml version="1.0" encoding="UTF-8" standalone="no" ?><gpx xmlns="http://www.topografix.com/GPX/1/1" xmlns:gpxx="http://www.garmin.com/xmlschemas/GpxExtensions/v3" xmlns:gpxtrkx="http://www.garmin.com/xmlschemas/TrackStatsExtension/v1" xmlns:wptx1="http://www.garmin.com/xmlschemas/WaypointExtension/v1" xmlns:gpxtpx="http://www.garmin.com/xmlschemas/TrackPointExtension/v1" creator="eTrex Touch 35t" version="1.1" xmlns:xsi="http://www.w3.org/2001/XMLSchema-instance" xsi:schemaLocation="http://www.topografix.com/GPX/1/1 http://www.topografix.com/GPX/1/1/gpx.xsd http://www.garmin.com/xmlschemas/GpxExtensions/v3 http://www8.garmin.com/xmlschemas/GpxExtensionsv3.xsd http://www.garmin.com/xmlschemas/TrackStatsExtension/v1 http://www8.garmin.com/xmlschemas/TrackStatsExtension.xsd http://www.garmin.com/xmlschemas/WaypointExtension/v1 http://www8.garmin.com/xmlschemas/WaypointExtensionv1.xsd http://www.garmin.com/xmlschemas/TrackPointExtension/v1 http://www.garmin.com/xmlschemas/TrackPointExtensionv1.xsd"><metadata><link href="http://www.garmin.com"><text>Garmin International</text></link><time>2018-08-13T15:04:08Z</time></metadata><trk><name>1 День</name><extensions><gpxx:TrackExtension><gpxx:DisplayColor>Cyan</gpxx:DisplayColor></gpxx:TrackExtension><gpxtrkx:TrackStatsExtension><gpxtrkx:Distance>43386.000</gpxtrkx:Distance><gpxtrkx:TimerTime>16704</gpxtrkx:TimerTime><gpxtrkx:TotalElapsedTime>171680</gpxtrkx:TotalElapsedTime><gpxtrkx:MovingTime>11169</gpxtrkx:MovingTime><gpxtrkx:StoppedTime>5537</gpxtrkx:StoppedTime><gpxtrkx:MovingSpeed>3.885</gpxtrkx:MovingSpeed><gpxtrkx:MaxSpeed>12.633</gpxtrkx:MaxSpeed><gpxtrkx:MaxElevation>226.204</gpxtrkx:MaxElevation><gpxtrkx:MinElevation>96.741</gpxtrkx:MinElevation><gpxtrkx:Ascent>197.000</gpxtrkx:Ascent><gpxtrkx:Descent>192.412</gpxtrkx:Descent><gpxtrkx:AvgAscentRate>0.033</gpxtrkx:AvgAscentRate><gpxtrkx:MaxAscentRate>0.140</gpxtrkx:MaxAscentRate><gpxtrkx:AvgDescentRate>0.028</gpxtrkx:AvgDescentRate><gpxtrkx:MaxDescentRate>-0.541</gpxtrkx:MaxDescentRate><gpxtrkx:Calories>671</gpxtrkx:Calories></gpxtrkx:TrackStatsExtension></extensions><trkseg><trkpt lat="57.2916089650" lon="47.8788608685"><ele>98.00</ele><time>2018-08-11T15:22:48Z</time><extensions><gpxtpx:TrackPointExtension><gpxtpx:depth>0.00</gpxtpx:depth></gpxtpx:TrackPointExtension></extensions></trkpt><trkpt lat="57.2916101385" lon="47.8789516445"><ele>98.06</ele><time>2018-08-11T15:23:53Z</time><extensions><gpxtpx:TrackPointExtension><gpxtpx:depth>0.00</gpxtpx:depth></gpxtpx:TrackPointExtension></extensions></trkpt><trkpt lat="57.2819846962" lon="47.8863508534"><ele>166.71</ele><time>2018-08-13T10:26:28Z</time><extensions><gpxtpx:TrackPointExtension><gpxtpx:depth>0.00</gpxtpx:depth></gpxtpx:TrackPointExtension></extensions></trkpt><trkpt lat="57.2811061051" lon="47.8859419841"><ele>170.64</ele><time>2018-08-13T10:26:59Z</time><extensions><gpxtpx:TrackPointExtension><gpxtpx:depth>0.00</gpxtpx:depth></gpxtpx:TrackPointExtension></extensions></trkpt><trkpt lat="57.2802062239" lon="47.8858903516"><ele>173.86</ele><time>2018-08-13T10:27:31Z</time><extensions><gpxtpx:TrackPointExtension><gpxtpx:depth>0.00</gpxtpx:depth></gpxtpx:TrackPointExtension></extensions></trkpt><trkpt lat="57.2793004755" lon="47.8859444149"><ele>177.00</ele><time>2018-08-13T10:28:06Z</time><extensions><gpxtpx:TrackPointExtension><gpxtpx:depth>0.00</gpxtpx:depth></gpxtpx:TrackPointExtension></extensions></trkpt><trkpt lat="57.2783733532" lon="47.8859409783"><ele>179.81</ele><time>2018-08-13T10:28:41Z</time><extensions><gpxtpx:TrackPointExtension><gpxtpx:depth>0.00</gpxtpx:depth></gpxtpx:TrackPointExtension></extensions></trkpt><trkpt lat="57.2774598934" lon="47.8856457677"><ele>181.23</ele><time>2018-08-13T10:29:11Z</time><extensions><gpxtpx:TrackPointExtension><gpxtpx:depth>0.00</gpxtpx:depth></gpxtpx:TrackPointExtension></extensions></trkpt><trkpt lat="57.2765759379" lon="47.8852310311"><ele>181.89</ele><time>2018-08-13T10:29:36Z</time><extensions><gpxtpx:TrackPointExtension><gpxtpx:depth>0.00</gpxtpx:depth></gpxtpx:TrackPointExtension></extensions></trkpt><trkpt lat="57.2756558564" lon="47.8849646542"><ele>182.22</ele><time>2018-08-13T10:30:00Z</time><extensions><gpxtpx:TrackPointExtension><gpxtpx:depth>0.00</gpxtpx:depth></gpxtpx:TrackPointExtension></extensions></trkpt><trkpt lat="57.2747542989" lon="47.8849509079"><ele>181.97</ele><time>2018-08-13T10:30:21Z</time><extensions><gpxtpx:TrackPointExtension><gpxtpx:depth>0.00</gpxtpx:depth></gpxtpx:TrackPointExtension></extensions></trkpt><trkpt lat="57.2738047130" lon="47.8851423506"><ele>180.81</ele><time>2018-08-13T10:30:40Z</time><extensions><gpxtpx:TrackPointExtension><gpxtpx:depth>0.00</gpxtpx:depth></gpxtpx:TrackPointExtension></extensions></trkpt><trkpt lat="57.2729085200" lon="47.8854047880"><ele>178.75</ele><time>2018-08-13T10:30:55Z</time><extensions><gpxtpx:TrackPointExtension><gpxtpx:depth>0.00</gpxtpx:depth></gpxtpx:TrackPointExtension></extensions></trkpt><trkpt lat="57.2719916236" lon="47.8854038659"><ele>175.48</ele><time>2018-08-13T10:31:11Z</time><extensions><gpxtpx:TrackPointExtension><gpxtpx:depth>0.00</gpxtpx:depth></gpxtpx:TrackPointExtension></extensions></trkpt><trkpt lat="57.2711057402" lon="47.8851979226"><ele>176.36</ele><time>2018-08-13T10:31:34Z</time><extensions><gpxtpx:TrackPointExtension><gpxtpx:depth>0.00</gpxtpx:depth></gpxtpx:TrackPointExtension></extensions></trkpt><trkpt lat="57.2701757681" lon="47.8849206492"><ele>178.05</ele><time>2018-08-13T10:32:00Z</time><extensions><gpxtpx:TrackPointExtension><gpxtpx:depth>0.00</gpxtpx:depth></gpxtpx:TrackPointExtension></extensions></trkpt><trkpt lat="57.2692674212" lon="47.8845778294"><ele>178.46</ele><time>2018-08-13T10:32:22Z</time><extensions><gpxtpx:TrackPointExtension><gpxtpx:depth>0.00</gpxtpx:depth></gpxtpx:TrackPointExtension></extensions></trkpt><trkpt lat="57.2683431488" lon="47.8842772543"><ele>178.02</ele><time>2018-08-13T10:32:44Z</time><extensions><gpxtpx:TrackPointExtension><gpxtpx:depth>0.00</gpxtpx:depth></gpxtpx:TrackPointExtension></extensions></trkpt><trkpt lat="57.2673870251" lon="47.8839280643"><ele>176.92</ele><time>2018-08-13T10:33:02Z</time><extensions><gpxtpx:TrackPointExtension><gpxtpx:depth>0.00</gpxtpx:depth></gpxtpx:TrackPointExtension></extensions></trkpt><trkpt lat="57.2664750740" lon="47.8836849891"><ele>174.59</ele><time>2018-08-13T10:33:19Z</time><extensions><gpxtpx:TrackPointExtension><gpxtpx:depth>0.00</gpxtpx:depth></gpxtpx:TrackPointExtension></extensions></trkpt><trkpt lat="57.2655238956" lon="47.8833732661"><ele>171.64</ele><time>2018-08-13T10:33:35Z</time><extensions><gpxtpx:TrackPointExtension><gpxtpx:depth>0.00</gpxtpx:depth></gpxtpx:TrackPointExtension></extensions></trkpt><trkpt lat="57.2646312229" lon="47.8830425162"><ele>169.78</ele><time>2018-08-13T10:33:50Z</time><extensions><gpxtpx:TrackPointExtension><gpxtpx:depth>0.00</gpxtpx:depth></gpxtpx:TrackPointExtension></extensions></trkpt><trkpt lat="57.2637546435" lon="47.8826452140"><ele>169.91</ele><time>2018-08-13T10:34:09Z</time><extensions><gpxtpx:TrackPointExtension><gpxtpx:depth>0.00</gpxtpx:depth></gpxtpx:TrackPointExtension></extensions></trkpt><trkpt lat="57.2628568579" lon="47.8822293039"><ele>171.54</ele><time>2018-08-13T10:34:33Z</time><extensions><gpxtpx:TrackPointExtension><gpxtpx:depth>0.00</gpxtpx:depth></gpxtpx:TrackPointExtension></extensions></trkpt><trkpt lat="57.2619787697" lon="47.8818311635"><ele>173.28</ele><time>2018-08-13T10:34:59Z</time><extensions><gpxtpx:TrackPointExtension><gpxtpx:depth>0.00</gpxtpx:depth></gpxtpx:TrackPointExtension></extensions></trkpt><trkpt lat="57.2610630468" lon="47.8814119846"><ele>174.75</ele><time>2018-08-13T10:35:27Z</time><extensions><gpxtpx:TrackPointExtension><gpxtpx:depth>0.00</gpxtpx:depth></gpxtpx:TrackPointExtension></extensions></trkpt><trkpt lat="57.2601723019" lon="47.8810029477"><ele>176.49</ele><time>2018-08-13T10:35:54Z</time><extensions><gpxtpx:TrackPointExtension><gpxtpx:depth>0.00</gpxtpx:depth></gpxtpx:TrackPointExtension></extensions></trkpt><trkpt lat="57.2592842393" lon="47.8805710282"><ele>178.01</ele><time>2018-08-13T10:36:24Z</time><extensions><gpxtpx:TrackPointExtension><gpxtpx:depth>0.00</gpxtpx:depth></gpxtpx:TrackPointExtension></extensions></trkpt><trkpt lat="57.2583872080" lon="47.8801567107"><ele>179.46</ele><time>2018-08-13T10:36:50Z</time><extensions><gpxtpx:TrackPointExtension><gpxtpx:depth>0.00</gpxtpx:depth></gpxtpx:TrackPointExtension></extensions></trkpt><trkpt lat="57.2574607562" lon="47.8797401302"><ele>180.87</ele><time>2018-08-13T10:37:17Z</time><extensions><gpxtpx:TrackPointExtension><gpxtpx:depth>0.00</gpxtpx:depth></gpxtpx:TrackPointExtension></extensions></trkpt><trkpt lat="57.2565281019" lon="47.8793158382"><ele>182.38</ele><time>2018-08-13T10:37:44Z</time><extensions><gpxtpx:TrackPointExtension><gpxtpx:depth>0.00</gpxtpx:depth></gpxtpx:TrackPointExtension></extensions></trkpt><trkpt lat="57.2556329984" lon="47.8789071366"><ele>184.05</ele><time>2018-08-13T10:38:10Z</time><extensions><gpxtpx:TrackPointExtension><gpxtpx:depth>0.00</gpxtpx:depth></gpxtpx:TrackPointExtension></extensions></trkpt><trkpt lat="57.2547244001" lon="47.8784934897"><ele>184.66</ele><time>2018-08-13T10:38:36Z</time><extensions><gpxtpx:TrackPointExtension><gpxtpx:depth>0.00</gpxtpx:depth></gpxtpx:TrackPointExtension></extensions></trkpt><trkpt lat="57.2538367566" lon="47.8780681081"><ele>186.19</ele><time>2018-08-13T10:39:01Z</time><extensions><gpxtpx:TrackPointExtension><gpxtpx:depth>0.00</gpxtpx:depth></gpxtpx:TrackPointExtension></extensions></trkpt><trkpt lat="57.2529468499" lon="47.8776716441"><ele>188.00</ele><time>2018-08-13T10:39:26Z</time><extensions><gpxtpx:TrackPointExtension><gpxtpx:depth>0.00</gpxtpx:depth></gpxtpx:TrackPointExtension></extensions></trkpt><trkpt lat="57.2520432808" lon="47.8772608470"><ele>190.31</ele><time>2018-08-13T10:39:54Z</time><extensions><gpxtpx:TrackPointExtension><gpxtpx:depth>0.00</gpxtpx:depth></gpxtpx:TrackPointExtension></extensions></trkpt><trkpt lat="57.2511444893" lon="47.8768508881"><ele>192.06</ele><time>2018-08-13T10:40:22Z</time><extensions><gpxtpx:TrackPointExtension><gpxtpx:depth>0.00</gpxtpx:depth></gpxtpx:TrackPointExtension></extensions></trkpt><trkpt lat="57.2502401657" lon="47.8764602076"><ele>193.20</ele><time>2018-08-13T10:40:49Z</time><extensions><gpxtpx:TrackPointExtension><gpxtpx:depth>0.00</gpxtpx:depth></gpxtpx:TrackPointExtension></extensions></trkpt><trkpt lat="57.2493374348" lon="47.8760560323"><ele>193.93</ele><time>2018-08-13T10:41:14Z</time><extensions><gpxtpx:TrackPointExtension><gpxtpx:depth>0.00</gpxtpx:depth></gpxtpx:TrackPointExtension></extensions></trkpt><trkpt lat="57.2484445106" lon="47.8756902460"><ele>194.17</ele><time>2018-08-13T10:41:36Z</time><extensions><gpxtpx:TrackPointExtension><gpxtpx:depth>0.00</gpxtpx:depth></gpxtpx:TrackPointExtension></extensions></trkpt><trkpt lat="57.2475396842" lon="47.8754495177"><ele>194.10</ele><time>2018-08-13T10:41:59Z</time><extensions><gpxtpx:TrackPointExtension><gpxtpx:depth>0.00</gpxtpx:depth></gpxtpx:TrackPointExtension></extensions></trkpt><trkpt lat="57.2466065269" lon="47.8754184209"><ele>194.73</ele><time>2018-08-13T10:42:21Z</time><extensions><gpxtpx:TrackPointExtension><gpxtpx:depth>0.00</gpxtpx:depth></gpxtpx:TrackPointExtension></extensions></trkpt><trkpt lat="57.2456808295" lon="47.8754687123"><ele>195.23</ele><time>2018-08-13T10:42:43Z</time><extensions><gpxtpx:TrackPointExtension><gpxtpx:depth>0.00</gpxtpx:depth></gpxtpx:TrackPointExtension></extensions></trkpt><trkpt lat="57.2447506059" lon="47.8755425569"><ele>195.82</ele><time>2018-08-13T10:43:05Z</time><extensions><gpxtpx:TrackPointExtension><gpxtpx:depth>0.00</gpxtpx:depth></gpxtpx:TrackPointExtension></extensions></trkpt><trkpt lat="57.2438037861" lon="47.8756097797"><ele>195.72</ele><time>2018-08-13T10:43:24Z</time><extensions><gpxtpx:TrackPointExtension><gpxtpx:depth>0.00</gpxtpx:depth></gpxtpx:TrackPointExtension></extensions></trkpt><trkpt lat="57.2429042403" lon="47.8757408727"><ele>195.28</ele><time>2018-08-13T10:43:42Z</time><extensions><gpxtpx:TrackPointExtension><gpxtpx:depth>0.00</gpxtpx:depth></gpxtpx:TrackPointExtension></extensions></trkpt><trkpt lat="57.2419389803" lon="47.8758285474"><ele>194.17</ele><time>2018-08-13T10:44:00Z</time><extensions><gpxtpx:TrackPointExtension><gpxtpx:depth>0.00</gpxtpx:depth></gpxtpx:TrackPointExtension></extensions></trkpt><trkpt lat="57.2410317231" lon="47.8759150486"><ele>192.55</ele><time>2018-08-13T10:44:15Z</time><extensions><gpxtpx:TrackPointExtension><gpxtpx:depth>0.00</gpxtpx:depth></gpxtpx:TrackPointExtension></extensions></trkpt><trkpt lat="57.2401174251" lon="47.8759844508"><ele>190.98</ele><time>2018-08-13T10:44:30Z</time><extensions><gpxtpx:TrackPointExtension><gpxtpx:depth>0.00</gpxtpx:depth></gpxtpx:TrackPointExtension></extensions></trkpt><trkpt lat="57.2391768917" lon="47.8760847822"><ele>189.63</ele><time>2018-08-13T10:44:48Z</time><extensions><gpxtpx:TrackPointExtension><gpxtpx:depth>0.00</gpxtpx:depth></gpxtpx:TrackPointExtension></extensions></trkpt><trkpt lat="57.2382503562" lon="47.8761561960"><ele>187.52</ele><time>2018-08-13T10:45:06Z</time><extensions><gpxtpx:TrackPointExtension><gpxtpx:depth>0.00</gpxtpx:depth></gpxtpx:TrackPointExtension></extensions></trkpt><trkpt lat="57.2373246588" lon="47.8762341477"><ele>185.90</ele><time>2018-08-13T10:45:24Z</time><extensions><gpxtpx:TrackPointExtension><gpxtpx:depth>0.00</gpxtpx:depth></gpxtpx:TrackPointExtension></extensions></trkpt><trkpt lat="57.2364169825" lon="47.8763260972"><ele>184.54</ele><time>2018-08-13T10:45:42Z</time><extensions><gpxtpx:TrackPointExtension><gpxtpx:depth>0.00</gpxtpx:depth></gpxtpx:TrackPointExtension></extensions></trkpt><trkpt lat="57.2354997508" lon="47.8764130175"><ele>183.47</ele><time>2018-08-13T10:46:01Z</time><extensions><gpxtpx:TrackPointExtension><gpxtpx:depth>0.00</gpxtpx:depth></gpxtpx:TrackPointExtension></extensions></trkpt><trkpt lat="57.2345598880" lon="47.8764904663"><ele>183.06</ele><time>2018-08-13T10:46:21Z</time><extensions><gpxtpx:TrackPointExtension><gpxtpx:depth>0.00</gpxtpx:depth></gpxtpx:TrackPointExtension></extensions></trkpt><trkpt lat="57.2336077038" lon="47.8765515704"><ele>183.25</ele><time>2018-08-13T10:46:42Z</time><extensions><gpxtpx:TrackPointExtension><gpxtpx:depth>0.00</gpxtpx:depth></gpxtpx:TrackPointExtension></extensions></trkpt><trkpt lat="57.2327122651" lon="47.8766460344"><ele>183.70</ele><time>2018-08-13T10:47:03Z</time><extensions><gpxtpx:TrackPointExtension><gpxtpx:depth>0.00</gpxtpx:depth></gpxtpx:TrackPointExtension></extensions></trkpt><trkpt lat="57.2318119649" lon="47.8767193761"><ele>184.70</ele><time>2018-08-13T10:47:28Z</time><extensions><gpxtpx:TrackPointExtension><gpxtpx:depth>0.00</gpxtpx:depth></gpxtpx:TrackPointExtension></extensions></trkpt><trkpt lat="57.2308784723" lon="47.8768131696"><ele>186.38</ele><time>2018-08-13T10:47:58Z</time><extensions><gpxtpx:TrackPointExtension><gpxtpx:depth>0.00</gpxtpx:depth></gpxtpx:TrackPointExtension></extensions></trkpt><trkpt lat="57.2299502604" lon="47.8768248204"><ele>187.22</ele><time>2018-08-13T10:48:24Z</time><extensions><gpxtpx:TrackPointExtension><gpxtpx:depth>0.00</gpxtpx:depth></gpxtpx:TrackPointExtension></extensions></trkpt><trkpt lat="57.2290478647" lon="47.8768901993"><ele>187.51</ele><time>2018-08-13T10:48:48Z</time><extensions><gpxtpx:TrackPointExtension><gpxtpx:depth>0.00</gpxtpx:depth></gpxtpx:TrackPointExtension></extensions></trkpt><trkpt lat="57.2280955967" lon="47.8770733438"><ele>187.36</ele><time>2018-08-13T10:49:10Z</time><extensions><gpxtpx:TrackPointExtension><gpxtpx:depth>0.00</gpxtpx:depth></gpxtpx:TrackPointExtension></extensions></trkpt><trkpt lat="57.2271957994" lon="47.8775090352"><ele>186.70</ele><time>2018-08-13T10:49:30Z</time><extensions><gpxtpx:TrackPointExtension><gpxtpx:depth>0.00</gpxtpx:depth></gpxtpx:TrackPointExtension></extensions></trkpt><trkpt lat="57.2262793221" lon="47.8779610712"><ele>184.93</ele><time>2018-08-13T10:49:46Z</time><extensions><gpxtpx:TrackPointExtension><gpxtpx:depth>0.00</gpxtpx:depth></gpxtpx:TrackPointExtension></extensions></trkpt><trkpt lat="57.2253959533" lon="47.8784221597"><ele>183.46</ele><time>2018-08-13T10:49:59Z</time><extensions><gpxtpx:TrackPointExtension><gpxtpx:depth>0.00</gpxtpx:depth></gpxtpx:TrackPointExtension></extensions></trkpt><trkpt lat="57.2244555876" lon="47.8788732737"><ele>180.26</ele><time>2018-08-13T10:50:10Z</time><extensions><gpxtpx:TrackPointExtension><gpxtpx:depth>0.00</gpxtpx:depth></gpxtpx:TrackPointExtension></extensions></trkpt><trkpt lat="57.2235282976" lon="47.8793036845"><ele>176.71</ele><time>2018-08-13T10:50:20Z</time><extensions><gpxtpx:TrackPointExtension><gpxtpx:depth>0.00</gpxtpx:depth></gpxtpx:TrackPointExtension></extensions></trkpt><trkpt lat="57.2226523887" lon="47.8797309101"><ele>174.70</ele><time>2018-08-13T10:50:31Z</time><extensions><gpxtpx:TrackPointExtension><gpxtpx:depth>0.00</gpxtpx:depth></gpxtpx:TrackPointExtension></extensions></trkpt><trkpt lat="57.2217572015" lon="47.8801949322"><ele>174.90</ele><time>2018-08-13T10:50:47Z</time><extensions><gpxtpx:TrackPointExtension><gpxtpx:depth>0.00</gpxtpx:depth></gpxtpx:TrackPointExtension></extensions></trkpt><trkpt lat="57.2208413947" lon="47.8806043044"><ele>174.37</ele><time>2018-08-13T10:51:07Z</time><extensions><gpxtpx:TrackPointExtension><gpxtpx:depth>0.00</gpxtpx:depth></gpxtpx:TrackPointExtension></extensions></trkpt><trkpt lat="57.2199564334" lon="47.8810419235"><ele>173.15</ele><time>2018-08-13T10:51:26Z</time><extensions><gpxtpx:TrackPointExtension><gpxtpx:depth>0.00</gpxtpx:depth></gpxtpx:TrackPointExtension></extensions></trkpt><trkpt lat="57.2190677840" lon="47.8814864997"><ele>171.97</ele><time>2018-08-13T10:51:46Z</time><extensions><gpxtpx:TrackPointExtension><gpxtpx:depth>0.00</gpxtpx:depth></gpxtpx:TrackPointExtension></extensions></trkpt><trkpt lat="57.2181937192" lon="47.8819284774"><ele>173.42</ele><time>2018-08-13T10:52:10Z</time><extensions><gpxtpx:TrackPointExtension><gpxtpx:depth>0.00</gpxtpx:depth></gpxtpx:TrackPointExtension></extensions></trkpt><trkpt lat="57.2173210792" lon="47.8823752329"><ele>176.21</ele><time>2018-08-13T10:52:38Z</time><extensions><gpxtpx:TrackPointExtension><gpxtpx:depth>0.00</gpxtpx:depth></gpxtpx:TrackPointExtension></extensions></trkpt><trkpt lat="57.2164305858" lon="47.8828462958"><ele>178.26</ele><time>2018-08-13T10:53:07Z</time><extensions><gpxtpx:TrackPointExtension><gpxtpx:depth>0.00</gpxtpx:depth></gpxtpx:TrackPointExtension></extensions></trkpt><trkpt lat="57.2155126836" lon="47.8832094837"><ele>179.84</ele><time>2018-08-13T10:53:36Z</time><extensions><gpxtpx:TrackPointExtension><gpxtpx:depth>0.00</gpxtpx:depth></gpxtpx:TrackPointExtension></extensions></trkpt><trkpt lat="57.2146036662" lon="47.8832902014"><ele>181.80</ele><time>2018-08-13T10:54:04Z</time><extensions><gpxtpx:TrackPointExtension><gpxtpx:depth>0.00</gpxtpx:depth></gpxtpx:TrackPointExtension></extensions></trkpt><trkpt lat="57.2136938106" lon="47.8830339666"><ele>184.21</ele><time>2018-08-13T10:54:31Z</time><extensions><gpxtpx:TrackPointExtension><gpxtpx:depth>0.00</gpxtpx:depth></gpxtpx:TrackPointExtension></extensions></trkpt><trkpt lat="57.2127852123" lon="47.8826151229"><ele>185.42</ele><time>2018-08-13T10:54:57Z</time><extensions><gpxtpx:TrackPointExtension><gpxtpx:depth>0.00</gpxtpx:depth></gpxtpx:TrackPointExtension></extensions></trkpt><trkpt lat="57.2118966468" lon="47.8822213411"><ele>186.01</ele><time>2018-08-13T10:55:26Z</time><extensions><gpxtpx:TrackPointExtension><gpxtpx:depth>0.00</gpxtpx:depth></gpxtpx:TrackPointExtension></extensions></trkpt><trkpt lat="57.2110078298" lon="47.8818283137"><ele>186.77</ele><time>2018-08-13T10:55:53Z</time><extensions><gpxtpx:TrackPointExtension><gpxtpx:depth>0.00</gpxtpx:depth></gpxtpx:TrackPointExtension></extensions></trkpt><trkpt lat="57.2101203538" lon="47.8814362921"><ele>187.97</ele><time>2018-08-13T10:56:19Z</time><extensions><gpxtpx:TrackPointExtension><gpxtpx:depth>0.00</gpxtpx:depth></gpxtpx:TrackPointExtension></extensions></trkpt><trkpt lat="57.2092327103" lon="47.8810542449"><ele>189.02</ele><time>2018-08-13T10:56:45Z</time><extensions><gpxtpx:TrackPointExtension><gpxtpx:depth>0.00</gpxtpx:depth></gpxtpx:TrackPointExtension></extensions></trkpt><trkpt lat="57.2083558794" lon="47.8806631453"><ele>190.84</ele><time>2018-08-13T10:57:12Z</time><extensions><gpxtpx:TrackPointExtension><gpxtpx:depth>0.00</gpxtpx:depth></gpxtpx:TrackPointExtension></extensions></trkpt><trkpt lat="57.2074742708" lon="47.8802706208"><ele>192.24</ele><time>2018-08-13T10:57:37Z</time><extensions><gpxtpx:TrackPointExtension><gpxtpx:depth>0.00</gpxtpx:depth></gpxtpx:TrackPointExtension></extensions></trkpt><trkpt lat="57.2065873817" lon="47.8798757493"><ele>192.30</ele><time>2018-08-13T10:58:01Z</time><extensions><gpxtpx:TrackPointExtension><gpxtpx:depth>0.00</gpxtpx:depth></gpxtpx:TrackPointExtension></extensions></trkpt><trkpt lat="57.2056775261" lon="47.8794685565"><ele>192.70</ele><time>2018-08-13T10:58:24Z</time><extensions><gpxtpx:TrackPointExtension><gpxtpx:depth>0.00</gpxtpx:depth></gpxtpx:TrackPointExtension></extensions></trkpt><trkpt lat="57.2047661617" lon="47.8790688235"><ele>192.64</ele><time>2018-08-13T10:58:46Z</time><extensions><gpxtpx:TrackPointExtension><gpxtpx:depth>0.00</gpxtpx:depth></gpxtpx:TrackPointExtension></extensions></trkpt><trkpt lat="57.2038836312" lon="47.8787348885"><ele>192.42</ele><time>2018-08-13T10:59:08Z</time><extensions><gpxtpx:TrackPointExtension><gpxtpx:depth>0.00</gpxtpx:depth></gpxtpx:TrackPointExtension></extensions></trkpt><trkpt lat="57.2029517312" lon="47.8787076473"><ele>191.72</ele><time>2018-08-13T10:59:30Z</time><extensions><gpxtpx:TrackPointExtension><gpxtpx:depth>0.00</gpxtpx:depth></gpxtpx:TrackPointExtension></extensions></trkpt><trkpt lat="57.2020815220" lon="47.8790943045"><ele>190.35</ele><time>2018-08-13T10:59:50Z</time><extensions><gpxtpx:TrackPointExtension><gpxtpx:depth>0.00</gpxtpx:depth></gpxtpx:TrackPointExtension></extensions></trkpt><trkpt lat="57.2011770308" lon="47.8796822112"><ele>190.31</ele><time>2018-08-13T11:00:12Z</time><extensions><gpxtpx:TrackPointExtension><gpxtpx:depth>0.00</gpxtpx:depth></gpxtpx:TrackPointExtension></extensions></trkpt><trkpt lat="57.2002531774" lon="47.8802120313"><ele>189.35</ele><time>2018-08-13T11:00:33Z</time><extensions><gpxtpx:TrackPointExtension><gpxtpx:depth>0.00</gpxtpx:depth></gpxtpx:TrackPointExtension></extensions></trkpt><trkpt lat="57.1993618459" lon="47.8807415999"><ele>188.80</ele><time>2018-08-13T11:00:54Z</time><extensions><gpxtpx:TrackPointExtension><gpxtpx:depth>0.00</gpxtpx:depth></gpxtpx:TrackPointExtension></extensions></trkpt><trkpt lat="57.1985034551" lon="47.8812662233"><ele>188.83</ele><time>2018-08-13T11:01:15Z</time><extensions><gpxtpx:TrackPointExtension><gpxtpx:depth>0.00</gpxtpx:depth></gpxtpx:TrackPointExtension></extensions></trkpt><trkpt lat="57.1976396162" lon="47.8818076942"><ele>188.90</ele><time>2018-08-13T11:01:37Z</time><extensions><gpxtpx:TrackPointExtension><gpxtpx:depth>0.00</gpxtpx:depth></gpxtpx:TrackPointExtension></extensions></trkpt><trkpt lat="57.1967759449" lon="47.8823575471"><ele>188.30</ele><time>2018-08-13T11:01:58Z</time><extensions><gpxtpx:TrackPointExtension><gpxtpx:depth>0.00</gpxtpx:depth></gpxtpx:TrackPointExtension></extensions></trkpt><trkpt lat="57.1959103458" lon="47.8829154465"><ele>187.27</ele><time>2018-08-13T11:02:18Z</time><extensions><gpxtpx:TrackPointExtension><gpxtpx:depth>0.00</gpxtpx:depth></gpxtpx:TrackPointExtension></extensions></trkpt><trkpt lat="57.1950427350" lon="47.8834751062"><ele>185.47</ele><time>2018-08-13T11:02:37Z</time><extensions><gpxtpx:TrackPointExtension><gpxtpx:depth>0.00</gpxtpx:depth></gpxtpx:TrackPointExtension></extensions></trkpt><trkpt lat="57.1941463742" lon="47.8840160742"><ele>183.88</ele><time>2018-08-13T11:02:56Z</time><extensions><gpxtpx:TrackPointExtension><gpxtpx:depth>0.00</gpxtpx:depth></gpxtpx:TrackPointExtension></extensions></trkpt><trkpt lat="57.1932655200" lon="47.8844485804"><ele>183.20</ele><time>2018-08-13T11:03:18Z</time><extensions><gpxtpx:TrackPointExtension><gpxtpx:depth>0.00</gpxtpx:depth></gpxtpx:TrackPointExtension></extensions></trkpt><trkpt lat="57.1931156516" lon="47.8849400952"><ele>182.64</ele><time>2018-08-13T11:12:46Z</time><extensions><gpxtpx:TrackPointExtension><gpxtpx:depth>0.00</gpxtpx:depth></gpxtpx:TrackPointExtension></extensions></trkpt><trkpt lat="57.1923339553" lon="47.8847565316"><ele>183.67</ele><time>2018-08-13T11:20:46Z</time><extensions><gpxtpx:TrackPointExtension><gpxtpx:depth>0.00</gpxtpx:depth></gpxtpx:TrackPointExtension></extensions></trkpt><trkpt lat="57.1914106049" lon="47.8848467208"><ele>182.80</ele><time>2018-08-13T11:21:07Z</time><extensions><gpxtpx:TrackPointExtension><gpxtpx:depth>0.00</gpxtpx:depth></gpxtpx:TrackPointExtension></extensions></trkpt><trkpt lat="57.1904988214" lon="47.8847910650"><ele>181.47</ele><time>2018-08-13T11:21:25Z</time><extensions><gpxtpx:TrackPointExtension><gpxtpx:depth>0.00</gpxtpx:depth></gpxtpx:TrackPointExtension></extensions></trkpt><trkpt lat="57.1895369142" lon="47.8846903984"><ele>178.75</ele><time>2018-08-13T11:21:41Z</time><extensions><gpxtpx:TrackPointExtension><gpxtpx:depth>0.00</gpxtpx:depth></gpxtpx:TrackPointExtension></extensions></trkpt><trkpt lat="57.1885544714" lon="47.8845713753"><ele>174.94</ele><time>2018-08-13T11:21:55Z</time><extensions><gpxtpx:TrackPointExtension><gpxtpx:depth>0.00</gpxtpx:depth></gpxtpx:TrackPointExtension></extensions></trkpt><trkpt lat="57.1875838470" lon="47.8844465688"><ele>171.67</ele><time>2018-08-13T11:22:08Z</time><extensions><gpxtpx:TrackPointExtension><gpxtpx:depth>0.00</gpxtpx:depth></gpxtpx:TrackPointExtension></extensions></trkpt><trkpt lat="57.1866761707" lon="47.8843530267"><ele>170.62</ele><time>2018-08-13T11:22:22Z</time><extensions><gpxtpx:TrackPointExtension><gpxtpx:depth>0.00</gpxtpx:depth></gpxtpx:TrackPointExtension></extensions></trkpt><trkpt lat="57.1857586876" lon="47.8842570540"><ele>169.65</ele><time>2018-08-13T11:22:42Z</time><extensions><gpxtpx:TrackPointExtension><gpxtpx:depth>0.00</gpxtpx:depth></gpxtpx:TrackPointExtension></extensions></trkpt><trkpt lat="57.1848135442" lon="47.8841688763"><ele>169.47</ele><time>2018-08-13T11:23:08Z</time><extensions><gpxtpx:TrackPointExtension><gpxtpx:depth>0.00</gpxtpx:depth></gpxtpx:TrackPointExtension></extensions></trkpt><trkpt lat="57.1838971507" lon="47.8840519488"><ele>168.97</ele><time>2018-08-13T11:23:30Z</time><extensions><gpxtpx:TrackPointExtension><gpxtpx:depth>0.00</gpxtpx:depth></gpxtpx:TrackPointExtension></extensions></trkpt><trkpt lat="57.1829820145" lon="47.8839409724"><ele>168.13</ele><time>2018-08-13T11:23:53Z</time><extensions><gpxtpx:TrackPointExtension><gpxtpx:depth>0.00</gpxtpx:depth></gpxtpx:TrackPointExtension></extensions></trkpt><trkpt lat="57.1820556466" lon="47.8838435747"><ele>168.14</ele><time>2018-08-13T11:24:17Z</time><extensions><gpxtpx:TrackPointExtension><gpxtpx:depth>0.00</gpxtpx:depth></gpxtpx:TrackPointExtension></extensions></trkpt><trkpt lat="57.1811554302" lon="47.8838980570"><ele>168.11</ele><time>2018-08-13T11:24:43Z</time><extensions><gpxtpx:TrackPointExtension><gpxtpx:depth>0.00</gpxtpx:depth></gpxtpx:TrackPointExtension></extensions></trkpt><trkpt lat="57.1802451555" lon="47.8841506038"><ele>169.08</ele><time>2018-08-13T11:25:17Z</time><extensions><gpxtpx:TrackPointExtension><gpxtpx:depth>0.00</gpxtpx:depth></gpxtpx:TrackPointExtension></extensions></trkpt><trkpt lat="57.1793694980" lon="47.8845607303"><ele>170.08</ele><time>2018-08-13T11:25:49Z</time><extensions><gpxtpx:TrackPointExtension><gpxtpx:depth>0.00</gpxtpx:depth></gpxtpx:TrackPointExtension></extensions></trkpt><trkpt lat="57.1785192378" lon="47.8851520736"><ele>171.12</ele><time>2018-08-13T11:26:16Z</time><extensions><gpxtpx:TrackPointExtension><gpxtpx:depth>0.00</gpxtpx:depth></gpxtpx:TrackPointExtension></extensions></trkpt><trkpt lat="57.1776975598" lon="47.8858994879"><ele>171.92</ele><time>2018-08-13T11:26:42Z</time><extensions><gpxtpx:TrackPointExtension><gpxtpx:depth>0.00</gpxtpx:depth></gpxtpx:TrackPointExtension></extensions></trkpt><trkpt lat="57.1769021172" lon="47.8867722116"><ele>173.34</ele><time>2018-08-13T11:27:09Z</time><extensions><gpxtpx:TrackPointExtension><gpxtpx:depth>0.00</gpxtpx:depth></gpxtpx:TrackPointExtension></extensions></trkpt><trkpt lat="57.1761474945" lon="47.8877194505"><ele>174.23</ele><time>2018-08-13T11:27:38Z</time><extensions><gpxtpx:TrackPointExtension><gpxtpx:depth>0.00</gpxtpx:depth></gpxtpx:TrackPointExtension></extensions></trkpt><trkpt lat="57.1753959730" lon="47.8886703774"><ele>175.63</ele><time>2018-08-13T11:28:04Z</time><extensions><gpxtpx:TrackPointExtension><gpxtpx:depth>0.00</gpxtpx:depth></gpxtpx:TrackPointExtension></extensions></trkpt><trkpt lat="57.1746258438" lon="47.8896073904"><ele>176.90</ele><time>2018-08-13T11:28:28Z</time><extensions><gpxtpx:TrackPointExtension><gpxtpx:depth>0.00</gpxtpx:depth></gpxtpx:TrackPointExtension></extensions></trkpt><trkpt lat="57.1738644317" lon="47.8905697167"><ele>178.87</ele><time>2018-08-13T11:28:55Z</time><extensions><gpxtpx:TrackPointExtension><gpxtpx:depth>0.00</gpxtpx:depth></gpxtpx:TrackPointExtension></extensions></trkpt><trkpt lat="57.1731074620" lon="47.8915340547"><ele>180.17</ele><time>2018-08-13T11:29:22Z</time><extensions><gpxtpx:TrackPointExtension><gpxtpx:depth>0.00</gpxtpx:depth></gpxtpx:TrackPointExtension></extensions></trkpt><trkpt lat="57.1723753028" lon="47.8924971353"><ele>181.09</ele><time>2018-08-13T11:29:47Z</time><extensions><gpxtpx:TrackPointExtension><gpxtpx:depth>0.00</gpxtpx:depth></gpxtpx:TrackPointExtension></extensions></trkpt><trkpt lat="57.1716204286" lon="47.8935324680"><ele>181.99</ele><time>2018-08-13T11:30:11Z</time><extensions><gpxtpx:TrackPointExtension><gpxtpx:depth>0.00</gpxtpx:depth></gpxtpx:TrackPointExtension></extensions></trkpt><trkpt lat="57.1708627883" lon="47.8944988176"><ele>182.61</ele><time>2018-08-13T11:30:34Z</time><extensions><gpxtpx:TrackPointExtension><gpxtpx:depth>0.00</gpxtpx:depth></gpxtpx:TrackPointExtension></extensions></trkpt><trkpt lat="57.1701225825" lon="47.8954436257"><ele>182.79</ele><time>2018-08-13T11:30:55Z</time><extensions><gpxtpx:TrackPointExtension><gpxtpx:depth>0.00</gpxtpx:depth></gpxtpx:TrackPointExtension></extensions></trkpt><trkpt lat="57.1693624277" lon="47.8964204527"><ele>183.74</ele><time>2018-08-13T11:31:18Z</time><extensions><gpxtpx:TrackPointExtension><gpxtpx:depth>0.00</gpxtpx:depth></gpxtpx:TrackPointExtension></extensions></trkpt><trkpt lat="57.1686298493" lon="47.8973744810"><ele>184.68</ele><time>2018-08-13T11:31:42Z</time><extensions><gpxtpx:TrackPointExtension><gpxtpx:depth>0.00</gpxtpx:depth></gpxtpx:TrackPointExtension></extensions></trkpt><trkpt lat="57.1678773221" lon="47.8983544931"><ele>186.15</ele><time>2018-08-13T11:32:07Z</time><extensions><gpxtpx:TrackPointExtension><gpxtpx:depth>0.00</gpxtpx:depth></gpxtpx:TrackPointExtension></extensions></trkpt><trkpt lat="57.1671283990" lon="47.8993093595"><ele>187.37</ele><time>2018-08-13T11:32:32Z</time><extensions><gpxtpx:TrackPointExtension><gpxtpx:depth>0.00</gpxtpx:depth></gpxtpx:TrackPointExtension></extensions></trkpt><trkpt lat="57.1663674060" lon="47.9002837557"><ele>189.44</ele><time>2018-08-13T11:32:58Z</time><extensions><gpxtpx:TrackPointExtension><gpxtpx:depth>0.00</gpxtpx:depth></gpxtpx:TrackPointExtension></extensions></trkpt><trkpt lat="57.1655976959" lon="47.9012620915"><ele>190.74</ele><time>2018-08-13T11:33:26Z</time><extensions><gpxtpx:TrackPointExtension><gpxtpx:depth>0.00</gpxtpx:depth></gpxtpx:TrackPointExtension></extensions></trkpt><trkpt lat="57.1648257226" lon="47.9022638127"><ele>191.34</ele><time>2018-08-13T11:33:49Z</time><extensions><gpxtpx:TrackPointExtension><gpxtpx:depth>0.00</gpxtpx:depth></gpxtpx:TrackPointExtension></extensions></trkpt><trkpt lat="57.1640353091" lon="47.9032577388"><ele>190.98</ele><time>2018-08-13T11:34:11Z</time><extensions><gpxtpx:TrackPointExtension><gpxtpx:depth>0.00</gpxtpx:depth></gpxtpx:TrackPointExtension></extensions></trkpt><trkpt lat="57.1632703766" lon="47.9042364098"><ele>189.67</ele><time>2018-08-13T11:34:31Z</time><extensions><gpxtpx:TrackPointExtension><gpxtpx:depth>0.00</gpxtpx:depth></gpxtpx:TrackPointExtension></extensions></trkpt><trkpt lat="57.1624981519" lon="47.9052494466"><ele>189.45</ele><time>2018-08-13T11:34:52Z</time><extensions><gpxtpx:TrackPointExtension><gpxtpx:depth>0.00</gpxtpx:depth></gpxtpx:TrackPointExtension></extensions></trkpt><trkpt lat="57.1617512405" lon="47.9062318057"><ele>189.18</ele><time>2018-08-13T11:35:15Z</time><extensions><gpxtpx:TrackPointExtension><gpxtpx:depth>0.00</gpxtpx:depth></gpxtpx:TrackPointExtension></extensions></trkpt><trkpt lat="57.1610100288" lon="47.9072123207"><ele>189.44</ele><time>2018-08-13T11:35:38Z</time><extensions><gpxtpx:TrackPointExtension><gpxtpx:depth>0.00</gpxtpx:depth></gpxtpx:TrackPointExtension></extensions></trkpt><trkpt lat="57.1602199506" lon="47.9082028102"><ele>190.88</ele><time>2018-08-13T11:36:02Z</time><extensions><gpxtpx:TrackPointExtension><gpxtpx:depth>0.00</gpxtpx:depth></gpxtpx:TrackPointExtension></extensions></trkpt><trkpt lat="57.1594680939" lon="47.9091741052"><ele>190.26</ele><time>2018-08-13T11:36:24Z</time><extensions><gpxtpx:TrackPointExtension><gpxtpx:depth>0.00</gpxtpx:depth></gpxtpx:TrackPointExtension></extensions></trkpt><trkpt lat="57.1587063465" lon="47.9101635888"><ele>190.72</ele><time>2018-08-13T11:36:47Z</time><extensions><gpxtpx:TrackPointExtension><gpxtpx:depth>0.00</gpxtpx:depth></gpxtpx:TrackPointExtension></extensions></trkpt><trkpt lat="57.1579119936" lon="47.9111404158"><ele>191.01</ele><time>2018-08-13T11:37:12Z</time><extensions><gpxtpx:TrackPointExtension><gpxtpx:depth>0.00</gpxtpx:depth></gpxtpx:TrackPointExtension></extensions></trkpt><trkpt lat="57.1571410261" lon="47.9121369403"><ele>191.37</ele><time>2018-08-13T11:37:36Z</time><extensions><gpxtpx:TrackPointExtension><gpxtpx:depth>0.00</gpxtpx:depth></gpxtpx:TrackPointExtension></extensions></trkpt><trkpt lat="57.1563739982" lon="47.9131115880"><ele>192.22</ele><time>2018-08-13T11:38:00Z</time><extensions><gpxtpx:TrackPointExtension><gpxtpx:depth>0.00</gpxtpx:depth></gpxtpx:TrackPointExtension></extensions></trkpt><trkpt lat="57.1556356363" lon="47.9140750039"><ele>192.79</ele><time>2018-08-13T11:38:25Z</time><extensions><gpxtpx:TrackPointExtension><gpxtpx:depth>0.00</gpxtpx:depth></gpxtpx:TrackPointExtension></extensions></trkpt><trkpt lat="57.1548742242" lon="47.9150630627"><ele>192.82</ele><time>2018-08-13T11:38:49Z</time><extensions><gpxtpx:TrackPointExtension><gpxtpx:depth>0.00</gpxtpx:depth></gpxtpx:TrackPointExtension></extensions></trkpt><trkpt lat="57.1540838107" lon="47.9160609283"><ele>192.52</ele><time>2018-08-13T11:39:13Z</time><extensions><gpxtpx:TrackPointExtension><gpxtpx:depth>0.00</gpxtpx:depth></gpxtpx:TrackPointExtension></extensions></trkpt><trkpt lat="57.1533437725" lon="47.9169939179"><ele>192.57</ele><time>2018-08-13T11:39:33Z</time><extensions><gpxtpx:TrackPointExtension><gpxtpx:depth>0.00</gpxtpx:depth></gpxtpx:TrackPointExtension></extensions></trkpt><trkpt lat="57.1526106074" lon="47.9179347027"><ele>192.63</ele><time>2018-08-13T11:39:53Z</time><extensions><gpxtpx:TrackPointExtension><gpxtpx:depth>0.00</gpxtpx:depth></gpxtpx:TrackPointExtension></extensions></trkpt><trkpt lat="57.1518755984" lon="47.9188728891"><ele>192.30</ele><time>2018-08-13T11:40:13Z</time><extensions><gpxtpx:TrackPointExtension><gpxtpx:depth>0.00</gpxtpx:depth></gpxtpx:TrackPointExtension></extensions></trkpt><trkpt lat="57.1510996856" lon="47.9198660608"><ele>192.48</ele><time>2018-08-13T11:40:35Z</time><extensions><gpxtpx:TrackPointExtension><gpxtpx:depth>0.00</gpxtpx:depth></gpxtpx:TrackPointExtension></extensions></trkpt><trkpt lat="57.1503278799" lon="47.9208485037"><ele>192.66</ele><time>2018-08-13T11:40:57Z</time><extensions><gpxtpx:TrackPointExtension><gpxtpx:depth>0.00</gpxtpx:depth></gpxtpx:TrackPointExtension></extensions></trkpt><trkpt lat="57.1495722514" lon="47.9218192119"><ele>194.23</ele><time>2018-08-13T11:41:21Z</time><extensions><gpxtpx:TrackPointExtension><gpxtpx:depth>0.00</gpxtpx:depth></gpxtpx:TrackPointExtension></extensions></trkpt><trkpt lat="57.1488125157" lon="47.9227961227"><ele>195.17</ele><time>2018-08-13T11:41:44Z</time><extensions><gpxtpx:TrackPointExtension><gpxtpx:depth>0.00</gpxtpx:depth></gpxtpx:TrackPointExtension></extensions></trkpt><trkpt lat="57.1480635926" lon="47.9237607121"><ele>196.06</ele><time>2018-08-13T11:42:06Z</time><extensions><gpxtpx:TrackPointExtension><gpxtpx:depth>0.00</gpxtpx:depth></gpxtpx:TrackPointExtension></extensions></trkpt><trkpt lat="57.1473319363" lon="47.9247190990"><ele>197.52</ele><time>2018-08-13T11:42:28Z</time><extensions><gpxtpx:TrackPointExtension><gpxtpx:depth>0.00</gpxtpx:depth></gpxtpx:TrackPointExtension></extensions></trkpt><trkpt lat="57.1465900540" lon="47.9256686009"><ele>198.40</ele><time>2018-08-13T11:42:50Z</time><extensions><gpxtpx:TrackPointExtension><gpxtpx:depth>0.00</gpxtpx:depth></gpxtpx:TrackPointExtension></extensions></trkpt><trkpt lat="57.1458397061" lon="47.9266084637"><ele>199.02</ele><time>2018-08-13T11:43:13Z</time><extensions><gpxtpx:TrackPointExtension><gpxtpx:depth>0.00</gpxtpx:depth></gpxtpx:TrackPointExtension></extensions></trkpt><trkpt lat="57.1450897772" lon="47.9275730532"><ele>199.69</ele><time>2018-08-13T11:43:35Z</time><extensions><gpxtpx:TrackPointExtension><gpxtpx:depth>0.00</gpxtpx:depth></gpxtpx:TrackPointExtension></extensions></trkpt><trkpt lat="57.1443290357" lon="47.9285642970"><ele>199.77</ele><time>2018-08-13T11:43:57Z</time><extensions><gpxtpx:TrackPointExtension><gpxtpx:depth>0.00</gpxtpx:depth></gpxtpx:TrackPointExtension></extensions></trkpt><trkpt lat="57.1435801964" lon="47.9295235220"><ele>199.79</ele><time>2018-08-13T11:44:19Z</time><extensions><gpxtpx:TrackPointExtension><gpxtpx:depth>0.00</gpxtpx:depth></gpxtpx:TrackPointExtension></extensions></trkpt><trkpt lat="57.1428037807" lon="47.9305455275"><ele>201.02</ele><time>2018-08-13T11:44:43Z</time><extensions><gpxtpx:TrackPointExtension><gpxtpx:depth>0.00</gpxtpx:depth></gpxtpx:TrackPointExtension></extensions></trkpt><trkpt lat="57.1420080867" lon="47.9315666948"><ele>202.11</ele><time>2018-08-13T11:45:08Z</time><extensions><gpxtpx:TrackPointExtension><gpxtpx:depth>0.00</gpxtpx:depth></gpxtpx:TrackPointExtension></extensions></trkpt><trkpt lat="57.1412343532" lon="47.9325511493"><ele>203.47</ele><time>2018-08-13T11:45:34Z</time><extensions><gpxtpx:TrackPointExtension><gpxtpx:depth>0.00</gpxtpx:depth></gpxtpx:TrackPointExtension></extensions></trkpt><trkpt lat="57.1404594462" lon="47.9335541278"><ele>203.92</ele><time>2018-08-13T11:46:00Z</time><extensions><gpxtpx:TrackPointExtension><gpxtpx:depth>0.00</gpxtpx:depth></gpxtpx:TrackPointExtension></extensions></trkpt><trkpt lat="57.1396676078" lon="47.9345327150"><ele>203.31</ele><time>2018-08-13T11:46:23Z</time><extensions><gpxtpx:TrackPointExtension><gpxtpx:depth>0.00</gpxtpx:depth></gpxtpx:TrackPointExtension></extensions></trkpt><trkpt lat="57.1388559043" lon="47.9355923552"><ele>201.84</ele><time>2018-08-13T11:46:42Z</time><extensions><gpxtpx:TrackPointExtension><gpxtpx:depth>0.00</gpxtpx:depth></gpxtpx:TrackPointExtension></extensions></trkpt><trkpt lat="57.1380961686" lon="47.9365335591"><ele>200.12</ele><time>2018-08-13T11:46:55Z</time><extensions><gpxtpx:TrackPointExtension><gpxtpx:depth>0.00</gpxtpx:depth></gpxtpx:TrackPointExtension></extensions></trkpt><trkpt lat="57.1372346766" lon="47.9373879265"><ele>197.21</ele><time>2018-08-13T11:47:06Z</time><extensions><gpxtpx:TrackPointExtension><gpxtpx:depth>0.00</gpxtpx:depth></gpxtpx:TrackPointExtension></extensions></trkpt><trkpt lat="57.1363720950" lon="47.9379888251"><ele>193.95</ele><time>2018-08-13T11:47:15Z</time><extensions><gpxtpx:TrackPointExtension><gpxtpx:depth>0.00</gpxtpx:depth></gpxtpx:TrackPointExtension></extensions></trkpt><trkpt lat="57.1353972796" lon="47.9383810144"><ele>188.31</ele><time>2018-08-13T11:47:24Z</time><extensions><gpxtpx:TrackPointExtension><gpxtpx:depth>0.00</gpxtpx:depth></gpxtpx:TrackPointExtension></extensions></trkpt><trkpt lat="57.1344925370" lon="47.9385428689"><ele>184.43</ele><time>2018-08-13T11:47:32Z</time><extensions><gpxtpx:TrackPointExtension><gpxtpx:depth>0.00</gpxtpx:depth></gpxtpx:TrackPointExtension></extensions></trkpt><trkpt lat="57.1335399337" lon="47.9385649972"><ele>179.56</ele><time>2018-08-13T11:47:42Z</time><extensions><gpxtpx:TrackPointExtension><gpxtpx:depth>0.00</gpxtpx:depth></gpxtpx:TrackPointExtension></extensions></trkpt><trkpt lat="57.1326170862" lon="47.9384330660"><ele>177.87</ele><time>2018-08-13T11:47:56Z</time><extensions><gpxtpx:TrackPointExtension><gpxtpx:depth>0.00</gpxtpx:depth></gpxtpx:TrackPointExtension></extensions></trkpt><trkpt lat="57.1316827554" lon="47.9382645898"><ele>177.08</ele><time>2018-08-13T11:48:16Z</time><extensions><gpxtpx:TrackPointExtension><gpxtpx:depth>0.00</gpxtpx:depth></gpxtpx:TrackPointExtension></extensions></trkpt><trkpt lat="57.1307723131" lon="47.9380947724"><ele>176.47</ele><time>2018-08-13T11:48:37Z</time><extensions><gpxtpx:TrackPointExtension><gpxtpx:depth>0.00</gpxtpx:depth></gpxtpx:TrackPointExtension></extensions></trkpt><trkpt lat="57.1298608650" lon="47.9379208479"><ele>177.01</ele><time>2018-08-13T11:49:01Z</time><extensions><gpxtpx:TrackPointExtension><gpxtpx:depth>0.00</gpxtpx:depth></gpxtpx:TrackPointExtension></extensions></trkpt><trkpt lat="57.1289499197" lon="47.9377501085"><ele>178.16</ele><time>2018-08-13T11:49:26Z</time><extensions><gpxtpx:TrackPointExtension><gpxtpx:depth>0.00</gpxtpx:depth></gpxtpx:TrackPointExtension></extensions></trkpt><trkpt lat="57.1280328557" lon="47.9375916906"><ele>179.23</ele><time>2018-08-13T11:49:52Z</time><extensions><gpxtpx:TrackPointExtension><gpxtpx:depth>0.00</gpxtpx:depth></gpxtpx:TrackPointExtension></extensions></trkpt><trkpt lat="57.1271293703" lon="47.9374303389"><ele>179.64</ele><time>2018-08-13T11:50:20Z</time><extensions><gpxtpx:TrackPointExtension><gpxtpx:depth>0.00</gpxtpx:depth></gpxtpx:TrackPointExtension></extensions></trkpt><trkpt lat="57.1262389608" lon="47.9372699931"><ele>180.55</ele><time>2018-08-13T11:50:48Z</time><extensions><gpxtpx:TrackPointExtension><gpxtpx:depth>0.00</gpxtpx:depth></gpxtpx:TrackPointExtension></extensions></trkpt><trkpt lat="57.1253200527" lon="47.9371205438"><ele>181.31</ele><time>2018-08-13T11:51:19Z</time><extensions><gpxtpx:TrackPointExtension><gpxtpx:depth>0.00</gpxtpx:depth></gpxtpx:TrackPointExtension></extensions></trkpt><trkpt lat="57.1244195011" lon="47.9371401574"><ele>182.29</ele><time>2018-08-13T11:51:46Z</time><extensions><gpxtpx:TrackPointExtension><gpxtpx:depth>0.00</gpxtpx:depth></gpxtpx:TrackPointExtension></extensions></trkpt><trkpt lat="57.1235036943" lon="47.9373959731"><ele>182.77</ele><time>2018-08-13T11:52:15Z</time><extensions><gpxtpx:TrackPointExtension><gpxtpx:depth>0.00</gpxtpx:depth></gpxtpx:TrackPointExtension></extensions></trkpt><trkpt lat="57.1226071659" lon="47.9377650283"><ele>184.08</ele><time>2018-08-13T11:52:43Z</time><extensions><gpxtpx:TrackPointExtension><gpxtpx:depth>0.00</gpxtpx:depth></gpxtpx:TrackPointExtension></extensions></trkpt><trkpt lat="57.1217180137" lon="47.9383306392"><ele>184.57</ele><time>2018-08-13T11:53:09Z</time><extensions><gpxtpx:TrackPointExtension><gpxtpx:depth>0.00</gpxtpx:depth></gpxtpx:TrackPointExtension></extensions></trkpt><trkpt lat="57.1208834276" lon="47.9389880318"><ele>184.71</ele><time>2018-08-13T11:53:33Z</time><extensions><gpxtpx:TrackPointExtension><gpxtpx:depth>0.00</gpxtpx:depth></gpxtpx:TrackPointExtension></extensions></trkpt><trkpt lat="57.1200849675" lon="47.9398030881"><ele>184.09</ele><time>2018-08-13T11:53:57Z</time><extensions><gpxtpx:TrackPointExtension><gpxtpx:depth>0.00</gpxtpx:depth></gpxtpx:TrackPointExtension></extensions></trkpt><trkpt lat="57.1193878446" lon="47.9409302864"><ele>183.22</ele><time>2018-08-13T12:00:22Z</time><extensions><gpxtpx:TrackPointExtension><gpxtpx:depth>0.00</gpxtpx:depth></gpxtpx:TrackPointExtension></extensions></trkpt><trkpt lat="57.1186760534" lon="47.9420303274"><ele>182.24</ele><time>2018-08-13T12:00:47Z</time><extensions><gpxtpx:TrackPointExtension><gpxtpx:depth>0.00</gpxtpx:depth></gpxtpx:TrackPointExtension></extensions></trkpt><trkpt lat="57.1179845463" lon="47.9431362357"><ele>182.13</ele><time>2018-08-13T12:01:10Z</time><extensions><gpxtpx:TrackPointExtension><gpxtpx:depth>0.00</gpxtpx:depth></gpxtpx:TrackPointExtension></extensions></trkpt><trkpt lat="57.1173041034" lon="47.9442241229"><ele>182.64</ele><time>2018-08-13T12:01:30Z</time><extensions><gpxtpx:TrackPointExtension><gpxtpx:depth>0.00</gpxtpx:depth></gpxtpx:TrackPointExtension></extensions></trkpt><trkpt lat="57.1166136861" lon="47.9453251697"><ele>183.12</ele><time>2018-08-13T12:01:52Z</time><extensions><gpxtpx:TrackPointExtension><gpxtpx:depth>0.00</gpxtpx:depth></gpxtpx:TrackPointExtension></extensions></trkpt><trkpt lat="57.1159334946" lon="47.9464117996"><ele>183.91</ele><time>2018-08-13T12:02:16Z</time><extensions><gpxtpx:TrackPointExtension><gpxtpx:depth>0.00</gpxtpx:depth></gpxtpx:TrackPointExtension></extensions></trkpt><trkpt lat="57.1152278222" lon="47.9475304484"><ele>184.89</ele><time>2018-08-13T12:02:40Z</time><extensions><gpxtpx:TrackPointExtension><gpxtpx:depth>0.00</gpxtpx:depth></gpxtpx:TrackPointExtension></extensions></trkpt><trkpt lat="57.1145343874" lon="47.9486578982"><ele>184.97</ele><time>2018-08-13T12:03:03Z</time><extensions><gpxtpx:TrackPointExtension><gpxtpx:depth>0.00</gpxtpx:depth></gpxtpx:TrackPointExtension></extensions></trkpt><trkpt lat="57.1138304751" lon="47.9497635551"><ele>184.87</ele><time>2018-08-13T12:03:25Z</time><extensions><gpxtpx:TrackPointExtension><gpxtpx:depth>0.00</gpxtpx:depth></gpxtpx:TrackPointExtension></extensions></trkpt><trkpt lat="57.1131453384" lon="47.9508314934"><ele>184.52</ele><time>2018-08-13T12:03:46Z</time><extensions><gpxtpx:TrackPointExtension><gpxtpx:depth>0.00</gpxtpx:depth></gpxtpx:TrackPointExtension></extensions></trkpt><trkpt lat="57.1124568488" lon="47.9519169498"><ele>184.42</ele><time>2018-08-13T12:04:07Z</time><extensions><gpxtpx:TrackPointExtension><gpxtpx:depth>0.00</gpxtpx:depth></gpxtpx:TrackPointExtension></extensions></trkpt><trkpt lat="57.1117462311" lon="47.9530294798"><ele>184.37</ele><time>2018-08-13T12:04:29Z</time><extensions><gpxtpx:TrackPointExtension><gpxtpx:depth>0.00</gpxtpx:depth></gpxtpx:TrackPointExtension></extensions></trkpt><trkpt lat="57.1110509522" lon="47.9541358072"><ele>184.82</ele><time>2018-08-13T12:04:52Z</time><extensions><gpxtpx:TrackPointExtension><gpxtpx:depth>0.00</gpxtpx:depth></gpxtpx:TrackPointExtension></extensions></trkpt><trkpt lat="57.1103550028" lon="47.9552291427"><ele>185.55</ele><time>2018-08-13T12:05:16Z</time><extensions><gpxtpx:TrackPointExtension><gpxtpx:depth>0.00</gpxtpx:depth></gpxtpx:TrackPointExtension></extensions></trkpt><trkpt lat="57.1096473187" lon="47.9563575145"><ele>185.19</ele><time>2018-08-13T12:05:37Z</time><extensions><gpxtpx:TrackPointExtension><gpxtpx:depth>0.00</gpxtpx:depth></gpxtpx:TrackPointExtension></extensions></trkpt><trkpt lat="57.1089191828" lon="47.9574616626"><ele>184.71</ele><time>2018-08-13T12:05:57Z</time><extensions><gpxtpx:TrackPointExtension><gpxtpx:depth>0.00</gpxtpx:depth></gpxtpx:TrackPointExtension></extensions></trkpt><trkpt lat="57.1081343852" lon="47.9584016092"><ele>184.63</ele><time>2018-08-13T12:06:17Z</time><extensions><gpxtpx:TrackPointExtension><gpxtpx:depth>0.00</gpxtpx:depth></gpxtpx:TrackPointExtension></extensions></trkpt><trkpt lat="57.1073363442" lon="47.9592123069"><ele>184.71</ele><time>2018-08-13T12:06:37Z</time><extensions><gpxtpx:TrackPointExtension><gpxtpx:depth>0.00</gpxtpx:depth></gpxtpx:TrackPointExtension></extensions></trkpt><trkpt lat="57.1065169293" lon="47.9600354936"><ele>185.13</ele><time>2018-08-13T12:06:58Z</time><extensions><gpxtpx:TrackPointExtension><gpxtpx:depth>0.00</gpxtpx:depth></gpxtpx:TrackPointExtension></extensions></trkpt><trkpt lat="57.1057115961" lon="47.9608471133"><ele>186.24</ele><time>2018-08-13T12:07:20Z</time><extensions><gpxtpx:TrackPointExtension><gpxtpx:depth>0.00</gpxtpx:depth></gpxtpx:TrackPointExtension></extensions></trkpt><trkpt lat="57.1049098670" lon="47.9616354313"><ele>186.58</ele><time>2018-08-13T12:07:42Z</time><extensions><gpxtpx:TrackPointExtension><gpxtpx:depth>0.00</gpxtpx:depth></gpxtpx:TrackPointExtension></extensions></trkpt><trkpt lat="57.1041000076" lon="47.9624692630"><ele>187.23</ele><time>2018-08-13T12:08:07Z</time><extensions><gpxtpx:TrackPointExtension><gpxtpx:depth>0.00</gpxtpx:depth></gpxtpx:TrackPointExtension></extensions></trkpt><trkpt lat="57.1034898050" lon="47.9630953074"><ele>188.06</ele><time>2018-08-13T12:09:05Z</time><extensions><gpxtpx:TrackPointExtension><gpxtpx:depth>0.00</gpxtpx:depth></gpxtpx:TrackPointExtension></extensions></trkpt><trkpt lat="57.1026818734" lon="47.9638651852"><ele>188.29</ele><time>2018-08-13T12:09:30Z</time><extensions><gpxtpx:TrackPointExtension><gpxtpx:depth>0.00</gpxtpx:depth></gpxtpx:TrackPointExtension></extensions></trkpt><trkpt lat="57.1018689964" lon="47.9646941554"><ele>187.41</ele><time>2018-08-13T12:09:52Z</time><extensions><gpxtpx:TrackPointExtension><gpxtpx:depth>0.00</gpxtpx:depth></gpxtpx:TrackPointExtension></extensions></trkpt><trkpt lat="57.1010814328" lon="47.9655158333"><ele>187.89</ele><time>2018-08-13T12:10:14Z</time><extensions><gpxtpx:TrackPointExtension><gpxtpx:depth>0.00</gpxtpx:depth></gpxtpx:TrackPointExtension></extensions></trkpt><trkpt lat="57.1002605930" lon="47.9663460609"><ele>188.47</ele><time>2018-08-13T12:10:38Z</time><extensions><gpxtpx:TrackPointExtension><gpxtpx:depth>0.00</gpxtpx:depth></gpxtpx:TrackPointExtension></extensions></trkpt><trkpt lat="57.0994515717" lon="47.9671658948"><ele>188.94</ele><time>2018-08-13T12:11:02Z</time><extensions><gpxtpx:TrackPointExtension><gpxtpx:depth>0.00</gpxtpx:depth></gpxtpx:TrackPointExtension></extensions></trkpt><trkpt lat="57.0986278821" lon="47.9680051748"><ele>189.26</ele><time>2018-08-13T12:11:26Z</time><extensions><gpxtpx:TrackPointExtension><gpxtpx:depth>0.00</gpxtpx:depth></gpxtpx:TrackPointExtension></extensions></trkpt><trkpt lat="57.0978103112" lon="47.9687693529"><ele>190.78</ele><time>2018-08-13T12:11:51Z</time><extensions><gpxtpx:TrackPointExtension><gpxtpx:depth>0.00</gpxtpx:depth></gpxtpx:TrackPointExtension></extensions></trkpt><trkpt lat="57.0969464723" lon="47.9693509731"><ele>191.44</ele><time>2018-08-13T12:12:15Z</time><extensions><gpxtpx:TrackPointExtension><gpxtpx:depth>0.00</gpxtpx:depth></gpxtpx:TrackPointExtension></extensions></trkpt><trkpt lat="57.0960731618" lon="47.9698959645"><ele>191.71</ele><time>2018-08-13T12:12:40Z</time><extensions><gpxtpx:TrackPointExtension><gpxtpx:depth>0.00</gpxtpx:depth></gpxtpx:TrackPointExtension></extensions></trkpt><trkpt lat="57.0951958280" lon="47.9704135470"><ele>191.46</ele><time>2018-08-13T12:13:03Z</time><extensions><gpxtpx:TrackPointExtension><gpxtpx:depth>0.00</gpxtpx:depth></gpxtpx:TrackPointExtension></extensions></trkpt><trkpt lat="57.0943147223" lon="47.9708966799"><ele>190.99</ele><time>2018-08-13T12:13:27Z</time><extensions><gpxtpx:TrackPointExtension><gpxtpx:depth>0.00</gpxtpx:depth></gpxtpx:TrackPointExtension></extensions></trkpt><trkpt lat="57.0934432559" lon="47.9714373965"><ele>191.10</ele><time>2018-08-13T12:13:51Z</time><extensions><gpxtpx:TrackPointExtension><gpxtpx:depth>0.00</gpxtpx:depth></gpxtpx:TrackPointExtension></extensions></trkpt><trkpt lat="57.0925782435" lon="47.9719799571"><ele>191.66</ele><time>2018-08-13T12:14:17Z</time><extensions><gpxtpx:TrackPointExtension><gpxtpx:depth>0.00</gpxtpx:depth></gpxtpx:TrackPointExtension></extensions></trkpt><trkpt lat="57.0917231217" lon="47.9725405388"><ele>193.18</ele><time>2018-08-13T12:14:45Z</time><extensions><gpxtpx:TrackPointExtension><gpxtpx:depth>0.00</gpxtpx:depth></gpxtpx:TrackPointExtension></extensions></trkpt><trkpt lat="57.0908527449" lon="47.9730104282"><ele>195.88</ele><time>2018-08-13T12:15:18Z</time><extensions><gpxtpx:TrackPointExtension><gpxtpx:depth>0.00</gpxtpx:depth></gpxtpx:TrackPointExtension></extensions></trkpt><trkpt lat="57.0899452362" lon="47.9733213969"><ele>198.33</ele><time>2018-08-13T12:15:53Z</time><extensions><gpxtpx:TrackPointExtension><gpxtpx:depth>0.00</gpxtpx:depth></gpxtpx:TrackPointExtension></extensions></trkpt><trkpt lat="57.0890466962" lon="47.9734376539"><ele>200.32</ele><time>2018-08-13T12:16:28Z</time><extensions><gpxtpx:TrackPointExtension><gpxtpx:depth>0.00</gpxtpx:depth></gpxtpx:TrackPointExtension></extensions></trkpt><trkpt lat="57.0881248545" lon="47.9733945709"><ele>201.57</ele><time>2018-08-13T12:17:05Z</time><extensions><gpxtpx:TrackPointExtension><gpxtpx:depth>0.00</gpxtpx:depth></gpxtpx:TrackPointExtension></extensions></trkpt><trkpt lat="57.0872045215" lon="47.9732737038"><ele>203.56</ele><time>2018-08-13T12:17:43Z</time><extensions><gpxtpx:TrackPointExtension><gpxtpx:depth>0.00</gpxtpx:depth></gpxtpx:TrackPointExtension></extensions></trkpt><trkpt lat="57.0863023773" lon="47.9730965104"><ele>205.48</ele><time>2018-08-13T12:18:22Z</time><extensions><gpxtpx:TrackPointExtension><gpxtpx:depth>0.00</gpxtpx:depth></gpxtpx:TrackPointExtension></extensions></trkpt><trkpt lat="57.0854200143" lon="47.9729479831"><ele>206.70</ele><time>2018-08-13T12:19:58Z</time><extensions><gpxtpx:TrackPointExtension><gpxtpx:depth>0.00</gpxtpx:depth></gpxtpx:TrackPointExtension></extensions></trkpt><trkpt lat="57.0845169481" lon="47.9727864638"><ele>208.35</ele><time>2018-08-13T12:20:46Z</time><extensions><gpxtpx:TrackPointExtension><gpxtpx:depth>0.00</gpxtpx:depth></gpxtpx:TrackPointExtension></extensions></trkpt><trkpt lat="57.0835948549" lon="47.9726282973"><ele>209.63</ele><time>2018-08-13T12:21:29Z</time><extensions><gpxtpx:TrackPointExtension><gpxtpx:depth>0.00</gpxtpx:depth></gpxtpx:TrackPointExtension></extensions></trkpt><trkpt lat="57.0826754440" lon="47.9727205820"><ele>210.44</ele><time>2018-08-13T12:22:02Z</time><extensions><gpxtpx:TrackPointExtension><gpxtpx:depth>0.00</gpxtpx:depth></gpxtpx:TrackPointExtension></extensions></trkpt><trkpt lat="57.0817727130" lon="47.9730815068"><ele>210.70</ele><time>2018-08-13T12:22:28Z</time><extensions><gpxtpx:TrackPointExtension><gpxtpx:depth>0.00</gpxtpx:depth></gpxtpx:TrackPointExtension></extensions></trkpt><trkpt lat="57.0808387175" lon="47.9732006975"><ele>210.87</ele><time>2018-08-13T12:22:53Z</time><extensions><gpxtpx:TrackPointExtension><gpxtpx:depth>0.00</gpxtpx:depth></gpxtpx:TrackPointExtension></extensions></trkpt><trkpt lat="57.0799717773" lon="47.9727473203"><ele>211.08</ele><time>2018-08-13T12:23:17Z</time><extensions><gpxtpx:TrackPointExtension><gpxtpx:depth>0.00</gpxtpx:depth></gpxtpx:TrackPointExtension></extensions></trkpt><trkpt lat="57.0792320743" lon="47.9717573337"><ele>210.90</ele><time>2018-08-13T12:23:43Z</time><extensions><gpxtpx:TrackPointExtension><gpxtpx:depth>0.00</gpxtpx:depth></gpxtpx:TrackPointExtension></extensions></trkpt><trkpt lat="57.0785463508" lon="47.9706925806"><ele>211.88</ele><time>2018-08-13T12:24:11Z</time><extensions><gpxtpx:TrackPointExtension><gpxtpx:depth>0.00</gpxtpx:depth></gpxtpx:TrackPointExtension></extensions></trkpt><trkpt lat="57.0777437836" lon="47.9699493572"><ele>212.36</ele><time>2018-08-13T12:24:38Z</time><extensions><gpxtpx:TrackPointExtension><gpxtpx:depth>0.00</gpxtpx:depth></gpxtpx:TrackPointExtension></extensions></trkpt><trkpt lat="57.0768774301" lon="47.9694435932"><ele>212.59</ele><time>2018-08-13T12:25:06Z</time><extensions><gpxtpx:TrackPointExtension><gpxtpx:depth>0.00</gpxtpx:depth></gpxtpx:TrackPointExtension></extensions></trkpt><trkpt lat="57.0760081429" lon="47.9689501505"><ele>212.78</ele><time>2018-08-13T12:25:30Z</time><extensions><gpxtpx:TrackPointExtension><gpxtpx:depth>0.00</gpxtpx:depth></gpxtpx:TrackPointExtension></extensions></trkpt><trkpt lat="57.0751552004" lon="47.9684836976"><ele>213.06</ele><time>2018-08-13T12:25:55Z</time><extensions><gpxtpx:TrackPointExtension><gpxtpx:depth>0.00</gpxtpx:depth></gpxtpx:TrackPointExtension></extensions></trkpt><trkpt lat="57.0742818061" lon="47.9680057615"><ele>214.06</ele><time>2018-08-13T12:26:23Z</time><extensions><gpxtpx:TrackPointExtension><gpxtpx:depth>0.00</gpxtpx:depth></gpxtpx:TrackPointExtension></extensions></trkpt><trkpt lat="57.0733929891" lon="47.9675114807"><ele>215.48</ele><time>2018-08-13T12:26:51Z</time><extensions><gpxtpx:TrackPointExtension><gpxtpx:depth>0.00</gpxtpx:depth></gpxtpx:TrackPointExtension></extensions></trkpt><trkpt lat="57.0725272223" lon="47.9670048784"><ele>216.80</ele><time>2018-08-13T12:27:21Z</time><extensions><gpxtpx:TrackPointExtension><gpxtpx:depth>0.00</gpxtpx:depth></gpxtpx:TrackPointExtension></extensions></trkpt><trkpt lat="57.0716811530" lon="47.9663876351"><ele>217.72</ele><time>2018-08-13T12:27:51Z</time><extensions><gpxtpx:TrackPointExtension><gpxtpx:depth>0.00</gpxtpx:depth></gpxtpx:TrackPointExtension></extensions></trkpt><trkpt lat="57.0708751492" lon="47.9656514525"><ele>219.70</ele><time>2018-08-13T12:28:26Z</time><extensions><gpxtpx:TrackPointExtension><gpxtpx:depth>0.00</gpxtpx:depth></gpxtpx:TrackPointExtension></extensions></trkpt><trkpt lat="57.0701019187" lon="47.9647985101"><ele>222.11</ele><time>2018-08-13T12:29:02Z</time><extensions><gpxtpx:TrackPointExtension><gpxtpx:depth>0.00</gpxtpx:depth></gpxtpx:TrackPointExtension></extensions></trkpt><trkpt lat="57.0693410095" lon="47.9639355093"><ele>224.25</ele><time>2018-08-13T12:29:39Z</time><extensions><gpxtpx:TrackPointExtension><gpxtpx:depth>0.00</gpxtpx:depth></gpxtpx:TrackPointExtension></extensions></trkpt><trkpt lat="57.0685761608" lon="47.9630684853"><ele>225.42</ele><time>2018-08-13T12:30:34Z</time><extensions><gpxtpx:TrackPointExtension><gpxtpx:depth>0.00</gpxtpx:depth></gpxtpx:TrackPointExtension></extensions></trkpt><trkpt lat="57.0677936263" lon="47.9621573724"><ele>225.87</ele><time>2018-08-13T12:31:03Z</time><extensions><gpxtpx:TrackPointExtension><gpxtpx:depth>0.00</gpxtpx:depth></gpxtpx:TrackPointExtension></extensions></trkpt><trkpt lat="57.0670112595" lon="47.9612671304"><ele>225.67</ele><time>2018-08-13T12:31:27Z</time><extensions><gpxtpx:TrackPointExtension><gpxtpx:depth>0.00</gpxtpx:depth></gpxtpx:TrackPointExtension></extensions></trkpt><trkpt lat="57.0662179962" lon="47.9603416007"><ele>224.90</ele><time>2018-08-13T12:31:51Z</time><extensions><gpxtpx:TrackPointExtension><gpxtpx:depth>0.00</gpxtpx:depth></gpxtpx:TrackPointExtension></extensions></trkpt><trkpt lat="57.0654266607" lon="47.9594481736"><ele>224.56</ele><time>2018-08-13T12:32:14Z</time><extensions><gpxtpx:TrackPointExtension><gpxtpx:depth>0.00</gpxtpx:depth></gpxtpx:TrackPointExtension></extensions></trkpt><trkpt lat="57.0646386780" lon="47.9585490469"><ele>224.91</ele><time>2018-08-13T12:32:37Z</time><extensions><gpxtpx:TrackPointExtension><gpxtpx:depth>0.00</gpxtpx:depth></gpxtpx:TrackPointExtension></extensions></trkpt><trkpt lat="57.0638743322" lon="47.9576645885"><ele>224.78</ele><time>2018-08-13T12:33:00Z</time><extensions><gpxtpx:TrackPointExtension><gpxtpx:depth>0.00</gpxtpx:depth></gpxtpx:TrackPointExtension></extensions></trkpt><trkpt lat="57.0631132554" lon="47.9567321856"><ele>223.88</ele><time>2018-08-13T12:33:21Z</time><extensions><gpxtpx:TrackPointExtension><gpxtpx:depth>0.00</gpxtpx:depth></gpxtpx:TrackPointExtension></extensions></trkpt><trkpt lat="57.0623644162" lon="47.9557032231"><ele>223.04</ele><time>2018-08-13T12:33:43Z</time><extensions><gpxtpx:TrackPointExtension><gpxtpx:depth>0.00</gpxtpx:depth></gpxtpx:TrackPointExtension></extensions></trkpt><trkpt lat="57.0616529603" lon="47.9545882624"><ele>222.22</ele><time>2018-08-13T12:34:03Z</time><extensions><gpxtpx:TrackPointExtension><gpxtpx:depth>0.00</gpxtpx:depth></gpxtpx:TrackPointExtension></extensions></trkpt><trkpt lat="57.0609653089" lon="47.9534070846"><ele>220.61</ele><time>2018-08-13T12:34:20Z</time><extensions><gpxtpx:TrackPointExtension><gpxtpx:depth>0.00</gpxtpx:depth></gpxtpx:TrackPointExtension></extensions></trkpt><trkpt lat="57.0602914039" lon="47.9522503819"><ele>219.33</ele><time>2018-08-13T12:34:37Z</time><extensions><gpxtpx:TrackPointExtension><gpxtpx:depth>0.00</gpxtpx:depth></gpxtpx:TrackPointExtension></extensions></trkpt><trkpt lat="57.0596134756" lon="47.9510842916"><ele>218.33</ele><time>2018-08-13T12:34:56Z</time><extensions><gpxtpx:TrackPointExtension><gpxtpx:depth>0.00</gpxtpx:depth></gpxtpx:TrackPointExtension></extensions></trkpt><trkpt lat="57.0589489583" lon="47.9499363061"><ele>217.15</ele><time>2018-08-13T12:35:14Z</time><extensions><gpxtpx:TrackPointExtension><gpxtpx:depth>0.00</gpxtpx:depth></gpxtpx:TrackPointExtension></extensions></trkpt><trkpt lat="57.0582618099" lon="47.9487575591"><ele>216.17</ele><time>2018-08-13T12:35:33Z</time><extensions><gpxtpx:TrackPointExtension><gpxtpx:depth>0.00</gpxtpx:depth></gpxtpx:TrackPointExtension></extensions></trkpt><trkpt lat="57.0575967897" lon="47.9476187099"><ele>215.38</ele><time>2018-08-13T12:35:52Z</time><extensions><gpxtpx:TrackPointExtension><gpxtpx:depth>0.00</gpxtpx:depth></gpxtpx:TrackPointExtension></extensions></trkpt><trkpt lat="57.0569338650" lon="47.9464863148"><ele>215.24</ele><time>2018-08-13T12:36:12Z</time><extensions><gpxtpx:TrackPointExtension><gpxtpx:depth>0.00</gpxtpx:depth></gpxtpx:TrackPointExtension></extensions></trkpt><trkpt lat="57.0562461298" lon="47.9453196377"><ele>214.96</ele><time>2018-08-13T12:36:35Z</time><extensions><gpxtpx:TrackPointExtension><gpxtpx:depth>0.00</gpxtpx:depth></gpxtpx:TrackPointExtension></extensions></trkpt><trkpt lat="57.0555755775" lon="47.9441904277"><ele>214.37</ele><time>2018-08-13T12:36:55Z</time><extensions><gpxtpx:TrackPointExtension><gpxtpx:depth>0.00</gpxtpx:depth></gpxtpx:TrackPointExtension></extensions></trkpt><trkpt lat="57.0549124852" lon="47.9430480581"><ele>215.14</ele><time>2018-08-13T12:37:16Z</time><extensions><gpxtpx:TrackPointExtension><gpxtpx:depth>0.00</gpxtpx:depth></gpxtpx:TrackPointExtension></extensions></trkpt><trkpt lat="57.0542340539" lon="47.9419017490"><ele>215.87</ele><time>2018-08-13T12:37:40Z</time><extensions><gpxtpx:TrackPointExtension><gpxtpx:depth>0.00</gpxtpx:depth></gpxtpx:TrackPointExtension></extensions></trkpt><trkpt lat="57.0535387751" lon="47.9407268576"><ele>216.09</ele><time>2018-08-13T12:38:04Z</time><extensions><gpxtpx:TrackPointExtension><gpxtpx:depth>0.00</gpxtpx:depth></gpxtpx:TrackPointExtension></extensions></trkpt><trkpt lat="57.0528802928" lon="47.9395883437"><ele>215.52</ele><time>2018-08-13T12:38:24Z</time><extensions><gpxtpx:TrackPointExtension><gpxtpx:depth>0.00</gpxtpx:depth></gpxtpx:TrackPointExtension></extensions></trkpt><trkpt lat="57.0522054657" lon="47.9384520091"><ele>214.53</ele><time>2018-08-13T12:38:44Z</time><extensions><gpxtpx:TrackPointExtension><gpxtpx:depth>0.00</gpxtpx:depth></gpxtpx:TrackPointExtension></extensions></trkpt><trkpt lat="57.0515554491" lon="47.9372936301"><ele>214.28</ele><time>2018-08-13T12:39:06Z</time><extensions><gpxtpx:TrackPointExtension><gpxtpx:depth>0.00</gpxtpx:depth></gpxtpx:TrackPointExtension></extensions></trkpt><trkpt lat="57.0508455019" lon="47.9362149630"><ele>213.53</ele><time>2018-08-13T12:39:29Z</time><extensions><gpxtpx:TrackPointExtension><gpxtpx:depth>0.00</gpxtpx:depth></gpxtpx:TrackPointExtension></extensions></trkpt><trkpt lat="57.0501222275" lon="47.9351678118"><ele>212.55</ele><time>2018-08-13T12:39:50Z</time><extensions><gpxtpx:TrackPointExtension><gpxtpx:depth>0.00</gpxtpx:depth></gpxtpx:TrackPointExtension></extensions></trkpt><trkpt lat="57.0493860450" lon="47.9341742210"><ele>210.88</ele><time>2018-08-13T12:40:10Z</time><extensions><gpxtpx:TrackPointExtension><gpxtpx:depth>0.00</gpxtpx:depth></gpxtpx:TrackPointExtension></extensions></trkpt><trkpt lat="57.0486426540" lon="47.9331933707"><ele>209.08</ele><time>2018-08-13T12:40:30Z</time><extensions><gpxtpx:TrackPointExtension><gpxtpx:depth>0.00</gpxtpx:depth></gpxtpx:TrackPointExtension></extensions></trkpt><trkpt lat="57.0479045436" lon="47.9322050605"><ele>207.46</ele><time>2018-08-13T12:40:51Z</time><extensions><gpxtpx:TrackPointExtension><gpxtpx:depth>0.00</gpxtpx:depth></gpxtpx:TrackPointExtension></extensions></trkpt><trkpt lat="57.0471758209" lon="47.9312279820"><ele>206.31</ele><time>2018-08-13T12:41:13Z</time><extensions><gpxtpx:TrackPointExtension><gpxtpx:depth>0.00</gpxtpx:depth></gpxtpx:TrackPointExtension></extensions></trkpt><trkpt lat="57.0464274846" lon="47.9302087426"><ele>205.74</ele><time>2018-08-13T12:41:36Z</time><extensions><gpxtpx:TrackPointExtension><gpxtpx:depth>0.00</gpxtpx:depth></gpxtpx:TrackPointExtension></extensions></trkpt><trkpt lat="57.0456837583" lon="47.9292207677"><ele>205.61</ele><time>2018-08-13T12:41:59Z</time><extensions><gpxtpx:TrackPointExtension><gpxtpx:depth>0.00</gpxtpx:depth></gpxtpx:TrackPointExtension></extensions></trkpt><trkpt lat="57.0449567121" lon="47.9282334633"><ele>204.91</ele><time>2018-08-13T12:42:30Z</time><extensions><gpxtpx:TrackPointExtension><gpxtpx:depth>0.00</gpxtpx:depth></gpxtpx:TrackPointExtension></extensions></trkpt><trkpt lat="57.0442113932" lon="47.9272247851"><ele>204.35</ele><time>2018-08-13T12:42:53Z</time><extensions><gpxtpx:TrackPointExtension><gpxtpx:depth>0.00</gpxtpx:depth></gpxtpx:TrackPointExtension></extensions></trkpt><trkpt lat="57.0434524957" lon="47.9261964094"><ele>203.54</ele><time>2018-08-13T12:43:15Z</time><extensions><gpxtpx:TrackPointExtension><gpxtpx:depth>0.00</gpxtpx:depth></gpxtpx:TrackPointExtension></extensions></trkpt><trkpt lat="57.0427151397" lon="47.9252058361"><ele>202.53</ele><time>2018-08-13T12:43:36Z</time><extensions><gpxtpx:TrackPointExtension><gpxtpx:depth>0.00</gpxtpx:depth></gpxtpx:TrackPointExtension></extensions></trkpt><trkpt lat="57.0419763587" lon="47.9242185317"><ele>202.08</ele><time>2018-08-13T12:43:58Z</time><extensions><gpxtpx:TrackPointExtension><gpxtpx:depth>0.00</gpxtpx:depth></gpxtpx:TrackPointExtension></extensions></trkpt><trkpt lat="57.0412265137" lon="47.9232106917"><ele>200.23</ele><time>2018-08-13T12:44:20Z</time><extensions><gpxtpx:TrackPointExtension><gpxtpx:depth>0.00</gpxtpx:depth></gpxtpx:TrackPointExtension></extensions></trkpt><trkpt lat="57.0404789317" lon="47.9221994150"><ele>198.78</ele><time>2018-08-13T12:44:41Z</time><extensions><gpxtpx:TrackPointExtension><gpxtpx:depth>0.00</gpxtpx:depth></gpxtpx:TrackPointExtension></extensions></trkpt><trkpt lat="57.0397366304" lon="47.9211865459"><ele>197.57</ele><time>2018-08-13T12:45:02Z</time><extensions><gpxtpx:TrackPointExtension><gpxtpx:depth>0.00</gpxtpx:depth></gpxtpx:TrackPointExtension></extensions></trkpt><trkpt lat="57.0389889646" lon="47.9201927874"><ele>196.03</ele><time>2018-08-13T12:45:24Z</time><extensions><gpxtpx:TrackPointExtension><gpxtpx:depth>0.00</gpxtpx:depth></gpxtpx:TrackPointExtension></extensions></trkpt><trkpt lat="57.0382293966" lon="47.9191706982"><ele>193.98</ele><time>2018-08-13T12:45:43Z</time><extensions><gpxtpx:TrackPointExtension><gpxtpx:depth>0.00</gpxtpx:depth></gpxtpx:TrackPointExtension></extensions></trkpt><trkpt lat="57.0374777075" lon="47.9181357007"><ele>191.57</ele><time>2018-08-13T12:46:03Z</time><extensions><gpxtpx:TrackPointExtension><gpxtpx:depth>0.00</gpxtpx:depth></gpxtpx:TrackPointExtension></extensions></trkpt><trkpt lat="57.0367243420" lon="47.9171352368"><ele>189.88</ele><time>2018-08-13T12:46:22Z</time><extensions><gpxtpx:TrackPointExtension><gpxtpx:depth>0.00</gpxtpx:depth></gpxtpx:TrackPointExtension></extensions></trkpt><trkpt lat="57.0359969605" lon="47.9161480162"><ele>187.12</ele><time>2018-08-13T12:46:39Z</time><extensions><gpxtpx:TrackPointExtension><gpxtpx:depth>0.00</gpxtpx:depth></gpxtpx:TrackPointExtension></extensions></trkpt><trkpt lat="57.0352596883" lon="47.9151533358"><ele>184.26</ele><time>2018-08-13T12:46:54Z</time><extensions><gpxtpx:TrackPointExtension><gpxtpx:depth>0.00</gpxtpx:depth></gpxtpx:TrackPointExtension></extensions></trkpt><trkpt lat="57.0345075801" lon="47.9141373653"><ele>182.03</ele><time>2018-08-13T12:47:12Z</time><extensions><gpxtpx:TrackPointExtension><gpxtpx:depth>0.00</gpxtpx:depth></gpxtpx:TrackPointExtension></extensions></trkpt><trkpt lat="57.0337686315" lon="47.9131637234"><ele>182.31</ele><time>2018-08-13T12:47:37Z</time><extensions><gpxtpx:TrackPointExtension><gpxtpx:depth>0.00</gpxtpx:depth></gpxtpx:TrackPointExtension></extensions></trkpt><trkpt lat="57.0330283418" lon="47.9121625889"><ele>183.10</ele><time>2018-08-13T12:48:08Z</time><extensions><gpxtpx:TrackPointExtension><gpxtpx:depth>0.00</gpxtpx:depth></gpxtpx:TrackPointExtension></extensions></trkpt><trkpt lat="57.0322788320" lon="47.9111685790"><ele>184.77</ele><time>2018-08-13T12:48:40Z</time><extensions><gpxtpx:TrackPointExtension><gpxtpx:depth>0.00</gpxtpx:depth></gpxtpx:TrackPointExtension></extensions></trkpt><trkpt lat="57.0315322559" lon="47.9101477470"><ele>185.62</ele><time>2018-08-13T12:49:12Z</time><extensions><gpxtpx:TrackPointExtension><gpxtpx:depth>0.00</gpxtpx:depth></gpxtpx:TrackPointExtension></extensions></trkpt><trkpt lat="57.0308048744" lon="47.9091656394"><ele>186.58</ele><time>2018-08-13T12:49:44Z</time><extensions><gpxtpx:TrackPointExtension><gpxtpx:depth>0.00</gpxtpx:depth></gpxtpx:TrackPointExtension></extensions></trkpt><trkpt lat="57.0300773252" lon="47.9081909079"><ele>187.36</ele><time>2018-08-13T12:50:18Z</time><extensions><gpxtpx:TrackPointExtension><gpxtpx:depth>0.00</gpxtpx:depth></gpxtpx:TrackPointExtension></extensions></trkpt><trkpt lat="57.0293317549" lon="47.9071942158"><ele>188.72</ele><time>2018-08-13T12:50:58Z</time><extensions><gpxtpx:TrackPointExtension><gpxtpx:depth>0.00</gpxtpx:depth></gpxtpx:TrackPointExtension></extensions></trkpt><trkpt lat="57.0285962429" lon="47.9062131140"><ele>189.85</ele><time>2018-08-13T12:51:38Z</time><extensions><gpxtpx:TrackPointExtension><gpxtpx:depth>0.00</gpxtpx:depth></gpxtpx:TrackPointExtension></extensions></trkpt><trkpt lat="57.0281939954" lon="47.9058011435"><ele>189.89</ele><time>2018-08-13T13:05:28Z</time><extensions><gpxtpx:TrackPointExtension><gpxtpx:depth>0.00</gpxtpx:depth></gpxtpx:TrackPointExtension></extensions></trkpt><trkpt lat="57.0275127981" lon="47.9047595244"><ele>191.26</ele><time>2018-08-13T13:06:11Z</time><extensions><gpxtpx:TrackPointExtension><gpxtpx:depth>0.00</gpxtpx:depth></gpxtpx:TrackPointExtension></extensions></trkpt><trkpt lat="57.0267768670" lon="47.9037887324"><ele>192.28</ele><time>2018-08-13T13:06:55Z</time><extensions><gpxtpx:TrackPointExtension><gpxtpx:depth>0.00</gpxtpx:depth></gpxtpx:TrackPointExtension></extensions></trkpt><trkpt lat="57.0260365773" lon="47.9028284177"><ele>193.21</ele><time>2018-08-13T13:07:49Z</time><extensions><gpxtpx:TrackPointExtension><gpxtpx:depth>0.00</gpxtpx:depth></gpxtpx:TrackPointExtension></extensions></trkpt><trkpt lat="57.0252728183" lon="47.9019378405"><ele>193.29</ele><time>2018-08-13T13:08:32Z</time><extensions><gpxtpx:TrackPointExtension><gpxtpx:depth>0.00</gpxtpx:depth></gpxtpx:TrackPointExtension></extensions></trkpt><trkpt lat="57.0245072152" lon="47.9010534659"><ele>193.44</ele><time>2018-08-13T13:08:58Z</time><extensions><gpxtpx:TrackPointExtension><gpxtpx:depth>0.00</gpxtpx:depth></gpxtpx:TrackPointExtension></extensions></trkpt><trkpt lat="57.0237311348" lon="47.9001742881"><ele>193.49</ele><time>2018-08-13T13:09:25Z</time><extensions><gpxtpx:TrackPointExtension><gpxtpx:depth>0.00</gpxtpx:depth></gpxtpx:TrackPointExtension></extensions></trkpt><trkpt lat="57.0229405537" lon="47.8992835432"><ele>193.12</ele><time>2018-08-13T13:09:52Z</time><extensions><gpxtpx:TrackPointExtension><gpxtpx:depth>0.00</gpxtpx:depth></gpxtpx:TrackPointExtension></extensions></trkpt><trkpt lat="57.0221724361" lon="47.8984208778"><ele>192.62</ele><time>2018-08-13T13:10:21Z</time><extensions><gpxtpx:TrackPointExtension><gpxtpx:depth>0.00</gpxtpx:depth></gpxtpx:TrackPointExtension></extensions></trkpt><trkpt lat="57.0213970263" lon="47.8975571226"><ele>192.57</ele><time>2018-08-13T13:10:51Z</time><extensions><gpxtpx:TrackPointExtension><gpxtpx:depth>0.00</gpxtpx:depth></gpxtpx:TrackPointExtension></extensions></trkpt><trkpt lat="57.0205956325" lon="47.8966473509"><ele>192.44</ele><time>2018-08-13T13:11:17Z</time><extensions><gpxtpx:TrackPointExtension><gpxtpx:depth>0.00</gpxtpx:depth></gpxtpx:TrackPointExtension></extensions></trkpt><trkpt lat="57.0197971724" lon="47.8957273532"><ele>192.21</ele><time>2018-08-13T13:11:41Z</time><extensions><gpxtpx:TrackPointExtension><gpxtpx:depth>0.00</gpxtpx:depth></gpxtpx:TrackPointExtension></extensions></trkpt><trkpt lat="57.0190178230" lon="47.8948558867"><ele>191.93</ele><time>2018-08-13T13:12:06Z</time><extensions><gpxtpx:TrackPointExtension><gpxtpx:depth>0.00</gpxtpx:depth></gpxtpx:TrackPointExtension></extensions></trkpt><trkpt lat="57.0182480291" lon="47.8939957358"><ele>191.79</ele><time>2018-08-13T13:12:32Z</time><extensions><gpxtpx:TrackPointExtension><gpxtpx:depth>0.00</gpxtpx:depth></gpxtpx:TrackPointExtension></extensions></trkpt><trkpt lat="57.0174592081" lon="47.8931163065"><ele>191.93</ele><time>2018-08-13T13:12:59Z</time><extensions><gpxtpx:TrackPointExtension><gpxtpx:depth>0.00</gpxtpx:depth></gpxtpx:TrackPointExtension></extensions></trkpt><trkpt lat="57.0166661963" lon="47.8922377154"><ele>192.26</ele><time>2018-08-13T13:13:26Z</time><extensions><gpxtpx:TrackPointExtension><gpxtpx:depth>0.00</gpxtpx:depth></gpxtpx:TrackPointExtension></extensions></trkpt><trkpt lat="57.0158800576" lon="47.8913601302"><ele>192.27</ele><time>2018-08-13T13:13:55Z</time><extensions><gpxtpx:TrackPointExtension><gpxtpx:depth>0.00</gpxtpx:depth></gpxtpx:TrackPointExtension></extensions></trkpt><trkpt lat="57.0150917396" lon="47.8904786892"><ele>192.68</ele><time>2018-08-13T13:14:21Z</time><extensions><gpxtpx:TrackPointExtension><gpxtpx:depth>0.00</gpxtpx:depth></gpxtpx:TrackPointExtension></extensions></trkpt><trkpt lat="57.0142937824" lon="47.8895868547"><ele>192.17</ele><time>2018-08-13T13:14:46Z</time><extensions><gpxtpx:TrackPointExtension><gpxtpx:depth>0.00</gpxtpx:depth></gpxtpx:TrackPointExtension></extensions></trkpt><trkpt lat="57.0135098230" lon="47.8887239378"><ele>192.29</ele><time>2018-08-13T13:15:11Z</time><extensions><gpxtpx:TrackPointExtension><gpxtpx:depth>0.00</gpxtpx:depth></gpxtpx:TrackPointExtension></extensions></trkpt><trkpt lat="57.0127283782" lon="47.8878684808"><ele>191.66</ele><time>2018-08-13T13:15:35Z</time><extensions><gpxtpx:TrackPointExtension><gpxtpx:depth>0.00</gpxtpx:depth></gpxtpx:TrackPointExtension></extensions></trkpt><trkpt lat="57.0119370427" lon="47.8870056476"><ele>191.40</ele><time>2018-08-13T13:15:59Z</time><extensions><gpxtpx:TrackPointExtension><gpxtpx:depth>0.00</gpxtpx:depth></gpxtpx:TrackPointExtension></extensions></trkpt><trkpt lat="57.0111408457" lon="47.8861191776"><ele>191.37</ele><time>2018-08-13T13:16:22Z</time><extensions><gpxtpx:TrackPointExtension><gpxtpx:depth>0.00</gpxtpx:depth></gpxtpx:TrackPointExtension></extensions></trkpt><trkpt lat="57.0103596523" lon="47.8852304444"><ele>189.31</ele><time>2018-08-13T13:16:47Z</time><extensions><gpxtpx:TrackPointExtension><gpxtpx:depth>0.00</gpxtpx:depth></gpxtpx:TrackPointExtension></extensions></trkpt><trkpt lat="57.0095652994" lon="47.8843291383"><ele>189.09</ele><time>2018-08-13T13:17:11Z</time><extensions><gpxtpx:TrackPointExtension><gpxtpx:depth>0.00</gpxtpx:depth></gpxtpx:TrackPointExtension></extensions></trkpt><trkpt lat="57.0087762270" lon="47.8834557440"><ele>188.60</ele><time>2018-08-13T13:17:34Z</time><extensions><gpxtpx:TrackPointExtension><gpxtpx:depth>0.00</gpxtpx:depth></gpxtpx:TrackPointExtension></extensions></trkpt><trkpt lat="57.0079827961" lon="47.8825647477"><ele>188.89</ele><time>2018-08-13T13:17:58Z</time><extensions><gpxtpx:TrackPointExtension><gpxtpx:depth>0.00</gpxtpx:depth></gpxtpx:TrackPointExtension></extensions></trkpt><trkpt lat="57.0071918797" lon="47.8816870786"><ele>189.61</ele><time>2018-08-13T13:18:25Z</time><extensions><gpxtpx:TrackPointExtension><gpxtpx:depth>0.00</gpxtpx:depth></gpxtpx:TrackPointExtension></extensions></trkpt><trkpt lat="57.0064139552" lon="47.8807996027"><ele>190.89</ele><time>2018-08-13T13:18:54Z</time><extensions><gpxtpx:TrackPointExtension><gpxtpx:depth>0.00</gpxtpx:depth></gpxtpx:TrackPointExtension></extensions></trkpt><trkpt lat="57.0056245476" lon="47.8799231909"><ele>192.02</ele><time>2018-08-13T13:19:23Z</time><extensions><gpxtpx:TrackPointExtension><gpxtpx:depth>0.00</gpxtpx:depth></gpxtpx:TrackPointExtension></extensions></trkpt><trkpt lat="57.0048161130" lon="47.8790632077"><ele>193.26</ele><time>2018-08-13T13:19:52Z</time><extensions><gpxtpx:TrackPointExtension><gpxtpx:depth>0.00</gpxtpx:depth></gpxtpx:TrackPointExtension></extensions></trkpt><trkpt lat="57.0040358417" lon="47.8781561181"><ele>194.23</ele><time>2018-08-13T13:20:21Z</time><extensions><gpxtpx:TrackPointExtension><gpxtpx:depth>0.00</gpxtpx:depth></gpxtpx:TrackPointExtension></extensions></trkpt><trkpt lat="57.0032633655" lon="47.8772889264"><ele>195.15</ele><time>2018-08-13T13:20:49Z</time><extensions><gpxtpx:TrackPointExtension><gpxtpx:depth>0.00</gpxtpx:depth></gpxtpx:TrackPointExtension></extensions></trkpt><trkpt lat="57.0024744608" lon="47.8764072340"><ele>195.47</ele><time>2018-08-13T13:21:15Z</time><extensions><gpxtpx:TrackPointExtension><gpxtpx:depth>0.00</gpxtpx:depth></gpxtpx:TrackPointExtension></extensions></trkpt><trkpt lat="57.0016457420" lon="47.8755858075"><ele>195.44</ele><time>2018-08-13T13:21:38Z</time><extensions><gpxtpx:TrackPointExtension><gpxtpx:depth>0.00</gpxtpx:depth></gpxtpx:TrackPointExtension></extensions></trkpt><trkpt lat="57.0008406602" lon="47.8747012652"><ele>194.19</ele><time>2018-08-13T13:21:59Z</time><extensions><gpxtpx:TrackPointExtension><gpxtpx:depth>0.00</gpxtpx:depth></gpxtpx:TrackPointExtension></extensions></trkpt><trkpt lat="57.0000001229" lon="47.8740832675"><ele>193.09</ele><time>2018-08-13T13:22:16Z</time><extensions><gpxtpx:TrackPointExtension><gpxtpx:depth>0.00</gpxtpx:depth></gpxtpx:TrackPointExtension></extensions></trkpt><trkpt lat="56.9992709812" lon="47.8731106315"><ele>192.39</ele><time>2018-08-13T13:22:40Z</time><extensions><gpxtpx:TrackPointExtension><gpxtpx:depth>0.00</gpxtpx:depth></gpxtpx:TrackPointExtension></extensions></trkpt><trkpt lat="56.9984226488" lon="47.8724156879"><ele>192.28</ele><time>2018-08-13T13:23:02Z</time><extensions><gpxtpx:TrackPointExtension><gpxtpx:depth>0.00</gpxtpx:depth></gpxtpx:TrackPointExtension></extensions></trkpt><trkpt lat="56.9975652639" lon="47.8718087543"><ele>192.91</ele><time>2018-08-13T13:23:26Z</time><extensions><gpxtpx:TrackPointExtension><gpxtpx:depth>0.00</gpxtpx:depth></gpxtpx:TrackPointExtension></extensions></trkpt><trkpt lat="56.9966853317" lon="47.8712625057"><ele>192.97</ele><time>2018-08-13T13:23:51Z</time><extensions><gpxtpx:TrackPointExtension><gpxtpx:depth>0.00</gpxtpx:depth></gpxtpx:TrackPointExtension></extensions></trkpt><trkpt lat="56.9957981072" lon="47.8708156664"><ele>193.16</ele><time>2018-08-13T13:24:14Z</time><extensions><gpxtpx:TrackPointExtension><gpxtpx:depth>0.00</gpxtpx:depth></gpxtpx:TrackPointExtension></extensions></trkpt><trkpt lat="56.9949202705" lon="47.8704503831"><ele>193.38</ele><time>2018-08-13T13:24:38Z</time><extensions><gpxtpx:TrackPointExtension><gpxtpx:depth>0.00</gpxtpx:depth></gpxtpx:TrackPointExtension></extensions></trkpt><trkpt lat="56.9940132648" lon="47.8700916376"><ele>193.27</ele><time>2018-08-13T13:25:02Z</time><extensions><gpxtpx:TrackPointExtension><gpxtpx:depth>0.00</gpxtpx:depth></gpxtpx:TrackPointExtension></extensions></trkpt><trkpt lat="56.9930897467" lon="47.8698950820"><ele>193.35</ele><time>2018-08-13T13:25:28Z</time><extensions><gpxtpx:TrackPointExtension><gpxtpx:depth>0.00</gpxtpx:depth></gpxtpx:TrackPointExtension></extensions></trkpt><trkpt lat="56.9921727665" lon="47.8697749693"><ele>193.72</ele><time>2018-08-13T13:25:55Z</time><extensions><gpxtpx:TrackPointExtension><gpxtpx:depth>0.00</gpxtpx:depth></gpxtpx:TrackPointExtension></extensions></trkpt><trkpt lat="56.9912697002" lon="47.8697580379"><ele>195.10</ele><time>2018-08-13T13:26:28Z</time><extensions><gpxtpx:TrackPointExtension><gpxtpx:depth>0.00</gpxtpx:depth></gpxtpx:TrackPointExtension></extensions></trkpt><trkpt lat="56.9903462660" lon="47.8698056471"><ele>196.19</ele><time>2018-08-13T13:27:02Z</time><extensions><gpxtpx:TrackPointExtension><gpxtpx:depth>0.00</gpxtpx:depth></gpxtpx:TrackPointExtension></extensions></trkpt><trkpt lat="56.9894437026" lon="47.8699437808"><ele>197.32</ele><time>2018-08-13T13:27:38Z</time><extensions><gpxtpx:TrackPointExtension><gpxtpx:depth>0.00</gpxtpx:depth></gpxtpx:TrackPointExtension></extensions></trkpt><trkpt lat="56.9885579869" lon="47.8701638058"><ele>198.59</ele><time>2018-08-13T13:28:14Z</time><extensions><gpxtpx:TrackPointExtension><gpxtpx:depth>0.00</gpxtpx:depth></gpxtpx:TrackPointExtension></extensions></trkpt><trkpt lat="56.9876524061" lon="47.8704866767"><ele>199.04</ele><time>2018-08-13T13:28:52Z</time><extensions><gpxtpx:TrackPointExtension><gpxtpx:depth>0.00</gpxtpx:depth></gpxtpx:TrackPointExtension></extensions></trkpt><trkpt lat="56.9867766649" lon="47.8708808776"><ele>200.08</ele><time>2018-08-13T13:29:34Z</time><extensions><gpxtpx:TrackPointExtension><gpxtpx:depth>0.00</gpxtpx:depth></gpxtpx:TrackPointExtension></extensions></trkpt><trkpt lat="56.9860668015" lon="47.8712140583"><ele>202.72</ele><time>2018-08-13T13:44:38Z</time><extensions><gpxtpx:TrackPointExtension><gpxtpx:depth>0.00</gpxtpx:depth></gpxtpx:TrackPointExtension></extensions></trkpt><trkpt lat="56.9851539284" lon="47.8716332372"><ele>204.93</ele><time>2018-08-13T13:45:17Z</time><extensions><gpxtpx:TrackPointExtension><gpxtpx:depth>0.00</gpxtpx:depth></gpxtpx:TrackPointExtension></extensions></trkpt><trkpt lat="56.9842434023" lon="47.8720072377"><ele>204.31</ele><time>2018-08-13T13:45:46Z</time><extensions><gpxtpx:TrackPointExtension><gpxtpx:depth>0.00</gpxtpx:depth></gpxtpx:TrackPointExtension></extensions></trkpt><trkpt lat="56.9833121728" lon="47.8722675797"><ele>203.02</ele><time>2018-08-13T13:46:06Z</time><extensions><gpxtpx:TrackPointExtension><gpxtpx:depth>0.00</gpxtpx:depth></gpxtpx:TrackPointExtension></extensions></trkpt><trkpt lat="56.9823564682" lon="47.8722791467"><ele>200.67</ele><time>2018-08-13T13:46:22Z</time><extensions><gpxtpx:TrackPointExtension><gpxtpx:depth>0.00</gpxtpx:depth></gpxtpx:TrackPointExtension></extensions></trkpt><trkpt lat="56.9814478699" lon="47.8719490673"><ele>197.80</ele><time>2018-08-13T13:46:36Z</time><extensions><gpxtpx:TrackPointExtension><gpxtpx:depth>0.00</gpxtpx:depth></gpxtpx:TrackPointExtension></extensions></trkpt><trkpt lat="56.9805445522" lon="47.8713449836"><ele>195.34</ele><time>2018-08-13T13:46:51Z</time><extensions><gpxtpx:TrackPointExtension><gpxtpx:depth>0.00</gpxtpx:depth></gpxtpx:TrackPointExtension></extensions></trkpt><trkpt lat="56.9797352795" lon="47.8704608604"><ele>193.34</ele><time>2018-08-13T13:47:08Z</time><extensions><gpxtpx:TrackPointExtension><gpxtpx:depth>0.00</gpxtpx:depth></gpxtpx:TrackPointExtension></extensions></trkpt><trkpt lat="56.9789636414" lon="47.8695070837"><ele>192.05</ele><time>2018-08-13T13:47:26Z</time><extensions><gpxtpx:TrackPointExtension><gpxtpx:depth>0.00</gpxtpx:depth></gpxtpx:TrackPointExtension></extensions></trkpt><trkpt lat="56.9782183226" lon="47.8685984854"><ele>190.57</ele><time>2018-08-13T13:47:46Z</time><extensions><gpxtpx:TrackPointExtension><gpxtpx:depth>0.00</gpxtpx:depth></gpxtpx:TrackPointExtension></extensions></trkpt><trkpt lat="56.9774521329" lon="47.8676832654"><ele>189.89</ele><time>2018-08-13T13:48:10Z</time><extensions><gpxtpx:TrackPointExtension><gpxtpx:depth>0.00</gpxtpx:depth></gpxtpx:TrackPointExtension></extensions></trkpt><trkpt lat="56.9766845182" lon="47.8667377029"><ele>188.74</ele><time>2018-08-13T13:48:35Z</time><extensions><gpxtpx:TrackPointExtension><gpxtpx:depth>0.00</gpxtpx:depth></gpxtpx:TrackPointExtension></extensions></trkpt><trkpt lat="56.9759009778" lon="47.8658580221"><ele>188.20</ele><time>2018-08-13T13:49:03Z</time><extensions><gpxtpx:TrackPointExtension><gpxtpx:depth>0.00</gpxtpx:depth></gpxtpx:TrackPointExtension></extensions></trkpt><trkpt lat="56.9750329480" lon="47.8653382603"><ele>188.13</ele><time>2018-08-13T13:49:35Z</time><extensions><gpxtpx:TrackPointExtension><gpxtpx:depth>0.00</gpxtpx:depth></gpxtpx:TrackPointExtension></extensions></trkpt><trkpt lat="56.9741293788" lon="47.8650046606"><ele>187.84</ele><time>2018-08-13T13:50:02Z</time><extensions><gpxtpx:TrackPointExtension><gpxtpx:depth>0.00</gpxtpx:depth></gpxtpx:TrackPointExtension></extensions></trkpt><trkpt lat="56.9732258935" lon="47.8648702987"><ele>187.19</ele><time>2018-08-13T13:50:29Z</time><extensions><gpxtpx:TrackPointExtension><gpxtpx:depth>0.00</gpxtpx:depth></gpxtpx:TrackPointExtension></extensions></trkpt><trkpt lat="56.9723074883" lon="47.8647284769"><ele>187.15</ele><time>2018-08-13T13:51:02Z</time><extensions><gpxtpx:TrackPointExtension><gpxtpx:depth>0.00</gpxtpx:depth></gpxtpx:TrackPointExtension></extensions></trkpt><trkpt lat="56.9714045897" lon="47.8647445701"><ele>187.44</ele><time>2018-08-13T13:51:30Z</time><extensions><gpxtpx:TrackPointExtension><gpxtpx:depth>0.00</gpxtpx:depth></gpxtpx:TrackPointExtension></extensions></trkpt><trkpt lat="56.9704877771" lon="47.8649389464"><ele>187.36</ele><time>2018-08-13T13:52:00Z</time><extensions><gpxtpx:TrackPointExtension><gpxtpx:depth>0.00</gpxtpx:depth></gpxtpx:TrackPointExtension></extensions></trkpt><trkpt lat="56.9695399515" lon="47.8654509131"><ele>187.50</ele><time>2018-08-13T13:52:35Z</time><extensions><gpxtpx:TrackPointExtension><gpxtpx:depth>0.00</gpxtpx:depth></gpxtpx:TrackPointExtension></extensions></trkpt><trkpt lat="56.9686516374" lon="47.8662542347"><ele>187.07</ele><time>2018-08-13T13:53:03Z</time><extensions><gpxtpx:TrackPointExtension><gpxtpx:depth>0.00</gpxtpx:depth></gpxtpx:TrackPointExtension></extensions></trkpt><trkpt lat="56.9677853677" lon="47.8670492582"><ele>185.79</ele><time>2018-08-13T13:53:24Z</time><extensions><gpxtpx:TrackPointExtension><gpxtpx:depth>0.00</gpxtpx:depth></gpxtpx:TrackPointExtension></extensions></trkpt><trkpt lat="56.9668864924" lon="47.8674582951"><ele>184.75</ele><time>2018-08-13T13:53:46Z</time><extensions><gpxtpx:TrackPointExtension><gpxtpx:depth>0.00</gpxtpx:depth></gpxtpx:TrackPointExtension></extensions></trkpt><trkpt lat="56.9659664109" lon="47.8676752187"><ele>183.46</ele><time>2018-08-13T13:54:07Z</time><extensions><gpxtpx:TrackPointExtension><gpxtpx:depth>0.00</gpxtpx:depth></gpxtpx:TrackPointExtension></extensions></trkpt><trkpt lat="56.9650555495" lon="47.8678948246"><ele>182.46</ele><time>2018-08-13T13:54:28Z</time><extensions><gpxtpx:TrackPointExtension><gpxtpx:depth>0.00</gpxtpx:depth></gpxtpx:TrackPointExtension></extensions></trkpt><trkpt lat="56.9641555846" lon="47.8681092337"><ele>181.05</ele><time>2018-08-13T13:54:51Z</time><extensions><gpxtpx:TrackPointExtension><gpxtpx:depth>0.00</gpxtpx:depth></gpxtpx:TrackPointExtension></extensions></trkpt><trkpt lat="56.9632241875" lon="47.8683167696"><ele>180.29</ele><time>2018-08-13T13:55:14Z</time><extensions><gpxtpx:TrackPointExtension><gpxtpx:depth>0.00</gpxtpx:depth></gpxtpx:TrackPointExtension></extensions></trkpt><trkpt lat="56.9623074587" lon="47.8685134929"><ele>179.27</ele><time>2018-08-13T13:55:35Z</time><extensions><gpxtpx:TrackPointExtension><gpxtpx:depth>0.00</gpxtpx:depth></gpxtpx:TrackPointExtension></extensions></trkpt><trkpt lat="56.9613872096" lon="47.8686843999"><ele>178.39</ele><time>2018-08-13T13:55:55Z</time><extensions><gpxtpx:TrackPointExtension><gpxtpx:depth>0.00</gpxtpx:depth></gpxtpx:TrackPointExtension></extensions></trkpt><trkpt lat="56.9604665413" lon="47.8688876610"><ele>177.86</ele><time>2018-08-13T13:56:19Z</time><extensions><gpxtpx:TrackPointExtension><gpxtpx:depth>0.00</gpxtpx:depth></gpxtpx:TrackPointExtension></extensions></trkpt><trkpt lat="56.9595250860" lon="47.8690950293"><ele>177.82</ele><time>2018-08-13T13:56:45Z</time><extensions><gpxtpx:TrackPointExtension><gpxtpx:depth>0.00</gpxtpx:depth></gpxtpx:TrackPointExtension></extensions></trkpt><trkpt lat="56.9586205948" lon="47.8693381883"><ele>178.00</ele><time>2018-08-13T13:57:12Z</time><extensions><gpxtpx:TrackPointExtension><gpxtpx:depth>0.00</gpxtpx:depth></gpxtpx:TrackPointExtension></extensions></trkpt><trkpt lat="56.9577031117" lon="47.8695620690"><ele>177.74</ele><time>2018-08-13T13:57:37Z</time><extensions><gpxtpx:TrackPointExtension><gpxtpx:depth>0.00</gpxtpx:depth></gpxtpx:TrackPointExtension></extensions></trkpt><trkpt lat="56.9567790907" lon="47.8697792441"><ele>177.85</ele><time>2018-08-13T13:58:01Z</time><extensions><gpxtpx:TrackPointExtension><gpxtpx:depth>0.00</gpxtpx:depth></gpxtpx:TrackPointExtension></extensions></trkpt><trkpt lat="56.9558653794" lon="47.8700909670"><ele>177.59</ele><time>2018-08-13T13:58:26Z</time><extensions><gpxtpx:TrackPointExtension><gpxtpx:depth>0.00</gpxtpx:depth></gpxtpx:TrackPointExtension></extensions></trkpt><trkpt lat="56.9550141972" lon="47.8707691468"><ele>176.53</ele><time>2018-08-13T13:58:48Z</time><extensions><gpxtpx:TrackPointExtension><gpxtpx:depth>0.00</gpxtpx:depth></gpxtpx:TrackPointExtension></extensions></trkpt><trkpt lat="56.9542281423" lon="47.8716951795"><ele>175.43</ele><time>2018-08-13T13:59:08Z</time><extensions><gpxtpx:TrackPointExtension><gpxtpx:depth>0.00</gpxtpx:depth></gpxtpx:TrackPointExtension></extensions></trkpt><trkpt lat="56.9535021018" lon="47.8726757783"><ele>174.67</ele><time>2018-08-13T13:59:30Z</time><extensions><gpxtpx:TrackPointExtension><gpxtpx:depth>0.00</gpxtpx:depth></gpxtpx:TrackPointExtension></extensions></trkpt><trkpt lat="56.9527721219" lon="47.8737386875"><ele>174.57</ele><time>2018-08-13T13:59:56Z</time><extensions><gpxtpx:TrackPointExtension><gpxtpx:depth>0.00</gpxtpx:depth></gpxtpx:TrackPointExtension></extensions></trkpt><trkpt lat="56.9520356879" lon="47.8747552447"><ele>174.18</ele><time>2018-08-13T14:00:21Z</time><extensions><gpxtpx:TrackPointExtension><gpxtpx:depth>0.00</gpxtpx:depth></gpxtpx:TrackPointExtension></extensions></trkpt><trkpt lat="56.9513154309" lon="47.8757727239"><ele>174.01</ele><time>2018-08-13T14:00:45Z</time><extensions><gpxtpx:TrackPointExtension><gpxtpx:depth>0.00</gpxtpx:depth></gpxtpx:TrackPointExtension></extensions></trkpt><trkpt lat="56.9505512528" lon="47.8767228965"><ele>173.72</ele><time>2018-08-13T14:01:11Z</time><extensions><gpxtpx:TrackPointExtension><gpxtpx:depth>0.00</gpxtpx:depth></gpxtpx:TrackPointExtension></extensions></trkpt><trkpt lat="56.9497248810" lon="47.8775008209"><ele>173.34</ele><time>2018-08-13T14:01:38Z</time><extensions><gpxtpx:TrackPointExtension><gpxtpx:depth>0.00</gpxtpx:depth></gpxtpx:TrackPointExtension></extensions></trkpt><trkpt lat="56.9488809071" lon="47.8780961875"><ele>173.36</ele><time>2018-08-13T14:02:06Z</time><extensions><gpxtpx:TrackPointExtension><gpxtpx:depth>0.00</gpxtpx:depth></gpxtpx:TrackPointExtension></extensions></trkpt><trkpt lat="56.9480018131" lon="47.8786429390"><ele>173.73</ele><time>2018-08-13T14:02:38Z</time><extensions><gpxtpx:TrackPointExtension><gpxtpx:depth>0.00</gpxtpx:depth></gpxtpx:TrackPointExtension></extensions></trkpt><trkpt lat="56.9471088052" lon="47.8791668918"><ele>173.09</ele><time>2018-08-13T14:03:05Z</time><extensions><gpxtpx:TrackPointExtension><gpxtpx:depth>0.00</gpxtpx:depth></gpxtpx:TrackPointExtension></extensions></trkpt><trkpt lat="56.9462109357" lon="47.8795575723"><ele>171.65</ele><time>2018-08-13T14:03:25Z</time><extensions><gpxtpx:TrackPointExtension><gpxtpx:depth>0.00</gpxtpx:depth></gpxtpx:TrackPointExtension></extensions></trkpt><trkpt lat="56.9452854060" lon="47.8795380425"><ele>170.60</ele><time>2018-08-13T14:03:46Z</time><extensions><gpxtpx:TrackPointExtension><gpxtpx:depth>0.00</gpxtpx:depth></gpxtpx:TrackPointExtension></extensions></trkpt><trkpt lat="56.9443696830" lon="47.8794304188"><ele>170.33</ele><time>2018-08-13T14:04:11Z</time><extensions><gpxtpx:TrackPointExtension><gpxtpx:depth>0.00</gpxtpx:depth></gpxtpx:TrackPointExtension></extensions></trkpt><trkpt lat="56.9434705563" lon="47.8794921096"><ele>171.04</ele><time>2018-08-13T14:04:39Z</time><extensions><gpxtpx:TrackPointExtension><gpxtpx:depth>0.00</gpxtpx:depth></gpxtpx:TrackPointExtension></extensions></trkpt><trkpt lat="56.9425605331" lon="47.8797822911"><ele>171.30</ele><time>2018-08-13T14:05:08Z</time><extensions><gpxtpx:TrackPointExtension><gpxtpx:depth>0.00</gpxtpx:depth></gpxtpx:TrackPointExtension></extensions></trkpt><trkpt lat="56.9416625798" lon="47.8800543677"><ele>171.65</ele><time>2018-08-13T14:05:38Z</time><extensions><gpxtpx:TrackPointExtension><gpxtpx:depth>0.00</gpxtpx:depth></gpxtpx:TrackPointExtension></extensions></trkpt><trkpt lat="56.9407875929" lon="47.8800440580"><ele>171.83</ele><time>2018-08-13T14:06:13Z</time><extensions><gpxtpx:TrackPointExtension><gpxtpx:depth>0.00</gpxtpx:depth></gpxtpx:TrackPointExtension></extensions></trkpt><trkpt lat="56.9402396679" lon="47.8787389118"><ele>173.56</ele><time>2018-08-13T14:06:42Z</time><extensions><gpxtpx:TrackPointExtension><gpxtpx:depth>0.00</gpxtpx:depth></gpxtpx:TrackPointExtension></extensions></trkpt><trkpt lat="56.9396835286" lon="47.8774109669"><ele>175.07</ele><time>2018-08-13T14:07:14Z</time><extensions><gpxtpx:TrackPointExtension><gpxtpx:depth>0.00</gpxtpx:depth></gpxtpx:TrackPointExtension></extensions></trkpt><trkpt lat="56.9391298201" lon="47.8760587983"><ele>176.73</ele><time>2018-08-13T14:07:46Z</time><extensions><gpxtpx:TrackPointExtension><gpxtpx:depth>0.00</gpxtpx:depth></gpxtpx:TrackPointExtension></extensions></trkpt><trkpt lat="56.9388122298" lon="47.8746736888"><ele>177.49</ele><time>2018-08-13T14:09:03Z</time><extensions><gpxtpx:TrackPointExtension><gpxtpx:depth>0.00</gpxtpx:depth></gpxtpx:TrackPointExtension></extensions></trkpt><trkpt lat="56.9391936902" lon="47.8734692093"><ele>175.54</ele><time>2018-08-13T14:10:03Z</time><extensions><gpxtpx:TrackPointExtension><gpxtpx:depth>0.00</gpxtpx:depth></gpxtpx:TrackPointExtension></extensions></trkpt><trkpt lat="56.9400354009" lon="47.8727937955"><ele>175.08</ele><time>2018-08-13T14:11:51Z</time><extensions><gpxtpx:TrackPointExtension><gpxtpx:depth>0.00</gpxtpx:depth></gpxtpx:TrackPointExtension></extensions></trkpt><trkpt lat="56.9407680631" lon="47.8718887176"><ele>175.49</ele><time>2018-08-13T14:13:58Z</time><extensions><gpxtpx:TrackPointExtension><gpxtpx:depth>0.00</gpxtpx:depth></gpxtpx:TrackPointExtension></extensions></trkpt><trkpt lat="56.9415939320" lon="47.8709848970"><ele>174.48</ele><time>2018-08-13T14:16:04Z</time><extensions><gpxtpx:TrackPointExtension><gpxtpx:depth>0.00</gpxtpx:depth></gpxtpx:TrackPointExtension></extensions></trkpt><trkpt lat="56.9421000313" lon="47.8709758446"><ele>173.17</ele><time>2018-08-13T14:19:47Z</time><extensions><gpxtpx:TrackPointExtension><gpxtpx:depth>0.00</gpxtpx:depth></gpxtpx:TrackPointExtension></extensions></trkpt><trkpt lat="56.9420739636" lon="47.8710421454"><ele>172.52</ele><time>2018-08-13T15:03:53Z</time><extensions><gpxtpx:TrackPointExtension><gpxtpx:depth>0.00</gpxtpx:depth></gpxtpx:TrackPointExtension></extensions></trkpt></trkseg></trk></gpx>