<?xml version="1.0" encoding="UTF-8" standalone="no" ?><gpx xmlns="http://www.topografix.com/GPX/1/1" xmlns:gpxx="http://www.garmin.com/xmlschemas/GpxExtensions/v3" xmlns:gpxtrkx="http://www.garmin.com/xmlschemas/TrackStatsExtension/v1" xmlns:wptx1="http://www.garmin.com/xmlschemas/WaypointExtension/v1" xmlns:gpxtpx="http://www.garmin.com/xmlschemas/TrackPointExtension/v1" creator="eTrex Touch 35t" version="1.1" xmlns:xsi="http://www.w3.org/2001/XMLSchema-instance" xsi:schemaLocation="http://www.topografix.com/GPX/1/1 http://www.topografix.com/GPX/1/1/gpx.xsd http://www.garmin.com/xmlschemas/GpxExtensions/v3 http://www8.garmin.com/xmlschemas/GpxExtensionsv3.xsd http://www.garmin.com/xmlschemas/TrackStatsExtension/v1 http://www8.garmin.com/xmlschemas/TrackStatsExtension.xsd http://www.garmin.com/xmlschemas/WaypointExtension/v1 http://www8.garmin.com/xmlschemas/WaypointExtensionv1.xsd http://www.garmin.com/xmlschemas/TrackPointExtension/v1 http://www.garmin.com/xmlschemas/TrackPointExtensionv1.xsd"><metadata><link href="http://www.garmin.com"><text>Garmin International</text></link><time>2018-09-15T13:14:20Z</time></metadata><trk><name>2018-09-15 21:14:15</name><extensions><gpxx:TrackExtension><gpxx:DisplayColor>Cyan</gpxx:DisplayColor></gpxx:TrackExtension><gpxtrkx:TrackStatsExtension><gpxtrkx:Distance>2.000</gpxtrkx:Distance><gpxtrkx:TimerTime>249</gpxtrkx:TimerTime><gpxtrkx:TotalElapsedTime>271</gpxtrkx:TotalElapsedTime><gpxtrkx:MovingTime>6</gpxtrkx:MovingTime><gpxtrkx:StoppedTime>267</gpxtrkx:StoppedTime><gpxtrkx:MovingSpeed>0.532</gpxtrkx:MovingSpeed><gpxtrkx:MaxSpeed>0.000</gpxtrkx:MaxSpeed><gpxtrkx:MaxElevation>1713.906</gpxtrkx:MaxElevation><gpxtrkx:MinElevation>1712.440</gpxtrkx:MinElevation><gpxtrkx:Ascent>0.000</gpxtrkx:Ascent><gpxtrkx:Descent>0.000</gpxtrkx:Descent><gpxtrkx:AvgAscentRate>0.000</gpxtrkx:AvgAscentRate><gpxtrkx:MaxAscentRate>0.000</gpxtrkx:MaxAscentRate><gpxtrkx:AvgDescentRate>0.000</gpxtrkx:AvgDescentRate><gpxtrkx:MaxDescentRate>0.000</gpxtrkx:MaxDescentRate><gpxtrkx:Calories>0</gpxtrkx:Calories></gpxtrkx:TrackStatsExtension></extensions><trkseg><trkpt lat="47.5958457403" lon="107.2689504549"><ele>1712.89</ele><time>2018-09-15T13:09:50Z</time><extensions><gpxtpx:TrackPointExtension><gpxtpx:depth>0.00</gpxtpx:depth></gpxtpx:TrackPointExtension></extensions></trkpt><trkpt lat="47.5958457403" lon="107.2689503711"><ele>1712.92</ele><time>2018-09-15T13:09:51Z</time><extensions><gpxtpx:TrackPointExtension><gpxtpx:depth>0.00</gpxtpx:depth></gpxtpx:TrackPointExtension></extensions></trkpt><trkpt lat="47.5958465785" lon="107.2689540591"><ele>1712.84</ele><time>2018-09-15T13:10:41Z</time><extensions><gpxtpx:TrackPointExtension><gpxtpx:depth>0.00</gpxtpx:depth></gpxtpx:TrackPointExtension></extensions></trkpt><trkpt lat="47.5958486740" lon="107.2689629439"><ele>1712.78</ele><time>2018-09-15T13:11:32Z</time><extensions><gpxtpx:TrackPointExtension><gpxtpx:depth>0.00</gpxtpx:depth></gpxtpx:TrackPointExtension></extensions></trkpt><trkpt lat="47.5958517753" lon="107.2689676378"><ele>1712.94</ele><time>2018-09-15T13:12:27Z</time><extensions><gpxtpx:TrackPointExtension><gpxtpx:depth>0.00</gpxtpx:depth></gpxtpx:TrackPointExtension></extensions></trkpt><trkpt lat="47.5958547089" lon="107.2689668834"><ele>1713.08</ele><time>2018-09-15T13:12:39Z</time><extensions><gpxtpx:TrackPointExtension><gpxtpx:depth>0.00</gpxtpx:depth></gpxtpx:TrackPointExtension></extensions></trkpt><trkpt lat="47.5958502665" lon="107.2689689789"><ele>1712.97</ele><time>2018-09-15T13:13:33Z</time><extensions><gpxtpx:TrackPointExtension><gpxtpx:depth>0.00</gpxtpx:depth></gpxtpx:TrackPointExtension></extensions></trkpt><trkpt lat="47.5958478358" lon="107.2689709067"><ele>1712.89</ele><time>2018-09-15T13:13:50Z</time><extensions><gpxtpx:TrackPointExtension><gpxtpx:depth>0.00</gpxtpx:depth></gpxtpx:TrackPointExtension></extensions></trkpt><trkpt lat="47.5958427228" lon="107.2689597588"><ele>1713.60</ele><time>2018-09-15T13:14:14Z</time><extensions><gpxtpx:TrackPointExtension><gpxtpx:depth>0.00</gpxtpx:depth></gpxtpx:TrackPointExtension></extensions></trkpt></trkseg></trk></gpx>