<?xml version="1.0" encoding="UTF-8" standalone="no" ?><gpx xmlns="http://www.topografix.com/GPX/1/1" xmlns:gpxx="http://www.garmin.com/xmlschemas/GpxExtensions/v3" xmlns:gpxtrkx="http://www.garmin.com/xmlschemas/TrackStatsExtension/v1" xmlns:wptx1="http://www.garmin.com/xmlschemas/WaypointExtension/v1" xmlns:gpxtpx="http://www.garmin.com/xmlschemas/TrackPointExtension/v1" creator="eTrex Touch 35t" version="1.1" xmlns:xsi="http://www.w3.org/2001/XMLSchema-instance" xsi:schemaLocation="http://www.topografix.com/GPX/1/1 http://www.topografix.com/GPX/1/1/gpx.xsd http://www.garmin.com/xmlschemas/GpxExtensions/v3 http://www8.garmin.com/xmlschemas/GpxExtensionsv3.xsd http://www.garmin.com/xmlschemas/TrackStatsExtension/v1 http://www8.garmin.com/xmlschemas/TrackStatsExtension.xsd http://www.garmin.com/xmlschemas/WaypointExtension/v1 http://www8.garmin.com/xmlschemas/WaypointExtensionv1.xsd http://www.garmin.com/xmlschemas/TrackPointExtension/v1 http://www.garmin.com/xmlschemas/TrackPointExtensionv1.xsd"><metadata><link href="http://www.garmin.com"><text>Garmin International</text></link><time>2018-08-23T14:35:00Z</time></metadata><trk><name>2018-08-23 19:34:59</name><extensions><gpxx:TrackExtension><gpxx:DisplayColor>Cyan</gpxx:DisplayColor></gpxx:TrackExtension><gpxtrkx:TrackStatsExtension><gpxtrkx:Distance>39279.000</gpxtrkx:Distance><gpxtrkx:TimerTime>23130</gpxtrkx:TimerTime><gpxtrkx:TotalElapsedTime>82271</gpxtrkx:TotalElapsedTime><gpxtrkx:MovingTime>17148</gpxtrkx:MovingTime><gpxtrkx:StoppedTime>6027</gpxtrkx:StoppedTime><gpxtrkx:MovingSpeed>2.291</gpxtrkx:MovingSpeed><gpxtrkx:MaxSpeed>13.068</gpxtrkx:MaxSpeed><gpxtrkx:MaxElevation>456.141</gpxtrkx:MaxElevation><gpxtrkx:MinElevation>184.244</gpxtrkx:MinElevation><gpxtrkx:Ascent>647.000</gpxtrkx:Ascent><gpxtrkx:Descent>580.036</gpxtrkx:Descent><gpxtrkx:AvgAscentRate>0.049</gpxtrkx:AvgAscentRate><gpxtrkx:MaxAscentRate>0.149</gpxtrkx:MaxAscentRate><gpxtrkx:AvgDescentRate>0.076</gpxtrkx:AvgDescentRate><gpxtrkx:MaxDescentRate>-0.728</gpxtrkx:MaxDescentRate><gpxtrkx:Calories>429</gpxtrkx:Calories></gpxtrkx:TrackStatsExtension></extensions><trkseg><trkpt lat="54.9979714863" lon="57.6606789138"><ele>283.19</ele><time>2018-08-22T15:43:49Z</time><extensions><gpxtpx:TrackPointExtension><gpxtpx:depth>0.00</gpxtpx:depth></gpxtpx:TrackPointExtension></extensions></trkpt><trkpt lat="54.9979636911" lon="57.6606590487"><ele>283.07</ele><time>2018-08-22T15:44:17Z</time><extensions><gpxtpx:TrackPointExtension><gpxtpx:depth>0.00</gpxtpx:depth></gpxtpx:TrackPointExtension></extensions></trkpt><trkpt lat="54.9979463406" lon="57.6607276965"><ele>269.34</ele><time>2018-08-23T08:09:49Z</time><extensions><gpxtpx:TrackPointExtension><gpxtpx:depth>0.00</gpxtpx:depth></gpxtpx:TrackPointExtension></extensions></trkpt><trkpt lat="54.9986302201" lon="57.6600237004"><ele>275.22</ele><time>2018-08-23T08:13:58Z</time><extensions><gpxtpx:TrackPointExtension><gpxtpx:depth>0.00</gpxtpx:depth></gpxtpx:TrackPointExtension></extensions></trkpt><trkpt lat="54.9995181989" lon="57.6598944515"><ele>280.51</ele><time>2018-08-23T08:15:45Z</time><extensions><gpxtpx:TrackPointExtension><gpxtpx:depth>0.00</gpxtpx:depth></gpxtpx:TrackPointExtension></extensions></trkpt><trkpt lat="55.0001707301" lon="57.6609626412"><ele>279.83</ele><time>2018-08-23T08:16:30Z</time><extensions><gpxtpx:TrackPointExtension><gpxtpx:depth>0.00</gpxtpx:depth></gpxtpx:TrackPointExtension></extensions></trkpt><trkpt lat="55.0008690264" lon="57.6615483686"><ele>280.72</ele><time>2018-08-23T08:17:17Z</time><extensions><gpxtpx:TrackPointExtension><gpxtpx:depth>0.00</gpxtpx:depth></gpxtpx:TrackPointExtension></extensions></trkpt><trkpt lat="55.0013731979" lon="57.6628921553"><ele>277.12</ele><time>2018-08-23T08:17:48Z</time><extensions><gpxtpx:TrackPointExtension><gpxtpx:depth>0.00</gpxtpx:depth></gpxtpx:TrackPointExtension></extensions></trkpt><trkpt lat="55.0018465240" lon="57.6642553881"><ele>274.21</ele><time>2018-08-23T08:18:12Z</time><extensions><gpxtpx:TrackPointExtension><gpxtpx:depth>0.00</gpxtpx:depth></gpxtpx:TrackPointExtension></extensions></trkpt><trkpt lat="55.0023321714" lon="57.6656637993"><ele>269.13</ele><time>2018-08-23T08:18:33Z</time><extensions><gpxtpx:TrackPointExtension><gpxtpx:depth>0.00</gpxtpx:depth></gpxtpx:TrackPointExtension></extensions></trkpt><trkpt lat="55.0028381869" lon="57.6670345757"><ele>265.59</ele><time>2018-08-23T08:18:48Z</time><extensions><gpxtpx:TrackPointExtension><gpxtpx:depth>0.00</gpxtpx:depth></gpxtpx:TrackPointExtension></extensions></trkpt><trkpt lat="55.0033487286" lon="57.6684304141"><ele>260.59</ele><time>2018-08-23T08:19:01Z</time><extensions><gpxtpx:TrackPointExtension><gpxtpx:depth>0.00</gpxtpx:depth></gpxtpx:TrackPointExtension></extensions></trkpt><trkpt lat="55.0038513076" lon="57.6698266715"><ele>256.52</ele><time>2018-08-23T08:19:14Z</time><extensions><gpxtpx:TrackPointExtension><gpxtpx:depth>0.00</gpxtpx:depth></gpxtpx:TrackPointExtension></extensions></trkpt><trkpt lat="55.0043325964" lon="57.6711932570"><ele>252.14</ele><time>2018-08-23T08:19:25Z</time><extensions><gpxtpx:TrackPointExtension><gpxtpx:depth>0.00</gpxtpx:depth></gpxtpx:TrackPointExtension></extensions></trkpt><trkpt lat="55.0048259553" lon="57.6725707389"><ele>247.42</ele><time>2018-08-23T08:19:36Z</time><extensions><gpxtpx:TrackPointExtension><gpxtpx:depth>0.00</gpxtpx:depth></gpxtpx:TrackPointExtension></extensions></trkpt><trkpt lat="55.0052815955" lon="57.6739244163"><ele>241.06</ele><time>2018-08-23T08:19:51Z</time><extensions><gpxtpx:TrackPointExtension><gpxtpx:depth>0.00</gpxtpx:depth></gpxtpx:TrackPointExtension></extensions></trkpt><trkpt lat="55.0057415944" lon="57.6752701309"><ele>233.88</ele><time>2018-08-23T08:20:22Z</time><extensions><gpxtpx:TrackPointExtension><gpxtpx:depth>0.00</gpxtpx:depth></gpxtpx:TrackPointExtension></extensions></trkpt><trkpt lat="55.0062232185" lon="57.6766671427"><ele>229.88</ele><time>2018-08-23T08:20:44Z</time><extensions><gpxtpx:TrackPointExtension><gpxtpx:depth>0.00</gpxtpx:depth></gpxtpx:TrackPointExtension></extensions></trkpt><trkpt lat="55.0066312496" lon="57.6781086624"><ele>226.81</ele><time>2018-08-23T08:20:54Z</time><extensions><gpxtpx:TrackPointExtension><gpxtpx:depth>0.00</gpxtpx:depth></gpxtpx:TrackPointExtension></extensions></trkpt><trkpt lat="55.0070117880" lon="57.6796491724"><ele>220.78</ele><time>2018-08-23T08:21:03Z</time><extensions><gpxtpx:TrackPointExtension><gpxtpx:depth>0.00</gpxtpx:depth></gpxtpx:TrackPointExtension></extensions></trkpt><trkpt lat="55.0073395204" lon="57.6812830567"><ele>215.04</ele><time>2018-08-23T08:21:12Z</time><extensions><gpxtpx:TrackPointExtension><gpxtpx:depth>0.00</gpxtpx:depth></gpxtpx:TrackPointExtension></extensions></trkpt><trkpt lat="55.0075024646" lon="57.6829909533"><ele>208.79</ele><time>2018-08-23T08:21:21Z</time><extensions><gpxtpx:TrackPointExtension><gpxtpx:depth>0.00</gpxtpx:depth></gpxtpx:TrackPointExtension></extensions></trkpt><trkpt lat="55.0075444579" lon="57.6845777314"><ele>202.06</ele><time>2018-08-23T08:21:29Z</time><extensions><gpxtpx:TrackPointExtension><gpxtpx:depth>0.00</gpxtpx:depth></gpxtpx:TrackPointExtension></extensions></trkpt><trkpt lat="55.0075455476" lon="57.6861734781"><ele>195.93</ele><time>2018-08-23T08:21:37Z</time><extensions><gpxtpx:TrackPointExtension><gpxtpx:depth>0.00</gpxtpx:depth></gpxtpx:TrackPointExtension></extensions></trkpt><trkpt lat="55.0075040571" lon="57.6877574902"><ele>191.14</ele><time>2018-08-23T08:21:45Z</time><extensions><gpxtpx:TrackPointExtension><gpxtpx:depth>0.00</gpxtpx:depth></gpxtpx:TrackPointExtension></extensions></trkpt><trkpt lat="55.0073917396" lon="57.6893441007"><ele>187.05</ele><time>2018-08-23T08:21:54Z</time><extensions><gpxtpx:TrackPointExtension><gpxtpx:depth>0.00</gpxtpx:depth></gpxtpx:TrackPointExtension></extensions></trkpt><trkpt lat="55.0072588865" lon="57.6909223292"><ele>184.80</ele><time>2018-08-23T08:22:06Z</time><extensions><gpxtpx:TrackPointExtension><gpxtpx:depth>0.00</gpxtpx:depth></gpxtpx:TrackPointExtension></extensions></trkpt><trkpt lat="55.0071034022" lon="57.6924639288"><ele>185.18</ele><time>2018-08-23T08:22:25Z</time><extensions><gpxtpx:TrackPointExtension><gpxtpx:depth>0.00</gpxtpx:depth></gpxtpx:TrackPointExtension></extensions></trkpt><trkpt lat="55.0069483370" lon="57.6940144133"><ele>186.11</ele><time>2018-08-23T08:22:48Z</time><extensions><gpxtpx:TrackPointExtension><gpxtpx:depth>0.00</gpxtpx:depth></gpxtpx:TrackPointExtension></extensions></trkpt><trkpt lat="55.0067839678" lon="57.6955928933"><ele>187.30</ele><time>2018-08-23T08:23:17Z</time><extensions><gpxtpx:TrackPointExtension><gpxtpx:depth>0.00</gpxtpx:depth></gpxtpx:TrackPointExtension></extensions></trkpt><trkpt lat="55.0066286512" lon="57.6971379295"><ele>188.89</ele><time>2018-08-23T08:23:47Z</time><extensions><gpxtpx:TrackPointExtension><gpxtpx:depth>0.00</gpxtpx:depth></gpxtpx:TrackPointExtension></extensions></trkpt><trkpt lat="55.0064606778" lon="57.6986762602"><ele>191.73</ele><time>2018-08-23T08:24:22Z</time><extensions><gpxtpx:TrackPointExtension><gpxtpx:depth>0.00</gpxtpx:depth></gpxtpx:TrackPointExtension></extensions></trkpt><trkpt lat="55.0062885135" lon="57.7002096456"><ele>195.66</ele><time>2018-08-23T08:25:07Z</time><extensions><gpxtpx:TrackPointExtension><gpxtpx:depth>0.00</gpxtpx:depth></gpxtpx:TrackPointExtension></extensions></trkpt><trkpt lat="55.0061098114" lon="57.7017825935"><ele>201.44</ele><time>2018-08-23T08:26:07Z</time><extensions><gpxtpx:TrackPointExtension><gpxtpx:depth>0.00</gpxtpx:depth></gpxtpx:TrackPointExtension></extensions></trkpt><trkpt lat="55.0060046185" lon="57.7033936791"><ele>207.43</ele><time>2018-08-23T08:27:09Z</time><extensions><gpxtpx:TrackPointExtension><gpxtpx:depth>0.00</gpxtpx:depth></gpxtpx:TrackPointExtension></extensions></trkpt><trkpt lat="55.0058995094" lon="57.7049983107"><ele>213.33</ele><time>2018-08-23T08:28:13Z</time><extensions><gpxtpx:TrackPointExtension><gpxtpx:depth>0.00</gpxtpx:depth></gpxtpx:TrackPointExtension></extensions></trkpt><trkpt lat="55.0057992619" lon="57.7065878548"><ele>219.70</ele><time>2018-08-23T08:29:19Z</time><extensions><gpxtpx:TrackPointExtension><gpxtpx:depth>0.00</gpxtpx:depth></gpxtpx:TrackPointExtension></extensions></trkpt><trkpt lat="55.0057228189" lon="57.7081720345"><ele>225.77</ele><time>2018-08-23T08:30:24Z</time><extensions><gpxtpx:TrackPointExtension><gpxtpx:depth>0.00</gpxtpx:depth></gpxtpx:TrackPointExtension></extensions></trkpt><trkpt lat="55.0056219008" lon="57.7097460721"><ele>232.03</ele><time>2018-08-23T08:31:29Z</time><extensions><gpxtpx:TrackPointExtension><gpxtpx:depth>0.00</gpxtpx:depth></gpxtpx:TrackPointExtension></extensions></trkpt><trkpt lat="55.0055151992" lon="57.7113027591"><ele>237.89</ele><time>2018-08-23T08:32:42Z</time><extensions><gpxtpx:TrackPointExtension><gpxtpx:depth>0.00</gpxtpx:depth></gpxtpx:TrackPointExtension></extensions></trkpt><trkpt lat="55.0053295400" lon="57.7128244098"><ele>242.32</ele><time>2018-08-23T08:33:43Z</time><extensions><gpxtpx:TrackPointExtension><gpxtpx:depth>0.00</gpxtpx:depth></gpxtpx:TrackPointExtension></extensions></trkpt><trkpt lat="55.0049759913" lon="57.7142434660"><ele>248.47</ele><time>2018-08-23T08:34:47Z</time><extensions><gpxtpx:TrackPointExtension><gpxtpx:depth>0.00</gpxtpx:depth></gpxtpx:TrackPointExtension></extensions></trkpt><trkpt lat="55.0045879092" lon="57.7156454232"><ele>254.58</ele><time>2018-08-23T08:35:50Z</time><extensions><gpxtpx:TrackPointExtension><gpxtpx:depth>0.00</gpxtpx:depth></gpxtpx:TrackPointExtension></extensions></trkpt><trkpt lat="55.0040665548" lon="57.7168719471"><ele>259.82</ele><time>2018-08-23T08:36:52Z</time><extensions><gpxtpx:TrackPointExtension><gpxtpx:depth>0.00</gpxtpx:depth></gpxtpx:TrackPointExtension></extensions></trkpt><trkpt lat="55.0033954158" lon="57.7178712375"><ele>264.09</ele><time>2018-08-23T08:37:58Z</time><extensions><gpxtpx:TrackPointExtension><gpxtpx:depth>0.00</gpxtpx:depth></gpxtpx:TrackPointExtension></extensions></trkpt><trkpt lat="55.0026260410" lon="57.7186074201"><ele>271.04</ele><time>2018-08-23T08:39:07Z</time><extensions><gpxtpx:TrackPointExtension><gpxtpx:depth>0.00</gpxtpx:depth></gpxtpx:TrackPointExtension></extensions></trkpt><trkpt lat="55.0017451029" lon="57.7187403571"><ele>276.97</ele><time>2018-08-23T08:40:11Z</time><extensions><gpxtpx:TrackPointExtension><gpxtpx:depth>0.00</gpxtpx:depth></gpxtpx:TrackPointExtension></extensions></trkpt><trkpt lat="55.0008505862" lon="57.7184878103"><ele>283.42</ele><time>2018-08-23T08:41:13Z</time><extensions><gpxtpx:TrackPointExtension><gpxtpx:depth>0.00</gpxtpx:depth></gpxtpx:TrackPointExtension></extensions></trkpt><trkpt lat="55.0000311714" lon="57.7177917771"><ele>289.34</ele><time>2018-08-23T08:42:13Z</time><extensions><gpxtpx:TrackPointExtension><gpxtpx:depth>0.00</gpxtpx:depth></gpxtpx:TrackPointExtension></extensions></trkpt><trkpt lat="54.9992591143" lon="57.7169483062"><ele>294.84</ele><time>2018-08-23T08:43:13Z</time><extensions><gpxtpx:TrackPointExtension><gpxtpx:depth>0.00</gpxtpx:depth></gpxtpx:TrackPointExtension></extensions></trkpt><trkpt lat="54.9985425454" lon="57.7160075214"><ele>300.46</ele><time>2018-08-23T08:44:13Z</time><extensions><gpxtpx:TrackPointExtension><gpxtpx:depth>0.00</gpxtpx:depth></gpxtpx:TrackPointExtension></extensions></trkpt><trkpt lat="54.9977859110" lon="57.7151263319"><ele>306.74</ele><time>2018-08-23T08:45:12Z</time><extensions><gpxtpx:TrackPointExtension><gpxtpx:depth>0.00</gpxtpx:depth></gpxtpx:TrackPointExtension></extensions></trkpt><trkpt lat="54.9970258400" lon="57.7142989542"><ele>312.58</ele><time>2018-08-23T08:46:11Z</time><extensions><gpxtpx:TrackPointExtension><gpxtpx:depth>0.00</gpxtpx:depth></gpxtpx:TrackPointExtension></extensions></trkpt><trkpt lat="54.9962489214" lon="57.7134893462"><ele>318.35</ele><time>2018-08-23T08:47:08Z</time><extensions><gpxtpx:TrackPointExtension><gpxtpx:depth>0.00</gpxtpx:depth></gpxtpx:TrackPointExtension></extensions></trkpt><trkpt lat="54.9954259861" lon="57.7129668184"><ele>324.94</ele><time>2018-08-23T08:48:03Z</time><extensions><gpxtpx:TrackPointExtension><gpxtpx:depth>0.00</gpxtpx:depth></gpxtpx:TrackPointExtension></extensions></trkpt><trkpt lat="54.9948221538" lon="57.7127566840"><ele>328.81</ele><time>2018-08-23T09:01:07Z</time><extensions><gpxtpx:TrackPointExtension><gpxtpx:depth>0.00</gpxtpx:depth></gpxtpx:TrackPointExtension></extensions></trkpt><trkpt lat="54.9941720534" lon="57.7138265502"><ele>329.81</ele><time>2018-08-23T09:02:20Z</time><extensions><gpxtpx:TrackPointExtension><gpxtpx:depth>0.00</gpxtpx:depth></gpxtpx:TrackPointExtension></extensions></trkpt><trkpt lat="54.9939358514" lon="57.7153150924"><ele>331.04</ele><time>2018-08-23T09:03:19Z</time><extensions><gpxtpx:TrackPointExtension><gpxtpx:depth>0.00</gpxtpx:depth></gpxtpx:TrackPointExtension></extensions></trkpt><trkpt lat="54.9941534456" lon="57.7168568596"><ele>334.44</ele><time>2018-08-23T09:04:15Z</time><extensions><gpxtpx:TrackPointExtension><gpxtpx:depth>0.00</gpxtpx:depth></gpxtpx:TrackPointExtension></extensions></trkpt><trkpt lat="54.9945887178" lon="57.7182570565"><ele>339.74</ele><time>2018-08-23T09:05:16Z</time><extensions><gpxtpx:TrackPointExtension><gpxtpx:depth>0.00</gpxtpx:depth></gpxtpx:TrackPointExtension></extensions></trkpt><trkpt lat="54.9949872773" lon="57.7196670603"><ele>345.93</ele><time>2018-08-23T09:06:19Z</time><extensions><gpxtpx:TrackPointExtension><gpxtpx:depth>0.00</gpxtpx:depth></gpxtpx:TrackPointExtension></extensions></trkpt><trkpt lat="54.9951018579" lon="57.7211964224"><ele>352.28</ele><time>2018-08-23T09:07:19Z</time><extensions><gpxtpx:TrackPointExtension><gpxtpx:depth>0.00</gpxtpx:depth></gpxtpx:TrackPointExtension></extensions></trkpt><trkpt lat="54.9948284402" lon="57.7227111161"><ele>359.29</ele><time>2018-08-23T09:08:21Z</time><extensions><gpxtpx:TrackPointExtension><gpxtpx:depth>0.00</gpxtpx:depth></gpxtpx:TrackPointExtension></extensions></trkpt><trkpt lat="54.9945141189" lon="57.7242689766"><ele>365.03</ele><time>2018-08-23T09:09:22Z</time><extensions><gpxtpx:TrackPointExtension><gpxtpx:depth>0.00</gpxtpx:depth></gpxtpx:TrackPointExtension></extensions></trkpt><trkpt lat="54.9942765757" lon="57.7258040383"><ele>369.94</ele><time>2018-08-23T09:10:21Z</time><extensions><gpxtpx:TrackPointExtension><gpxtpx:depth>0.00</gpxtpx:depth></gpxtpx:TrackPointExtension></extensions></trkpt><trkpt lat="54.9939965364" lon="57.7272721287"><ele>373.56</ele><time>2018-08-23T09:11:17Z</time><extensions><gpxtpx:TrackPointExtension><gpxtpx:depth>0.00</gpxtpx:depth></gpxtpx:TrackPointExtension></extensions></trkpt><trkpt lat="54.9936874956" lon="57.7287434042"><ele>376.21</ele><time>2018-08-23T09:12:13Z</time><extensions><gpxtpx:TrackPointExtension><gpxtpx:depth>0.00</gpxtpx:depth></gpxtpx:TrackPointExtension></extensions></trkpt><trkpt lat="54.9933872558" lon="57.7302284259"><ele>377.30</ele><time>2018-08-23T09:12:55Z</time><extensions><gpxtpx:TrackPointExtension><gpxtpx:depth>0.00</gpxtpx:depth></gpxtpx:TrackPointExtension></extensions></trkpt><trkpt lat="54.9930966552" lon="57.7317183092"><ele>377.53</ele><time>2018-08-23T09:13:39Z</time><extensions><gpxtpx:TrackPointExtension><gpxtpx:depth>0.00</gpxtpx:depth></gpxtpx:TrackPointExtension></extensions></trkpt><trkpt lat="54.9927950744" lon="57.7332296502"><ele>377.60</ele><time>2018-08-23T09:14:18Z</time><extensions><gpxtpx:TrackPointExtension><gpxtpx:depth>0.00</gpxtpx:depth></gpxtpx:TrackPointExtension></extensions></trkpt><trkpt lat="54.9924839381" lon="57.7346808091"><ele>377.51</ele><time>2018-08-23T09:15:00Z</time><extensions><gpxtpx:TrackPointExtension><gpxtpx:depth>0.00</gpxtpx:depth></gpxtpx:TrackPointExtension></extensions></trkpt><trkpt lat="54.9921571277" lon="57.7361693513"><ele>377.23</ele><time>2018-08-23T09:15:41Z</time><extensions><gpxtpx:TrackPointExtension><gpxtpx:depth>0.00</gpxtpx:depth></gpxtpx:TrackPointExtension></extensions></trkpt><trkpt lat="54.9919107836" lon="57.7376439795"><ele>375.88</ele><time>2018-08-23T09:16:28Z</time><extensions><gpxtpx:TrackPointExtension><gpxtpx:depth>0.00</gpxtpx:depth></gpxtpx:TrackPointExtension></extensions></trkpt><trkpt lat="54.9916306604" lon="57.7391619422"><ele>374.96</ele><time>2018-08-23T09:17:22Z</time><extensions><gpxtpx:TrackPointExtension><gpxtpx:depth>0.00</gpxtpx:depth></gpxtpx:TrackPointExtension></extensions></trkpt><trkpt lat="54.9913414847" lon="57.7406473830"><ele>374.72</ele><time>2018-08-23T09:17:47Z</time><extensions><gpxtpx:TrackPointExtension><gpxtpx:depth>0.00</gpxtpx:depth></gpxtpx:TrackPointExtension></extensions></trkpt><trkpt lat="54.9910502136" lon="57.7421476599"><ele>376.12</ele><time>2018-08-23T09:18:23Z</time><extensions><gpxtpx:TrackPointExtension><gpxtpx:depth>0.00</gpxtpx:depth></gpxtpx:TrackPointExtension></extensions></trkpt><trkpt lat="54.9907665700" lon="57.7436767705"><ele>378.73</ele><time>2018-08-23T09:19:07Z</time><extensions><gpxtpx:TrackPointExtension><gpxtpx:depth>0.00</gpxtpx:depth></gpxtpx:TrackPointExtension></extensions></trkpt><trkpt lat="54.9904648215" lon="57.7451374009"><ele>382.49</ele><time>2018-08-23T09:19:57Z</time><extensions><gpxtpx:TrackPointExtension><gpxtpx:depth>0.00</gpxtpx:depth></gpxtpx:TrackPointExtension></extensions></trkpt><trkpt lat="54.9901675992" lon="57.7466323972"><ele>386.98</ele><time>2018-08-23T09:20:53Z</time><extensions><gpxtpx:TrackPointExtension><gpxtpx:depth>0.00</gpxtpx:depth></gpxtpx:TrackPointExtension></extensions></trkpt><trkpt lat="54.9898800161" lon="57.7481195983"><ele>391.88</ele><time>2018-08-23T09:21:55Z</time><extensions><gpxtpx:TrackPointExtension><gpxtpx:depth>0.00</gpxtpx:depth></gpxtpx:TrackPointExtension></extensions></trkpt><trkpt lat="54.9896020722" lon="57.7496300172"><ele>395.14</ele><time>2018-08-23T09:22:55Z</time><extensions><gpxtpx:TrackPointExtension><gpxtpx:depth>0.00</gpxtpx:depth></gpxtpx:TrackPointExtension></extensions></trkpt><trkpt lat="54.9892822187" lon="57.7511845250"><ele>396.27</ele><time>2018-08-23T09:23:47Z</time><extensions><gpxtpx:TrackPointExtension><gpxtpx:depth>0.00</gpxtpx:depth></gpxtpx:TrackPointExtension></extensions></trkpt><trkpt lat="54.9889645446" lon="57.7527170721"><ele>397.04</ele><time>2018-08-23T09:24:23Z</time><extensions><gpxtpx:TrackPointExtension><gpxtpx:depth>0.00</gpxtpx:depth></gpxtpx:TrackPointExtension></extensions></trkpt><trkpt lat="54.9886693340" lon="57.7542455960"><ele>396.86</ele><time>2018-08-23T09:24:55Z</time><extensions><gpxtpx:TrackPointExtension><gpxtpx:depth>0.00</gpxtpx:depth></gpxtpx:TrackPointExtension></extensions></trkpt><trkpt lat="54.9883756321" lon="57.7557451185"><ele>395.38</ele><time>2018-08-23T09:25:25Z</time><extensions><gpxtpx:TrackPointExtension><gpxtpx:depth>0.00</gpxtpx:depth></gpxtpx:TrackPointExtension></extensions></trkpt><trkpt lat="54.9880794995" lon="57.7572381869"><ele>393.13</ele><time>2018-08-23T09:25:52Z</time><extensions><gpxtpx:TrackPointExtension><gpxtpx:depth>0.00</gpxtpx:depth></gpxtpx:TrackPointExtension></extensions></trkpt><trkpt lat="54.9877846241" lon="57.7587436605"><ele>390.21</ele><time>2018-08-23T09:26:14Z</time><extensions><gpxtpx:TrackPointExtension><gpxtpx:depth>0.00</gpxtpx:depth></gpxtpx:TrackPointExtension></extensions></trkpt><trkpt lat="54.9874911737" lon="57.7602556720"><ele>386.85</ele><time>2018-08-23T09:26:28Z</time><extensions><gpxtpx:TrackPointExtension><gpxtpx:depth>0.00</gpxtpx:depth></gpxtpx:TrackPointExtension></extensions></trkpt><trkpt lat="54.9871776067" lon="57.7618071623"><ele>383.47</ele><time>2018-08-23T09:26:38Z</time><extensions><gpxtpx:TrackPointExtension><gpxtpx:depth>0.00</gpxtpx:depth></gpxtpx:TrackPointExtension></extensions></trkpt><trkpt lat="54.9868448451" lon="57.7633808646"><ele>379.38</ele><time>2018-08-23T09:26:47Z</time><extensions><gpxtpx:TrackPointExtension><gpxtpx:depth>0.00</gpxtpx:depth></gpxtpx:TrackPointExtension></extensions></trkpt><trkpt lat="54.9865054619" lon="57.7649296727"><ele>374.58</ele><time>2018-08-23T09:26:57Z</time><extensions><gpxtpx:TrackPointExtension><gpxtpx:depth>0.00</gpxtpx:depth></gpxtpx:TrackPointExtension></extensions></trkpt><trkpt lat="54.9861576967" lon="57.7663882915"><ele>373.76</ele><time>2018-08-23T09:27:13Z</time><extensions><gpxtpx:TrackPointExtension><gpxtpx:depth>0.00</gpxtpx:depth></gpxtpx:TrackPointExtension></extensions></trkpt><trkpt lat="54.9858138710" lon="57.7677715570"><ele>378.16</ele><time>2018-08-23T09:28:32Z</time><extensions><gpxtpx:TrackPointExtension><gpxtpx:depth>0.00</gpxtpx:depth></gpxtpx:TrackPointExtension></extensions></trkpt><trkpt lat="54.9854215141" lon="57.7692481130"><ele>382.86</ele><time>2018-08-23T09:29:26Z</time><extensions><gpxtpx:TrackPointExtension><gpxtpx:depth>0.00</gpxtpx:depth></gpxtpx:TrackPointExtension></extensions></trkpt><trkpt lat="54.9850381259" lon="57.7707075700"><ele>389.41</ele><time>2018-08-23T09:30:29Z</time><extensions><gpxtpx:TrackPointExtension><gpxtpx:depth>0.00</gpxtpx:depth></gpxtpx:TrackPointExtension></extensions></trkpt><trkpt lat="54.9846398178" lon="57.7721065935"><ele>395.55</ele><time>2018-08-23T09:31:33Z</time><extensions><gpxtpx:TrackPointExtension><gpxtpx:depth>0.00</gpxtpx:depth></gpxtpx:TrackPointExtension></extensions></trkpt><trkpt lat="54.9842734449" lon="57.7735880949"><ele>401.87</ele><time>2018-08-23T09:32:38Z</time><extensions><gpxtpx:TrackPointExtension><gpxtpx:depth>0.00</gpxtpx:depth></gpxtpx:TrackPointExtension></extensions></trkpt><trkpt lat="54.9838809203" lon="57.7750439476"><ele>406.44</ele><time>2018-08-23T09:33:38Z</time><extensions><gpxtpx:TrackPointExtension><gpxtpx:depth>0.00</gpxtpx:depth></gpxtpx:TrackPointExtension></extensions></trkpt><trkpt lat="54.9834999628" lon="57.7764587291"><ele>409.09</ele><time>2018-08-23T09:34:30Z</time><extensions><gpxtpx:TrackPointExtension><gpxtpx:depth>0.00</gpxtpx:depth></gpxtpx:TrackPointExtension></extensions></trkpt><trkpt lat="54.9831510242" lon="57.7778751031"><ele>411.51</ele><time>2018-08-23T09:35:12Z</time><extensions><gpxtpx:TrackPointExtension><gpxtpx:depth>0.00</gpxtpx:depth></gpxtpx:TrackPointExtension></extensions></trkpt><trkpt lat="54.9828039296" lon="57.7793535031"><ele>412.45</ele><time>2018-08-23T09:35:49Z</time><extensions><gpxtpx:TrackPointExtension><gpxtpx:depth>0.00</gpxtpx:depth></gpxtpx:TrackPointExtension></extensions></trkpt><trkpt lat="54.9825953040" lon="57.7809059154"><ele>411.46</ele><time>2018-08-23T09:36:13Z</time><extensions><gpxtpx:TrackPointExtension><gpxtpx:depth>0.00</gpxtpx:depth></gpxtpx:TrackPointExtension></extensions></trkpt><trkpt lat="54.9825088866" lon="57.7824717388"><ele>410.10</ele><time>2018-08-23T09:36:31Z</time><extensions><gpxtpx:TrackPointExtension><gpxtpx:depth>0.00</gpxtpx:depth></gpxtpx:TrackPointExtension></extensions></trkpt><trkpt lat="54.9824924581" lon="57.7841121610"><ele>408.62</ele><time>2018-08-23T09:36:47Z</time><extensions><gpxtpx:TrackPointExtension><gpxtpx:depth>0.00</gpxtpx:depth></gpxtpx:TrackPointExtension></extensions></trkpt><trkpt lat="54.9825761933" lon="57.7857939899"><ele>406.31</ele><time>2018-08-23T09:37:00Z</time><extensions><gpxtpx:TrackPointExtension><gpxtpx:depth>0.00</gpxtpx:depth></gpxtpx:TrackPointExtension></extensions></trkpt><trkpt lat="54.9826638680" lon="57.7874193247"><ele>402.11</ele><time>2018-08-23T09:37:11Z</time><extensions><gpxtpx:TrackPointExtension><gpxtpx:depth>0.00</gpxtpx:depth></gpxtpx:TrackPointExtension></extensions></trkpt><trkpt lat="54.9827755988" lon="57.7891066018"><ele>396.53</ele><time>2018-08-23T09:37:22Z</time><extensions><gpxtpx:TrackPointExtension><gpxtpx:depth>0.00</gpxtpx:depth></gpxtpx:TrackPointExtension></extensions></trkpt><trkpt lat="54.9828733318" lon="57.7906871773"><ele>391.00</ele><time>2018-08-23T09:37:32Z</time><extensions><gpxtpx:TrackPointExtension><gpxtpx:depth>0.00</gpxtpx:depth></gpxtpx:TrackPointExtension></extensions></trkpt><trkpt lat="54.9829719868" lon="57.7923708502"><ele>383.31</ele><time>2018-08-23T09:37:44Z</time><extensions><gpxtpx:TrackPointExtension><gpxtpx:depth>0.00</gpxtpx:depth></gpxtpx:TrackPointExtension></extensions></trkpt><trkpt lat="54.9830708932" lon="57.7939315606"><ele>378.98</ele><time>2018-08-23T09:37:55Z</time><extensions><gpxtpx:TrackPointExtension><gpxtpx:depth>0.00</gpxtpx:depth></gpxtpx:TrackPointExtension></extensions></trkpt><trkpt lat="54.9831750803" lon="57.7955801971"><ele>374.67</ele><time>2018-08-23T09:38:07Z</time><extensions><gpxtpx:TrackPointExtension><gpxtpx:depth>0.00</gpxtpx:depth></gpxtpx:TrackPointExtension></extensions></trkpt><trkpt lat="54.9832470808" lon="57.7971111517"><ele>375.76</ele><time>2018-08-23T09:38:41Z</time><extensions><gpxtpx:TrackPointExtension><gpxtpx:depth>0.00</gpxtpx:depth></gpxtpx:TrackPointExtension></extensions></trkpt><trkpt lat="54.9831466656" lon="57.7986455429"><ele>382.34</ele><time>2018-08-23T09:40:28Z</time><extensions><gpxtpx:TrackPointExtension><gpxtpx:depth>0.00</gpxtpx:depth></gpxtpx:TrackPointExtension></extensions></trkpt><trkpt lat="54.9828430731" lon="57.8000930976"><ele>389.04</ele><time>2018-08-23T09:42:57Z</time><extensions><gpxtpx:TrackPointExtension><gpxtpx:depth>0.00</gpxtpx:depth></gpxtpx:TrackPointExtension></extensions></trkpt><trkpt lat="54.9825507123" lon="57.8016056120"><ele>396.36</ele><time>2018-08-23T09:44:20Z</time><extensions><gpxtpx:TrackPointExtension><gpxtpx:depth>0.00</gpxtpx:depth></gpxtpx:TrackPointExtension></extensions></trkpt><trkpt lat="54.9822026119" lon="57.8031157795"><ele>402.32</ele><time>2018-08-23T09:45:26Z</time><extensions><gpxtpx:TrackPointExtension><gpxtpx:depth>0.00</gpxtpx:depth></gpxtpx:TrackPointExtension></extensions></trkpt><trkpt lat="54.9818650726" lon="57.8046509251"><ele>408.84</ele><time>2018-08-23T09:46:36Z</time><extensions><gpxtpx:TrackPointExtension><gpxtpx:depth>0.00</gpxtpx:depth></gpxtpx:TrackPointExtension></extensions></trkpt><trkpt lat="54.9814832769" lon="57.8061428200"><ele>415.44</ele><time>2018-08-23T09:47:48Z</time><extensions><gpxtpx:TrackPointExtension><gpxtpx:depth>0.00</gpxtpx:depth></gpxtpx:TrackPointExtension></extensions></trkpt><trkpt lat="54.9811542872" lon="57.8077254910"><ele>421.16</ele><time>2018-08-23T09:49:02Z</time><extensions><gpxtpx:TrackPointExtension><gpxtpx:depth>0.00</gpxtpx:depth></gpxtpx:TrackPointExtension></extensions></trkpt><trkpt lat="54.9807956256" lon="57.8092338983"><ele>424.82</ele><time>2018-08-23T09:50:09Z</time><extensions><gpxtpx:TrackPointExtension><gpxtpx:depth>0.00</gpxtpx:depth></gpxtpx:TrackPointExtension></extensions></trkpt><trkpt lat="54.9804551527" lon="57.8107174952"><ele>426.41</ele><time>2018-08-23T09:51:02Z</time><extensions><gpxtpx:TrackPointExtension><gpxtpx:depth>0.00</gpxtpx:depth></gpxtpx:TrackPointExtension></extensions></trkpt><trkpt lat="54.9800776318" lon="57.8122134972"><ele>426.03</ele><time>2018-08-23T09:51:32Z</time><extensions><gpxtpx:TrackPointExtension><gpxtpx:depth>0.00</gpxtpx:depth></gpxtpx:TrackPointExtension></extensions></trkpt><trkpt lat="54.9795835186" lon="57.8135874588"><ele>424.55</ele><time>2018-08-23T09:51:51Z</time><extensions><gpxtpx:TrackPointExtension><gpxtpx:depth>0.00</gpxtpx:depth></gpxtpx:TrackPointExtension></extensions></trkpt><trkpt lat="54.9789454043" lon="57.8148218617"><ele>421.22</ele><time>2018-08-23T09:52:04Z</time><extensions><gpxtpx:TrackPointExtension><gpxtpx:depth>0.00</gpxtpx:depth></gpxtpx:TrackPointExtension></extensions></trkpt><trkpt lat="54.9782216270" lon="57.8158214036"><ele>417.50</ele><time>2018-08-23T09:52:17Z</time><extensions><gpxtpx:TrackPointExtension><gpxtpx:depth>0.00</gpxtpx:depth></gpxtpx:TrackPointExtension></extensions></trkpt><trkpt lat="54.9774236698" lon="57.8165743500"><ele>411.06</ele><time>2018-08-23T09:52:39Z</time><extensions><gpxtpx:TrackPointExtension><gpxtpx:depth>0.00</gpxtpx:depth></gpxtpx:TrackPointExtension></extensions></trkpt><trkpt lat="54.9766671192" lon="57.8174111154"><ele>406.22</ele><time>2018-08-23T09:53:10Z</time><extensions><gpxtpx:TrackPointExtension><gpxtpx:depth>0.00</gpxtpx:depth></gpxtpx:TrackPointExtension></extensions></trkpt><trkpt lat="54.9759042822" lon="57.8183142655"><ele>403.09</ele><time>2018-08-23T09:55:06Z</time><extensions><gpxtpx:TrackPointExtension><gpxtpx:depth>0.00</gpxtpx:depth></gpxtpx:TrackPointExtension></extensions></trkpt><trkpt lat="54.9750791676" lon="57.8191954549"><ele>398.71</ele><time>2018-08-23T09:55:21Z</time><extensions><gpxtpx:TrackPointExtension><gpxtpx:depth>0.00</gpxtpx:depth></gpxtpx:TrackPointExtension></extensions></trkpt><trkpt lat="54.9742600042" lon="57.8200572822"><ele>392.60</ele><time>2018-08-23T09:55:34Z</time><extensions><gpxtpx:TrackPointExtension><gpxtpx:depth>0.00</gpxtpx:depth></gpxtpx:TrackPointExtension></extensions></trkpt><trkpt lat="54.9734100793" lon="57.8209581692"><ele>388.50</ele><time>2018-08-23T09:55:44Z</time><extensions><gpxtpx:TrackPointExtension><gpxtpx:depth>0.00</gpxtpx:depth></gpxtpx:TrackPointExtension></extensions></trkpt><trkpt lat="54.9726334121" lon="57.8217963595"><ele>383.35</ele><time>2018-08-23T09:55:53Z</time><extensions><gpxtpx:TrackPointExtension><gpxtpx:depth>0.00</gpxtpx:depth></gpxtpx:TrackPointExtension></extensions></trkpt><trkpt lat="54.9718616065" lon="57.8226204682"><ele>379.46</ele><time>2018-08-23T09:56:05Z</time><extensions><gpxtpx:TrackPointExtension><gpxtpx:depth>0.00</gpxtpx:depth></gpxtpx:TrackPointExtension></extensions></trkpt><trkpt lat="54.9711054750" lon="57.8234128933"><ele>383.65</ele><time>2018-08-23T09:57:04Z</time><extensions><gpxtpx:TrackPointExtension><gpxtpx:depth>0.00</gpxtpx:depth></gpxtpx:TrackPointExtension></extensions></trkpt><trkpt lat="54.9703206774" lon="57.8242722899"><ele>388.80</ele><time>2018-08-23T09:58:51Z</time><extensions><gpxtpx:TrackPointExtension><gpxtpx:depth>0.00</gpxtpx:depth></gpxtpx:TrackPointExtension></extensions></trkpt><trkpt lat="54.9696108978" lon="57.8252398130"><ele>394.90</ele><time>2018-08-23T10:00:54Z</time><extensions><gpxtpx:TrackPointExtension><gpxtpx:depth>0.00</gpxtpx:depth></gpxtpx:TrackPointExtension></extensions></trkpt><trkpt lat="54.9689872004" lon="57.8263852838"><ele>400.99</ele><time>2018-08-23T10:03:03Z</time><extensions><gpxtpx:TrackPointExtension><gpxtpx:depth>0.00</gpxtpx:depth></gpxtpx:TrackPointExtension></extensions></trkpt><trkpt lat="54.9685169756" lon="57.8276437428"><ele>404.50</ele><time>2018-08-23T10:04:47Z</time><extensions><gpxtpx:TrackPointExtension><gpxtpx:depth>0.00</gpxtpx:depth></gpxtpx:TrackPointExtension></extensions></trkpt><trkpt lat="54.9681557156" lon="57.8290508129"><ele>405.49</ele><time>2018-08-23T10:06:26Z</time><extensions><gpxtpx:TrackPointExtension><gpxtpx:depth>0.00</gpxtpx:depth></gpxtpx:TrackPointExtension></extensions></trkpt><trkpt lat="54.9678276479" lon="57.8305717092"><ele>405.52</ele><time>2018-08-23T10:06:56Z</time><extensions><gpxtpx:TrackPointExtension><gpxtpx:depth>0.00</gpxtpx:depth></gpxtpx:TrackPointExtension></extensions></trkpt><trkpt lat="54.9675579183" lon="57.8321377840"><ele>404.50</ele><time>2018-08-23T10:07:15Z</time><extensions><gpxtpx:TrackPointExtension><gpxtpx:depth>0.00</gpxtpx:depth></gpxtpx:TrackPointExtension></extensions></trkpt><trkpt lat="54.9672628753" lon="57.8337518033"><ele>402.20</ele><time>2018-08-23T10:07:28Z</time><extensions><gpxtpx:TrackPointExtension><gpxtpx:depth>0.00</gpxtpx:depth></gpxtpx:TrackPointExtension></extensions></trkpt><trkpt lat="54.9669708498" lon="57.8353799041"><ele>398.30</ele><time>2018-08-23T10:07:38Z</time><extensions><gpxtpx:TrackPointExtension><gpxtpx:depth>0.00</gpxtpx:depth></gpxtpx:TrackPointExtension></extensions></trkpt><trkpt lat="54.9666803330" lon="57.8369789198"><ele>392.65</ele><time>2018-08-23T10:07:47Z</time><extensions><gpxtpx:TrackPointExtension><gpxtpx:depth>0.00</gpxtpx:depth></gpxtpx:TrackPointExtension></extensions></trkpt><trkpt lat="54.9663923308" lon="57.8385271411"><ele>388.16</ele><time>2018-08-23T10:07:56Z</time><extensions><gpxtpx:TrackPointExtension><gpxtpx:depth>0.00</gpxtpx:depth></gpxtpx:TrackPointExtension></extensions></trkpt><trkpt lat="54.9661002215" lon="57.8400666453"><ele>387.74</ele><time>2018-08-23T10:08:09Z</time><extensions><gpxtpx:TrackPointExtension><gpxtpx:depth>0.00</gpxtpx:depth></gpxtpx:TrackPointExtension></extensions></trkpt><trkpt lat="54.9658247922" lon="57.8415868711"><ele>390.42</ele><time>2018-08-23T10:08:31Z</time><extensions><gpxtpx:TrackPointExtension><gpxtpx:depth>0.00</gpxtpx:depth></gpxtpx:TrackPointExtension></extensions></trkpt><trkpt lat="54.9655937869" lon="57.8430943564"><ele>390.78</ele><time>2018-08-23T10:08:54Z</time><extensions><gpxtpx:TrackPointExtension><gpxtpx:depth>0.00</gpxtpx:depth></gpxtpx:TrackPointExtension></extensions></trkpt><trkpt lat="54.9654424936" lon="57.8447464295"><ele>389.48</ele><time>2018-08-23T10:09:12Z</time><extensions><gpxtpx:TrackPointExtension><gpxtpx:depth>0.00</gpxtpx:depth></gpxtpx:TrackPointExtension></extensions></trkpt><trkpt lat="54.9653882626" lon="57.8464223072"><ele>386.99</ele><time>2018-08-23T10:09:24Z</time><extensions><gpxtpx:TrackPointExtension><gpxtpx:depth>0.00</gpxtpx:depth></gpxtpx:TrackPointExtension></extensions></trkpt><trkpt lat="54.9654429965" lon="57.8481649049"><ele>382.72</ele><time>2018-08-23T10:09:34Z</time><extensions><gpxtpx:TrackPointExtension><gpxtpx:depth>0.00</gpxtpx:depth></gpxtpx:TrackPointExtension></extensions></trkpt><trkpt lat="54.9656116404" lon="57.8498991206"><ele>378.46</ele><time>2018-08-23T10:09:43Z</time><extensions><gpxtpx:TrackPointExtension><gpxtpx:depth>0.00</gpxtpx:depth></gpxtpx:TrackPointExtension></extensions></trkpt><trkpt lat="54.9658498541" lon="57.8516210150"><ele>373.76</ele><time>2018-08-23T10:09:52Z</time><extensions><gpxtpx:TrackPointExtension><gpxtpx:depth>0.00</gpxtpx:depth></gpxtpx:TrackPointExtension></extensions></trkpt><trkpt lat="54.9661024846" lon="57.8532513790"><ele>368.68</ele><time>2018-08-23T10:10:01Z</time><extensions><gpxtpx:TrackPointExtension><gpxtpx:depth>0.00</gpxtpx:depth></gpxtpx:TrackPointExtension></extensions></trkpt><trkpt lat="54.9663455598" lon="57.8548281826"><ele>362.24</ele><time>2018-08-23T10:10:12Z</time><extensions><gpxtpx:TrackPointExtension><gpxtpx:depth>0.00</gpxtpx:depth></gpxtpx:TrackPointExtension></extensions></trkpt><trkpt lat="54.9665928259" lon="57.8564199060"><ele>357.70</ele><time>2018-08-23T10:10:22Z</time><extensions><gpxtpx:TrackPointExtension><gpxtpx:depth>0.00</gpxtpx:depth></gpxtpx:TrackPointExtension></extensions></trkpt><trkpt lat="54.9668459594" lon="57.8580626752"><ele>353.93</ele><time>2018-08-23T10:10:31Z</time><extensions><gpxtpx:TrackPointExtension><gpxtpx:depth>0.00</gpxtpx:depth></gpxtpx:TrackPointExtension></extensions></trkpt><trkpt lat="54.9670983385" lon="57.8596714977"><ele>349.69</ele><time>2018-08-23T10:10:40Z</time><extensions><gpxtpx:TrackPointExtension><gpxtpx:depth>0.00</gpxtpx:depth></gpxtpx:TrackPointExtension></extensions></trkpt><trkpt lat="54.9673318584" lon="57.8611972556"><ele>342.26</ele><time>2018-08-23T10:10:53Z</time><extensions><gpxtpx:TrackPointExtension><gpxtpx:depth>0.00</gpxtpx:depth></gpxtpx:TrackPointExtension></extensions></trkpt><trkpt lat="54.9675746821" lon="57.8627222590"><ele>336.83</ele><time>2018-08-23T10:11:08Z</time><extensions><gpxtpx:TrackPointExtension><gpxtpx:depth>0.00</gpxtpx:depth></gpxtpx:TrackPointExtension></extensions></trkpt><trkpt lat="54.9677793682" lon="57.8641136549"><ele>337.03</ele><time>2018-08-23T10:14:42Z</time><extensions><gpxtpx:TrackPointExtension><gpxtpx:depth>0.00</gpxtpx:depth></gpxtpx:TrackPointExtension></extensions></trkpt><trkpt lat="54.9679848086" lon="57.8656710964"><ele>341.27</ele><time>2018-08-23T10:16:14Z</time><extensions><gpxtpx:TrackPointExtension><gpxtpx:depth>0.00</gpxtpx:depth></gpxtpx:TrackPointExtension></extensions></trkpt><trkpt lat="54.9682533648" lon="57.8672412783"><ele>346.16</ele><time>2018-08-23T10:17:55Z</time><extensions><gpxtpx:TrackPointExtension><gpxtpx:depth>0.00</gpxtpx:depth></gpxtpx:TrackPointExtension></extensions></trkpt><trkpt lat="54.9685144611" lon="57.8687116317"><ele>351.25</ele><time>2018-08-23T10:20:10Z</time><extensions><gpxtpx:TrackPointExtension><gpxtpx:depth>0.00</gpxtpx:depth></gpxtpx:TrackPointExtension></extensions></trkpt><trkpt lat="54.9688411038" lon="57.8701466974"><ele>355.07</ele><time>2018-08-23T10:21:58Z</time><extensions><gpxtpx:TrackPointExtension><gpxtpx:depth>0.00</gpxtpx:depth></gpxtpx:TrackPointExtension></extensions></trkpt><trkpt lat="54.9692856800" lon="57.8714785818"><ele>360.15</ele><time>2018-08-23T10:23:34Z</time><extensions><gpxtpx:TrackPointExtension><gpxtpx:depth>0.00</gpxtpx:depth></gpxtpx:TrackPointExtension></extensions></trkpt><trkpt lat="54.9698457588" lon="57.8725911118"><ele>364.25</ele><time>2018-08-23T10:25:01Z</time><extensions><gpxtpx:TrackPointExtension><gpxtpx:depth>0.00</gpxtpx:depth></gpxtpx:TrackPointExtension></extensions></trkpt><trkpt lat="54.9699522927" lon="57.8729905933"><ele>365.23</ele><time>2018-08-23T10:29:53Z</time><extensions><gpxtpx:TrackPointExtension><gpxtpx:depth>0.00</gpxtpx:depth></gpxtpx:TrackPointExtension></extensions></trkpt><trkpt lat="54.9700710643" lon="57.8727669641"><ele>365.84</ele><time>2018-08-23T10:34:00Z</time><extensions><gpxtpx:TrackPointExtension><gpxtpx:depth>0.00</gpxtpx:depth></gpxtpx:TrackPointExtension></extensions></trkpt><trkpt lat="54.9700604193" lon="57.8728705645"><ele>366.15</ele><time>2018-08-23T10:35:46Z</time><extensions><gpxtpx:TrackPointExtension><gpxtpx:depth>0.00</gpxtpx:depth></gpxtpx:TrackPointExtension></extensions></trkpt><trkpt lat="54.9699222855" lon="57.8730257135"><ele>366.32</ele><time>2018-08-23T10:37:01Z</time><extensions><gpxtpx:TrackPointExtension><gpxtpx:depth>0.00</gpxtpx:depth></gpxtpx:TrackPointExtension></extensions></trkpt><trkpt lat="54.9697611853" lon="57.8729893360"><ele>367.02</ele><time>2018-08-23T10:40:12Z</time><extensions><gpxtpx:TrackPointExtension><gpxtpx:depth>0.00</gpxtpx:depth></gpxtpx:TrackPointExtension></extensions></trkpt><trkpt lat="54.9698950443" lon="57.8729020804"><ele>365.40</ele><time>2018-08-23T10:45:06Z</time><extensions><gpxtpx:TrackPointExtension><gpxtpx:depth>0.00</gpxtpx:depth></gpxtpx:TrackPointExtension></extensions></trkpt><trkpt lat="54.9700382911" lon="57.8732411284"><ele>366.41</ele><time>2018-08-23T10:48:45Z</time><extensions><gpxtpx:TrackPointExtension><gpxtpx:depth>0.00</gpxtpx:depth></gpxtpx:TrackPointExtension></extensions></trkpt><trkpt lat="54.9704835378" lon="57.8745319415"><ele>371.34</ele><time>2018-08-23T10:50:15Z</time><extensions><gpxtpx:TrackPointExtension><gpxtpx:depth>0.00</gpxtpx:depth></gpxtpx:TrackPointExtension></extensions></trkpt><trkpt lat="54.9710074905" lon="57.8757971898"><ele>376.60</ele><time>2018-08-23T10:51:44Z</time><extensions><gpxtpx:TrackPointExtension><gpxtpx:depth>0.00</gpxtpx:depth></gpxtpx:TrackPointExtension></extensions></trkpt><trkpt lat="54.9714430142" lon="57.8771158308"><ele>382.20</ele><time>2018-08-23T10:53:21Z</time><extensions><gpxtpx:TrackPointExtension><gpxtpx:depth>0.00</gpxtpx:depth></gpxtpx:TrackPointExtension></extensions></trkpt><trkpt lat="54.9717932940" lon="57.8785696719"><ele>388.04</ele><time>2018-08-23T10:54:55Z</time><extensions><gpxtpx:TrackPointExtension><gpxtpx:depth>0.00</gpxtpx:depth></gpxtpx:TrackPointExtension></extensions></trkpt><trkpt lat="54.9720854871" lon="57.8800386004"><ele>393.05</ele><time>2018-08-23T10:56:41Z</time><extensions><gpxtpx:TrackPointExtension><gpxtpx:depth>0.00</gpxtpx:depth></gpxtpx:TrackPointExtension></extensions></trkpt><trkpt lat="54.9723525345" lon="57.8815006558"><ele>397.06</ele><time>2018-08-23T10:58:28Z</time><extensions><gpxtpx:TrackPointExtension><gpxtpx:depth>0.00</gpxtpx:depth></gpxtpx:TrackPointExtension></extensions></trkpt><trkpt lat="54.9726230185" lon="57.8830501344"><ele>403.45</ele><time>2018-08-23T10:59:17Z</time><extensions><gpxtpx:TrackPointExtension><gpxtpx:depth>0.00</gpxtpx:depth></gpxtpx:TrackPointExtension></extensions></trkpt><trkpt lat="54.9728869647" lon="57.8845403530"><ele>408.88</ele><time>2018-08-23T11:00:18Z</time><extensions><gpxtpx:TrackPointExtension><gpxtpx:depth>0.00</gpxtpx:depth></gpxtpx:TrackPointExtension></extensions></trkpt><trkpt lat="54.9731295370" lon="57.8860154003"><ele>413.08</ele><time>2018-08-23T11:01:16Z</time><extensions><gpxtpx:TrackPointExtension><gpxtpx:depth>0.00</gpxtpx:depth></gpxtpx:TrackPointExtension></extensions></trkpt><trkpt lat="54.9733169563" lon="57.8875453491"><ele>416.95</ele><time>2018-08-23T11:02:12Z</time><extensions><gpxtpx:TrackPointExtension><gpxtpx:depth>0.00</gpxtpx:depth></gpxtpx:TrackPointExtension></extensions></trkpt><trkpt lat="54.9734617956" lon="57.8890875354"><ele>418.87</ele><time>2018-08-23T11:02:56Z</time><extensions><gpxtpx:TrackPointExtension><gpxtpx:depth>0.00</gpxtpx:depth></gpxtpx:TrackPointExtension></extensions></trkpt><trkpt lat="54.9733671639" lon="57.8906372655"><ele>420.14</ele><time>2018-08-23T11:03:32Z</time><extensions><gpxtpx:TrackPointExtension><gpxtpx:depth>0.00</gpxtpx:depth></gpxtpx:TrackPointExtension></extensions></trkpt><trkpt lat="54.9732789863" lon="57.8916869313"><ele>419.86</ele><time>2018-08-23T11:11:54Z</time><extensions><gpxtpx:TrackPointExtension><gpxtpx:depth>0.00</gpxtpx:depth></gpxtpx:TrackPointExtension></extensions></trkpt><trkpt lat="54.9735139310" lon="57.8931084182"><ele>416.97</ele><time>2018-08-23T11:12:39Z</time><extensions><gpxtpx:TrackPointExtension><gpxtpx:depth>0.00</gpxtpx:depth></gpxtpx:TrackPointExtension></extensions></trkpt><trkpt lat="54.9734378234" lon="57.8946967889"><ele>414.17</ele><time>2018-08-23T11:13:00Z</time><extensions><gpxtpx:TrackPointExtension><gpxtpx:depth>0.00</gpxtpx:depth></gpxtpx:TrackPointExtension></extensions></trkpt><trkpt lat="54.9732823391" lon="57.8962519672"><ele>411.38</ele><time>2018-08-23T11:13:18Z</time><extensions><gpxtpx:TrackPointExtension><gpxtpx:depth>0.00</gpxtpx:depth></gpxtpx:TrackPointExtension></extensions></trkpt><trkpt lat="54.9730755575" lon="57.8978362307"><ele>408.60</ele><time>2018-08-23T11:13:38Z</time><extensions><gpxtpx:TrackPointExtension><gpxtpx:depth>0.00</gpxtpx:depth></gpxtpx:TrackPointExtension></extensions></trkpt><trkpt lat="54.9728415348" lon="57.8993603960"><ele>406.22</ele><time>2018-08-23T11:13:59Z</time><extensions><gpxtpx:TrackPointExtension><gpxtpx:depth>0.00</gpxtpx:depth></gpxtpx:TrackPointExtension></extensions></trkpt><trkpt lat="54.9726110324" lon="57.9009020794"><ele>402.64</ele><time>2018-08-23T11:14:18Z</time><extensions><gpxtpx:TrackPointExtension><gpxtpx:depth>0.00</gpxtpx:depth></gpxtpx:TrackPointExtension></extensions></trkpt><trkpt lat="54.9723892473" lon="57.9024562519"><ele>399.26</ele><time>2018-08-23T11:14:34Z</time><extensions><gpxtpx:TrackPointExtension><gpxtpx:depth>0.00</gpxtpx:depth></gpxtpx:TrackPointExtension></extensions></trkpt><trkpt lat="54.9721631035" lon="57.9040453769"><ele>395.38</ele><time>2018-08-23T11:14:49Z</time><extensions><gpxtpx:TrackPointExtension><gpxtpx:depth>0.00</gpxtpx:depth></gpxtpx:TrackPointExtension></extensions></trkpt><trkpt lat="54.9718963075" lon="57.9056639224"><ele>390.07</ele><time>2018-08-23T11:15:03Z</time><extensions><gpxtpx:TrackPointExtension><gpxtpx:depth>0.00</gpxtpx:depth></gpxtpx:TrackPointExtension></extensions></trkpt><trkpt lat="54.9716543220" lon="57.9071863275"><ele>385.51</ele><time>2018-08-23T11:15:16Z</time><extensions><gpxtpx:TrackPointExtension><gpxtpx:depth>0.00</gpxtpx:depth></gpxtpx:TrackPointExtension></extensions></trkpt><trkpt lat="54.9714003503" lon="57.9087442718"><ele>380.80</ele><time>2018-08-23T11:15:30Z</time><extensions><gpxtpx:TrackPointExtension><gpxtpx:depth>0.00</gpxtpx:depth></gpxtpx:TrackPointExtension></extensions></trkpt><trkpt lat="54.9711616337" lon="57.9102851171"><ele>377.81</ele><time>2018-08-23T11:15:43Z</time><extensions><gpxtpx:TrackPointExtension><gpxtpx:depth>0.00</gpxtpx:depth></gpxtpx:TrackPointExtension></extensions></trkpt><trkpt lat="54.9709519185" lon="57.9118130542"><ele>376.75</ele><time>2018-08-23T11:16:00Z</time><extensions><gpxtpx:TrackPointExtension><gpxtpx:depth>0.00</gpxtpx:depth></gpxtpx:TrackPointExtension></extensions></trkpt><trkpt lat="54.9708060734" lon="57.9133729264"><ele>380.32</ele><time>2018-08-23T11:16:38Z</time><extensions><gpxtpx:TrackPointExtension><gpxtpx:depth>0.00</gpxtpx:depth></gpxtpx:TrackPointExtension></extensions></trkpt><trkpt lat="54.9707238469" lon="57.9149179626"><ele>382.77</ele><time>2018-08-23T11:17:15Z</time><extensions><gpxtpx:TrackPointExtension><gpxtpx:depth>0.00</gpxtpx:depth></gpxtpx:TrackPointExtension></extensions></trkpt><trkpt lat="54.9705176521" lon="57.9164408706"><ele>385.69</ele><time>2018-08-23T11:18:02Z</time><extensions><gpxtpx:TrackPointExtension><gpxtpx:depth>0.00</gpxtpx:depth></gpxtpx:TrackPointExtension></extensions></trkpt><trkpt lat="54.9703143910" lon="57.9175461922"><ele>386.43</ele><time>2018-08-23T11:24:14Z</time><extensions><gpxtpx:TrackPointExtension><gpxtpx:depth>0.00</gpxtpx:depth></gpxtpx:TrackPointExtension></extensions></trkpt><trkpt lat="54.9702134728" lon="57.9174615350"><ele>387.27</ele><time>2018-08-23T11:28:03Z</time><extensions><gpxtpx:TrackPointExtension><gpxtpx:depth>0.00</gpxtpx:depth></gpxtpx:TrackPointExtension></extensions></trkpt><trkpt lat="54.9703796022" lon="57.9175293446"><ele>386.78</ele><time>2018-08-23T11:32:06Z</time><extensions><gpxtpx:TrackPointExtension><gpxtpx:depth>0.00</gpxtpx:depth></gpxtpx:TrackPointExtension></extensions></trkpt><trkpt lat="54.9702250399" lon="57.9174946435"><ele>386.40</ele><time>2018-08-23T11:35:47Z</time><extensions><gpxtpx:TrackPointExtension><gpxtpx:depth>0.00</gpxtpx:depth></gpxtpx:TrackPointExtension></extensions></trkpt><trkpt lat="54.9699271470" lon="57.9174782988"><ele>386.61</ele><time>2018-08-23T11:39:10Z</time><extensions><gpxtpx:TrackPointExtension><gpxtpx:depth>0.00</gpxtpx:depth></gpxtpx:TrackPointExtension></extensions></trkpt><trkpt lat="54.9699655361" lon="57.9177032690"><ele>386.42</ele><time>2018-08-23T11:42:59Z</time><extensions><gpxtpx:TrackPointExtension><gpxtpx:depth>0.00</gpxtpx:depth></gpxtpx:TrackPointExtension></extensions></trkpt><trkpt lat="54.9682376906" lon="57.9185215943"><ele>386.05</ele><time>2018-08-23T11:45:49Z</time><extensions><gpxtpx:TrackPointExtension><gpxtpx:depth>0.00</gpxtpx:depth></gpxtpx:TrackPointExtension></extensions></trkpt><trkpt lat="54.9700247962" lon="57.9174227268"><ele>384.92</ele><time>2018-08-23T11:50:52Z</time><extensions><gpxtpx:TrackPointExtension><gpxtpx:depth>0.00</gpxtpx:depth></gpxtpx:TrackPointExtension></extensions></trkpt><trkpt lat="54.9701689649" lon="57.9175223876"><ele>384.34</ele><time>2018-08-23T11:54:48Z</time><extensions><gpxtpx:TrackPointExtension><gpxtpx:depth>0.00</gpxtpx:depth></gpxtpx:TrackPointExtension></extensions></trkpt><trkpt lat="54.9703438114" lon="57.9173467029"><ele>385.20</ele><time>2018-08-23T11:57:53Z</time><extensions><gpxtpx:TrackPointExtension><gpxtpx:depth>0.00</gpxtpx:depth></gpxtpx:TrackPointExtension></extensions></trkpt><trkpt lat="54.9705683626" lon="57.9174737725"><ele>384.42</ele><time>2018-08-23T11:58:58Z</time><extensions><gpxtpx:TrackPointExtension><gpxtpx:depth>0.00</gpxtpx:depth></gpxtpx:TrackPointExtension></extensions></trkpt><trkpt lat="54.9707380962" lon="57.9172934778"><ele>382.68</ele><time>2018-08-23T12:14:05Z</time><extensions><gpxtpx:TrackPointExtension><gpxtpx:depth>0.00</gpxtpx:depth></gpxtpx:TrackPointExtension></extensions></trkpt><trkpt lat="54.9703871459" lon="57.9184643459"><ele>380.34</ele><time>2018-08-23T12:21:19Z</time><extensions><gpxtpx:TrackPointExtension><gpxtpx:depth>0.00</gpxtpx:depth></gpxtpx:TrackPointExtension></extensions></trkpt><trkpt lat="54.9704097770" lon="57.9200013354"><ele>379.72</ele><time>2018-08-23T12:22:19Z</time><extensions><gpxtpx:TrackPointExtension><gpxtpx:depth>0.00</gpxtpx:depth></gpxtpx:TrackPointExtension></extensions></trkpt><trkpt lat="54.9706315622" lon="57.9215191305"><ele>378.08</ele><time>2018-08-23T12:23:21Z</time><extensions><gpxtpx:TrackPointExtension><gpxtpx:depth>0.00</gpxtpx:depth></gpxtpx:TrackPointExtension></extensions></trkpt><trkpt lat="54.9706921633" lon="57.9230993707"><ele>376.68</ele><time>2018-08-23T12:23:58Z</time><extensions><gpxtpx:TrackPointExtension><gpxtpx:depth>0.00</gpxtpx:depth></gpxtpx:TrackPointExtension></extensions></trkpt><trkpt lat="54.9707057420" lon="57.9246823769"><ele>375.54</ele><time>2018-08-23T12:24:24Z</time><extensions><gpxtpx:TrackPointExtension><gpxtpx:depth>0.00</gpxtpx:depth></gpxtpx:TrackPointExtension></extensions></trkpt><trkpt lat="54.9707323965" lon="57.9263148364"><ele>373.92</ele><time>2018-08-23T12:24:49Z</time><extensions><gpxtpx:TrackPointExtension><gpxtpx:depth>0.00</gpxtpx:depth></gpxtpx:TrackPointExtension></extensions></trkpt><trkpt lat="54.9707695283" lon="57.9278974235"><ele>372.66</ele><time>2018-08-23T12:25:16Z</time><extensions><gpxtpx:TrackPointExtension><gpxtpx:depth>0.00</gpxtpx:depth></gpxtpx:TrackPointExtension></extensions></trkpt><trkpt lat="54.9707924109" lon="57.9294662643"><ele>372.79</ele><time>2018-08-23T12:25:54Z</time><extensions><gpxtpx:TrackPointExtension><gpxtpx:depth>0.00</gpxtpx:depth></gpxtpx:TrackPointExtension></extensions></trkpt><trkpt lat="54.9708136171" lon="57.9309914354"><ele>373.26</ele><time>2018-08-23T12:28:39Z</time><extensions><gpxtpx:TrackPointExtension><gpxtpx:depth>0.00</gpxtpx:depth></gpxtpx:TrackPointExtension></extensions></trkpt><trkpt lat="54.9708723743" lon="57.9325636290"><ele>374.12</ele><time>2018-08-23T12:29:15Z</time><extensions><gpxtpx:TrackPointExtension><gpxtpx:depth>0.00</gpxtpx:depth></gpxtpx:TrackPointExtension></extensions></trkpt><trkpt lat="54.9708958436" lon="57.9341650754"><ele>374.65</ele><time>2018-08-23T12:30:13Z</time><extensions><gpxtpx:TrackPointExtension><gpxtpx:depth>0.00</gpxtpx:depth></gpxtpx:TrackPointExtension></extensions></trkpt><trkpt lat="54.9708419479" lon="57.9357509315"><ele>375.55</ele><time>2018-08-23T12:30:41Z</time><extensions><gpxtpx:TrackPointExtension><gpxtpx:depth>0.00</gpxtpx:depth></gpxtpx:TrackPointExtension></extensions></trkpt><trkpt lat="54.9707426224" lon="57.9373500310"><ele>376.25</ele><time>2018-08-23T12:31:09Z</time><extensions><gpxtpx:TrackPointExtension><gpxtpx:depth>0.00</gpxtpx:depth></gpxtpx:TrackPointExtension></extensions></trkpt><trkpt lat="54.9706384353" lon="57.9388560914"><ele>379.06</ele><time>2018-08-23T12:31:42Z</time><extensions><gpxtpx:TrackPointExtension><gpxtpx:depth>0.00</gpxtpx:depth></gpxtpx:TrackPointExtension></extensions></trkpt><trkpt lat="54.9704929255" lon="57.9403872136"><ele>383.21</ele><time>2018-08-23T12:32:23Z</time><extensions><gpxtpx:TrackPointExtension><gpxtpx:depth>0.00</gpxtpx:depth></gpxtpx:TrackPointExtension></extensions></trkpt><trkpt lat="54.9703204259" lon="57.9419628438"><ele>387.69</ele><time>2018-08-23T12:33:11Z</time><extensions><gpxtpx:TrackPointExtension><gpxtpx:depth>0.00</gpxtpx:depth></gpxtpx:TrackPointExtension></extensions></trkpt><trkpt lat="54.9701477587" lon="57.9435230512"><ele>392.56</ele><time>2018-08-23T12:34:02Z</time><extensions><gpxtpx:TrackPointExtension><gpxtpx:depth>0.00</gpxtpx:depth></gpxtpx:TrackPointExtension></extensions></trkpt><trkpt lat="54.9699652009" lon="57.9450842645"><ele>397.55</ele><time>2018-08-23T12:34:58Z</time><extensions><gpxtpx:TrackPointExtension><gpxtpx:depth>0.00</gpxtpx:depth></gpxtpx:TrackPointExtension></extensions></trkpt><trkpt lat="54.9697887618" lon="57.9466547817"><ele>402.71</ele><time>2018-08-23T12:35:58Z</time><extensions><gpxtpx:TrackPointExtension><gpxtpx:depth>0.00</gpxtpx:depth></gpxtpx:TrackPointExtension></extensions></trkpt><trkpt lat="54.9696178548" lon="57.9481993988"><ele>407.36</ele><time>2018-08-23T12:36:54Z</time><extensions><gpxtpx:TrackPointExtension><gpxtpx:depth>0.00</gpxtpx:depth></gpxtpx:TrackPointExtension></extensions></trkpt><trkpt lat="54.9694208801" lon="57.9497596063"><ele>412.43</ele><time>2018-08-23T12:37:52Z</time><extensions><gpxtpx:TrackPointExtension><gpxtpx:depth>0.00</gpxtpx:depth></gpxtpx:TrackPointExtension></extensions></trkpt><trkpt lat="54.9692629650" lon="57.9513250943"><ele>417.94</ele><time>2018-08-23T12:38:50Z</time><extensions><gpxtpx:TrackPointExtension><gpxtpx:depth>0.00</gpxtpx:depth></gpxtpx:TrackPointExtension></extensions></trkpt><trkpt lat="54.9690724444" lon="57.9528895766"><ele>423.41</ele><time>2018-08-23T12:39:50Z</time><extensions><gpxtpx:TrackPointExtension><gpxtpx:depth>0.00</gpxtpx:depth></gpxtpx:TrackPointExtension></extensions></trkpt><trkpt lat="54.9688726198" lon="57.9544980638"><ele>429.76</ele><time>2018-08-23T12:40:54Z</time><extensions><gpxtpx:TrackPointExtension><gpxtpx:depth>0.00</gpxtpx:depth></gpxtpx:TrackPointExtension></extensions></trkpt><trkpt lat="54.9687072448" lon="57.9560852610"><ele>435.98</ele><time>2018-08-23T12:42:03Z</time><extensions><gpxtpx:TrackPointExtension><gpxtpx:depth>0.00</gpxtpx:depth></gpxtpx:TrackPointExtension></extensions></trkpt><trkpt lat="54.9685214180" lon="57.9576547723"><ele>441.64</ele><time>2018-08-23T12:43:12Z</time><extensions><gpxtpx:TrackPointExtension><gpxtpx:depth>0.00</gpxtpx:depth></gpxtpx:TrackPointExtension></extensions></trkpt><trkpt lat="54.9683301430" lon="57.9592115432"><ele>446.96</ele><time>2018-08-23T12:44:18Z</time><extensions><gpxtpx:TrackPointExtension><gpxtpx:depth>0.00</gpxtpx:depth></gpxtpx:TrackPointExtension></extensions></trkpt><trkpt lat="54.9681530334" lon="57.9607667215"><ele>451.01</ele><time>2018-08-23T12:45:17Z</time><extensions><gpxtpx:TrackPointExtension><gpxtpx:depth>0.00</gpxtpx:depth></gpxtpx:TrackPointExtension></extensions></trkpt><trkpt lat="54.9679594953" lon="57.9623445310"><ele>453.77</ele><time>2018-08-23T12:46:09Z</time><extensions><gpxtpx:TrackPointExtension><gpxtpx:depth>0.00</gpxtpx:depth></gpxtpx:TrackPointExtension></extensions></trkpt><trkpt lat="54.9677483551" lon="57.9639348295"><ele>454.69</ele><time>2018-08-23T12:46:49Z</time><extensions><gpxtpx:TrackPointExtension><gpxtpx:depth>0.00</gpxtpx:depth></gpxtpx:TrackPointExtension></extensions></trkpt><trkpt lat="54.9674938805" lon="57.9654118884"><ele>454.52</ele><time>2018-08-23T12:48:34Z</time><extensions><gpxtpx:TrackPointExtension><gpxtpx:depth>0.00</gpxtpx:depth></gpxtpx:TrackPointExtension></extensions></trkpt><trkpt lat="54.9671912938" lon="57.9669401608"><ele>452.89</ele><time>2018-08-23T12:48:56Z</time><extensions><gpxtpx:TrackPointExtension><gpxtpx:depth>0.00</gpxtpx:depth></gpxtpx:TrackPointExtension></extensions></trkpt><trkpt lat="54.9668755475" lon="57.9684573691"><ele>449.44</ele><time>2018-08-23T12:49:10Z</time><extensions><gpxtpx:TrackPointExtension><gpxtpx:depth>0.00</gpxtpx:depth></gpxtpx:TrackPointExtension></extensions></trkpt><trkpt lat="54.9665252678" lon="57.9699879047"><ele>445.12</ele><time>2018-08-23T12:49:22Z</time><extensions><gpxtpx:TrackPointExtension><gpxtpx:depth>0.00</gpxtpx:depth></gpxtpx:TrackPointExtension></extensions></trkpt><trkpt lat="54.9661208410" lon="57.9715842381"><ele>439.55</ele><time>2018-08-23T12:49:32Z</time><extensions><gpxtpx:TrackPointExtension><gpxtpx:depth>0.00</gpxtpx:depth></gpxtpx:TrackPointExtension></extensions></trkpt><trkpt lat="54.9657180067" lon="57.9730726127"><ele>435.31</ele><time>2018-08-23T12:49:41Z</time><extensions><gpxtpx:TrackPointExtension><gpxtpx:depth>0.00</gpxtpx:depth></gpxtpx:TrackPointExtension></extensions></trkpt><trkpt lat="54.9652967323" lon="57.9744791798"><ele>431.62</ele><time>2018-08-23T12:49:50Z</time><extensions><gpxtpx:TrackPointExtension><gpxtpx:depth>0.00</gpxtpx:depth></gpxtpx:TrackPointExtension></extensions></trkpt><trkpt lat="54.9648011103" lon="57.9759683087"><ele>428.33</ele><time>2018-08-23T12:50:00Z</time><extensions><gpxtpx:TrackPointExtension><gpxtpx:depth>0.00</gpxtpx:depth></gpxtpx:TrackPointExtension></extensions></trkpt><trkpt lat="54.9642550293" lon="57.9773651529"><ele>425.92</ele><time>2018-08-23T12:50:11Z</time><extensions><gpxtpx:TrackPointExtension><gpxtpx:depth>0.00</gpxtpx:depth></gpxtpx:TrackPointExtension></extensions></trkpt><trkpt lat="54.9637139775" lon="57.9787061736"><ele>424.76</ele><time>2018-08-23T12:50:24Z</time><extensions><gpxtpx:TrackPointExtension><gpxtpx:depth>0.00</gpxtpx:depth></gpxtpx:TrackPointExtension></extensions></trkpt><trkpt lat="54.9632048607" lon="57.9799984954"><ele>423.83</ele><time>2018-08-23T12:50:39Z</time><extensions><gpxtpx:TrackPointExtension><gpxtpx:depth>0.00</gpxtpx:depth></gpxtpx:TrackPointExtension></extensions></trkpt><trkpt lat="54.9626835901" lon="57.9813383427"><ele>423.47</ele><time>2018-08-23T12:50:58Z</time><extensions><gpxtpx:TrackPointExtension><gpxtpx:depth>0.00</gpxtpx:depth></gpxtpx:TrackPointExtension></extensions></trkpt><trkpt lat="54.9621468969" lon="57.9826781899"><ele>422.53</ele><time>2018-08-23T12:51:17Z</time><extensions><gpxtpx:TrackPointExtension><gpxtpx:depth>0.00</gpxtpx:depth></gpxtpx:TrackPointExtension></extensions></trkpt><trkpt lat="54.9615820404" lon="57.9840021953"><ele>421.59</ele><time>2018-08-23T12:51:35Z</time><extensions><gpxtpx:TrackPointExtension><gpxtpx:depth>0.00</gpxtpx:depth></gpxtpx:TrackPointExtension></extensions></trkpt><trkpt lat="54.9609966483" lon="57.9852267914"><ele>420.40</ele><time>2018-08-23T12:51:51Z</time><extensions><gpxtpx:TrackPointExtension><gpxtpx:depth>0.00</gpxtpx:depth></gpxtpx:TrackPointExtension></extensions></trkpt><trkpt lat="54.9603778124" lon="57.9864561651"><ele>419.61</ele><time>2018-08-23T12:52:08Z</time><extensions><gpxtpx:TrackPointExtension><gpxtpx:depth>0.00</gpxtpx:depth></gpxtpx:TrackPointExtension></extensions></trkpt><trkpt lat="54.9597370159" lon="57.9876625724"><ele>418.20</ele><time>2018-08-23T12:52:26Z</time><extensions><gpxtpx:TrackPointExtension><gpxtpx:depth>0.00</gpxtpx:depth></gpxtpx:TrackPointExtension></extensions></trkpt><trkpt lat="54.9591126479" lon="57.9887854122"><ele>417.96</ele><time>2018-08-23T12:52:46Z</time><extensions><gpxtpx:TrackPointExtension><gpxtpx:depth>0.00</gpxtpx:depth></gpxtpx:TrackPointExtension></extensions></trkpt><trkpt lat="54.9584040418" lon="57.9898841958"><ele>417.31</ele><time>2018-08-23T12:53:05Z</time><extensions><gpxtpx:TrackPointExtension><gpxtpx:depth>0.00</gpxtpx:depth></gpxtpx:TrackPointExtension></extensions></trkpt><trkpt lat="54.9576821085" lon="57.9909802135"><ele>415.84</ele><time>2018-08-23T12:53:21Z</time><extensions><gpxtpx:TrackPointExtension><gpxtpx:depth>0.00</gpxtpx:depth></gpxtpx:TrackPointExtension></extensions></trkpt><trkpt lat="54.9569553975" lon="57.9919861257"><ele>413.17</ele><time>2018-08-23T12:53:33Z</time><extensions><gpxtpx:TrackPointExtension><gpxtpx:depth>0.00</gpxtpx:depth></gpxtpx:TrackPointExtension></extensions></trkpt><trkpt lat="54.9561985955" lon="57.9929905292"><ele>409.84</ele><time>2018-08-23T12:53:44Z</time><extensions><gpxtpx:TrackPointExtension><gpxtpx:depth>0.00</gpxtpx:depth></gpxtpx:TrackPointExtension></extensions></trkpt><trkpt lat="54.9554692861" lon="57.9939096887"><ele>406.42</ele><time>2018-08-23T12:53:55Z</time><extensions><gpxtpx:TrackPointExtension><gpxtpx:depth>0.00</gpxtpx:depth></gpxtpx:TrackPointExtension></extensions></trkpt><trkpt lat="54.9547063652" lon="57.9947445262"><ele>402.19</ele><time>2018-08-23T12:54:05Z</time><extensions><gpxtpx:TrackPointExtension><gpxtpx:depth>0.00</gpxtpx:depth></gpxtpx:TrackPointExtension></extensions></trkpt><trkpt lat="54.9538643192" lon="57.9956207704"><ele>398.27</ele><time>2018-08-23T12:54:15Z</time><extensions><gpxtpx:TrackPointExtension><gpxtpx:depth>0.00</gpxtpx:depth></gpxtpx:TrackPointExtension></extensions></trkpt><trkpt lat="54.9529830460" lon="57.9964784067"><ele>394.16</ele><time>2018-08-23T12:54:25Z</time><extensions><gpxtpx:TrackPointExtension><gpxtpx:depth>0.00</gpxtpx:depth></gpxtpx:TrackPointExtension></extensions></trkpt><trkpt lat="54.9521530699" lon="57.9972508829"><ele>389.94</ele><time>2018-08-23T12:54:34Z</time><extensions><gpxtpx:TrackPointExtension><gpxtpx:depth>0.00</gpxtpx:depth></gpxtpx:TrackPointExtension></extensions></trkpt><trkpt lat="54.9513036478" lon="57.9980500136"><ele>384.40</ele><time>2018-08-23T12:54:44Z</time><extensions><gpxtpx:TrackPointExtension><gpxtpx:depth>0.00</gpxtpx:depth></gpxtpx:TrackPointExtension></extensions></trkpt><trkpt lat="54.9504688103" lon="57.9988231603"><ele>381.44</ele><time>2018-08-23T12:54:54Z</time><extensions><gpxtpx:TrackPointExtension><gpxtpx:depth>0.00</gpxtpx:depth></gpxtpx:TrackPointExtension></extensions></trkpt><trkpt lat="54.9496389180" lon="57.9996014200"><ele>378.22</ele><time>2018-08-23T12:55:04Z</time><extensions><gpxtpx:TrackPointExtension><gpxtpx:depth>0.00</gpxtpx:depth></gpxtpx:TrackPointExtension></extensions></trkpt><trkpt lat="54.9488424696" lon="58.0003386084"><ele>374.96</ele><time>2018-08-23T12:55:14Z</time><extensions><gpxtpx:TrackPointExtension><gpxtpx:depth>0.00</gpxtpx:depth></gpxtpx:TrackPointExtension></extensions></trkpt><trkpt lat="54.9479772896" lon="58.0011461210"><ele>372.51</ele><time>2018-08-23T12:55:25Z</time><extensions><gpxtpx:TrackPointExtension><gpxtpx:depth>0.00</gpxtpx:depth></gpxtpx:TrackPointExtension></extensions></trkpt><trkpt lat="54.9471402727" lon="58.0019299127"><ele>370.02</ele><time>2018-08-23T12:55:36Z</time><extensions><gpxtpx:TrackPointExtension><gpxtpx:depth>0.00</gpxtpx:depth></gpxtpx:TrackPointExtension></extensions></trkpt><trkpt lat="54.9463278987" lon="58.0026785843"><ele>368.16</ele><time>2018-08-23T12:55:47Z</time><extensions><gpxtpx:TrackPointExtension><gpxtpx:depth>0.00</gpxtpx:depth></gpxtpx:TrackPointExtension></extensions></trkpt><trkpt lat="54.9454830866" lon="58.0034538265"><ele>365.28</ele><time>2018-08-23T12:55:59Z</time><extensions><gpxtpx:TrackPointExtension><gpxtpx:depth>0.00</gpxtpx:depth></gpxtpx:TrackPointExtension></extensions></trkpt><trkpt lat="54.9446400348" lon="58.0042215250"><ele>363.35</ele><time>2018-08-23T12:56:11Z</time><extensions><gpxtpx:TrackPointExtension><gpxtpx:depth>0.00</gpxtpx:depth></gpxtpx:TrackPointExtension></extensions></trkpt><trkpt lat="54.9438108131" lon="58.0049812607"><ele>360.97</ele><time>2018-08-23T12:56:23Z</time><extensions><gpxtpx:TrackPointExtension><gpxtpx:depth>0.00</gpxtpx:depth></gpxtpx:TrackPointExtension></extensions></trkpt><trkpt lat="54.9429563619" lon="58.0057181977"><ele>358.59</ele><time>2018-08-23T12:56:35Z</time><extensions><gpxtpx:TrackPointExtension><gpxtpx:depth>0.00</gpxtpx:depth></gpxtpx:TrackPointExtension></extensions></trkpt><trkpt lat="54.9421216920" lon="58.0064812861"><ele>355.72</ele><time>2018-08-23T12:56:47Z</time><extensions><gpxtpx:TrackPointExtension><gpxtpx:depth>0.00</gpxtpx:depth></gpxtpx:TrackPointExtension></extensions></trkpt><trkpt lat="54.9413036183" lon="58.0072272755"><ele>354.16</ele><time>2018-08-23T12:56:59Z</time><extensions><gpxtpx:TrackPointExtension><gpxtpx:depth>0.00</gpxtpx:depth></gpxtpx:TrackPointExtension></extensions></trkpt><trkpt lat="54.9405148812" lon="58.0079961475"><ele>351.95</ele><time>2018-08-23T12:57:11Z</time><extensions><gpxtpx:TrackPointExtension><gpxtpx:depth>0.00</gpxtpx:depth></gpxtpx:TrackPointExtension></extensions></trkpt><trkpt lat="54.9397007469" lon="58.0087566376"><ele>350.43</ele><time>2018-08-23T12:57:26Z</time><extensions><gpxtpx:TrackPointExtension><gpxtpx:depth>0.00</gpxtpx:depth></gpxtpx:TrackPointExtension></extensions></trkpt><trkpt lat="54.9388874508" lon="58.0095059797"><ele>351.12</ele><time>2018-08-23T12:57:48Z</time><extensions><gpxtpx:TrackPointExtension><gpxtpx:depth>0.00</gpxtpx:depth></gpxtpx:TrackPointExtension></extensions></trkpt><trkpt lat="54.9380999710" lon="58.0102561601"><ele>353.12</ele><time>2018-08-23T12:58:14Z</time><extensions><gpxtpx:TrackPointExtension><gpxtpx:depth>0.00</gpxtpx:depth></gpxtpx:TrackPointExtension></extensions></trkpt><trkpt lat="54.9372855015" lon="58.0110391136"><ele>354.39</ele><time>2018-08-23T12:58:39Z</time><extensions><gpxtpx:TrackPointExtension><gpxtpx:depth>0.00</gpxtpx:depth></gpxtpx:TrackPointExtension></extensions></trkpt><trkpt lat="54.9364807550" lon="58.0117752124"><ele>354.95</ele><time>2018-08-23T12:59:04Z</time><extensions><gpxtpx:TrackPointExtension><gpxtpx:depth>0.00</gpxtpx:depth></gpxtpx:TrackPointExtension></extensions></trkpt><trkpt lat="54.9356577359" lon="58.0125513766"><ele>354.30</ele><time>2018-08-23T12:59:27Z</time><extensions><gpxtpx:TrackPointExtension><gpxtpx:depth>0.00</gpxtpx:depth></gpxtpx:TrackPointExtension></extensions></trkpt><trkpt lat="54.9348540790" lon="58.0133471545"><ele>353.29</ele><time>2018-08-23T12:59:47Z</time><extensions><gpxtpx:TrackPointExtension><gpxtpx:depth>0.00</gpxtpx:depth></gpxtpx:TrackPointExtension></extensions></trkpt><trkpt lat="54.9340462312" lon="58.0141637195"><ele>351.63</ele><time>2018-08-23T13:00:06Z</time><extensions><gpxtpx:TrackPointExtension><gpxtpx:depth>0.00</gpxtpx:depth></gpxtpx:TrackPointExtension></extensions></trkpt><trkpt lat="54.9332344439" lon="58.0150024965"><ele>350.58</ele><time>2018-08-23T13:00:26Z</time><extensions><gpxtpx:TrackPointExtension><gpxtpx:depth>0.00</gpxtpx:depth></gpxtpx:TrackPointExtension></extensions></trkpt><trkpt lat="54.9324809946" lon="58.0158779025"><ele>349.42</ele><time>2018-08-23T13:00:46Z</time><extensions><gpxtpx:TrackPointExtension><gpxtpx:depth>0.00</gpxtpx:depth></gpxtpx:TrackPointExtension></extensions></trkpt><trkpt lat="54.9317308143" lon="58.0167642888"><ele>348.37</ele><time>2018-08-23T13:01:04Z</time><extensions><gpxtpx:TrackPointExtension><gpxtpx:depth>0.00</gpxtpx:depth></gpxtpx:TrackPointExtension></extensions></trkpt><trkpt lat="54.9309838191" lon="58.0177432112"><ele>346.89</ele><time>2018-08-23T13:01:20Z</time><extensions><gpxtpx:TrackPointExtension><gpxtpx:depth>0.00</gpxtpx:depth></gpxtpx:TrackPointExtension></extensions></trkpt><trkpt lat="54.9302310403" lon="58.0186827388"><ele>344.80</ele><time>2018-08-23T13:01:34Z</time><extensions><gpxtpx:TrackPointExtension><gpxtpx:depth>0.00</gpxtpx:depth></gpxtpx:TrackPointExtension></extensions></trkpt><trkpt lat="54.9294726457" lon="58.0196444783"><ele>342.71</ele><time>2018-08-23T13:01:47Z</time><extensions><gpxtpx:TrackPointExtension><gpxtpx:depth>0.00</gpxtpx:depth></gpxtpx:TrackPointExtension></extensions></trkpt><trkpt lat="54.9286822323" lon="58.0206283461"><ele>340.57</ele><time>2018-08-23T13:02:00Z</time><extensions><gpxtpx:TrackPointExtension><gpxtpx:depth>0.00</gpxtpx:depth></gpxtpx:TrackPointExtension></extensions></trkpt><trkpt lat="54.9279032182" lon="58.0216009822"><ele>338.42</ele><time>2018-08-23T13:02:13Z</time><extensions><gpxtpx:TrackPointExtension><gpxtpx:depth>0.00</gpxtpx:depth></gpxtpx:TrackPointExtension></extensions></trkpt><trkpt lat="54.9271529540" lon="58.0225384980"><ele>336.67</ele><time>2018-08-23T13:02:26Z</time><extensions><gpxtpx:TrackPointExtension><gpxtpx:depth>0.00</gpxtpx:depth></gpxtpx:TrackPointExtension></extensions></trkpt><trkpt lat="54.9263698328" lon="58.0235035066"><ele>335.33</ele><time>2018-08-23T13:02:40Z</time><extensions><gpxtpx:TrackPointExtension><gpxtpx:depth>0.00</gpxtpx:depth></gpxtpx:TrackPointExtension></extensions></trkpt><trkpt lat="54.9256086722" lon="58.0244533438"><ele>333.81</ele><time>2018-08-23T13:02:55Z</time><extensions><gpxtpx:TrackPointExtension><gpxtpx:depth>0.00</gpxtpx:depth></gpxtpx:TrackPointExtension></extensions></trkpt><trkpt lat="54.9248537980" lon="58.0254080426"><ele>332.77</ele><time>2018-08-23T13:03:12Z</time><extensions><gpxtpx:TrackPointExtension><gpxtpx:depth>0.00</gpxtpx:depth></gpxtpx:TrackPointExtension></extensions></trkpt><trkpt lat="54.9241153523" lon="58.0263427086"><ele>333.25</ele><time>2018-08-23T13:03:37Z</time><extensions><gpxtpx:TrackPointExtension><gpxtpx:depth>0.00</gpxtpx:depth></gpxtpx:TrackPointExtension></extensions></trkpt><trkpt lat="54.9233922455" lon="58.0272664782"><ele>336.12</ele><time>2018-08-23T13:04:12Z</time><extensions><gpxtpx:TrackPointExtension><gpxtpx:depth>0.00</gpxtpx:depth></gpxtpx:TrackPointExtension></extensions></trkpt><trkpt lat="54.9226915184" lon="58.0282556266"><ele>340.12</ele><time>2018-08-23T13:04:59Z</time><extensions><gpxtpx:TrackPointExtension><gpxtpx:depth>0.00</gpxtpx:depth></gpxtpx:TrackPointExtension></extensions></trkpt><trkpt lat="54.9220022745" lon="58.0292861816"><ele>344.52</ele><time>2018-08-23T13:05:48Z</time><extensions><gpxtpx:TrackPointExtension><gpxtpx:depth>0.00</gpxtpx:depth></gpxtpx:TrackPointExtension></extensions></trkpt><trkpt lat="54.9213337339" lon="58.0303952750"><ele>349.39</ele><time>2018-08-23T13:06:43Z</time><extensions><gpxtpx:TrackPointExtension><gpxtpx:depth>0.00</gpxtpx:depth></gpxtpx:TrackPointExtension></extensions></trkpt><trkpt lat="54.9208151456" lon="58.0318119004"><ele>353.03</ele><time>2018-08-23T13:07:38Z</time><extensions><gpxtpx:TrackPointExtension><gpxtpx:depth>0.00</gpxtpx:depth></gpxtpx:TrackPointExtension></extensions></trkpt><trkpt lat="54.9203455914" lon="58.0332787335"><ele>354.93</ele><time>2018-08-23T13:08:21Z</time><extensions><gpxtpx:TrackPointExtension><gpxtpx:depth>0.00</gpxtpx:depth></gpxtpx:TrackPointExtension></extensions></trkpt><trkpt lat="54.9200010952" lon="58.0347679462"><ele>355.52</ele><time>2018-08-23T13:09:01Z</time><extensions><gpxtpx:TrackPointExtension><gpxtpx:depth>0.00</gpxtpx:depth></gpxtpx:TrackPointExtension></extensions></trkpt><trkpt lat="54.9196996819" lon="58.0363068637"><ele>355.59</ele><time>2018-08-23T13:09:41Z</time><extensions><gpxtpx:TrackPointExtension><gpxtpx:depth>0.00</gpxtpx:depth></gpxtpx:TrackPointExtension></extensions></trkpt><trkpt lat="54.9194130208" lon="58.0378214736"><ele>356.47</ele><time>2018-08-23T13:10:26Z</time><extensions><gpxtpx:TrackPointExtension><gpxtpx:depth>0.00</gpxtpx:depth></gpxtpx:TrackPointExtension></extensions></trkpt><trkpt lat="54.9191339035" lon="58.0393059086"><ele>359.45</ele><time>2018-08-23T13:11:20Z</time><extensions><gpxtpx:TrackPointExtension><gpxtpx:depth>0.00</gpxtpx:depth></gpxtpx:TrackPointExtension></extensions></trkpt><trkpt lat="54.9188820273" lon="58.0408229493"><ele>363.67</ele><time>2018-08-23T13:12:18Z</time><extensions><gpxtpx:TrackPointExtension><gpxtpx:depth>0.00</gpxtpx:depth></gpxtpx:TrackPointExtension></extensions></trkpt><trkpt lat="54.9187328294" lon="58.0423437618"><ele>368.03</ele><time>2018-08-23T13:15:21Z</time><extensions><gpxtpx:TrackPointExtension><gpxtpx:depth>0.00</gpxtpx:depth></gpxtpx:TrackPointExtension></extensions></trkpt><trkpt lat="54.9186700489" lon="58.0439726170"><ele>373.79</ele><time>2018-08-23T13:16:21Z</time><extensions><gpxtpx:TrackPointExtension><gpxtpx:depth>0.00</gpxtpx:depth></gpxtpx:TrackPointExtension></extensions></trkpt><trkpt lat="54.9187248666" lon="58.0456035677"><ele>379.74</ele><time>2018-08-23T13:17:30Z</time><extensions><gpxtpx:TrackPointExtension><gpxtpx:depth>0.00</gpxtpx:depth></gpxtpx:TrackPointExtension></extensions></trkpt><trkpt lat="54.9189084303" lon="58.0472615920"><ele>385.84</ele><time>2018-08-23T13:18:40Z</time><extensions><gpxtpx:TrackPointExtension><gpxtpx:depth>0.00</gpxtpx:depth></gpxtpx:TrackPointExtension></extensions></trkpt><trkpt lat="54.9191557802" lon="58.0488052033"><ele>391.30</ele><time>2018-08-23T13:19:45Z</time><extensions><gpxtpx:TrackPointExtension><gpxtpx:depth>0.00</gpxtpx:depth></gpxtpx:TrackPointExtension></extensions></trkpt><trkpt lat="54.9193903897" lon="58.0504996888"><ele>395.35</ele><time>2018-08-23T13:20:50Z</time><extensions><gpxtpx:TrackPointExtension><gpxtpx:depth>0.00</gpxtpx:depth></gpxtpx:TrackPointExtension></extensions></trkpt><trkpt lat="54.9195827544" lon="58.0520444736"><ele>397.45</ele><time>2018-08-23T13:21:50Z</time><extensions><gpxtpx:TrackPointExtension><gpxtpx:depth>0.00</gpxtpx:depth></gpxtpx:TrackPointExtension></extensions></trkpt><trkpt lat="54.9199228920" lon="58.0530368909"><ele>399.04</ele><time>2018-08-23T13:22:50Z</time><extensions><gpxtpx:TrackPointExtension><gpxtpx:depth>0.00</gpxtpx:depth></gpxtpx:TrackPointExtension></extensions></trkpt><trkpt lat="54.9200559128" lon="58.0539065972"><ele>399.56</ele><time>2018-08-23T13:28:16Z</time><extensions><gpxtpx:TrackPointExtension><gpxtpx:depth>0.00</gpxtpx:depth></gpxtpx:TrackPointExtension></extensions></trkpt><trkpt lat="54.9200929608" lon="58.0541619938"><ele>399.39</ele><time>2018-08-23T13:33:56Z</time><extensions><gpxtpx:TrackPointExtension><gpxtpx:depth>0.00</gpxtpx:depth></gpxtpx:TrackPointExtension></extensions></trkpt><trkpt lat="54.9198202975" lon="58.0556093808"><ele>399.22</ele><time>2018-08-23T13:34:48Z</time><extensions><gpxtpx:TrackPointExtension><gpxtpx:depth>0.00</gpxtpx:depth></gpxtpx:TrackPointExtension></extensions></trkpt><trkpt lat="54.9197241571" lon="58.0571974162"><ele>398.08</ele><time>2018-08-23T13:35:21Z</time><extensions><gpxtpx:TrackPointExtension><gpxtpx:depth>0.00</gpxtpx:depth></gpxtpx:TrackPointExtension></extensions></trkpt><trkpt lat="54.9194998574" lon="58.0587286223"><ele>397.16</ele><time>2018-08-23T13:35:51Z</time><extensions><gpxtpx:TrackPointExtension><gpxtpx:depth>0.00</gpxtpx:depth></gpxtpx:TrackPointExtension></extensions></trkpt><trkpt lat="54.9191422015" lon="58.0602448247"><ele>395.14</ele><time>2018-08-23T13:36:21Z</time><extensions><gpxtpx:TrackPointExtension><gpxtpx:depth>0.00</gpxtpx:depth></gpxtpx:TrackPointExtension></extensions></trkpt><trkpt lat="54.9186882377" lon="58.0616341252"><ele>393.23</ele><time>2018-08-23T13:36:44Z</time><extensions><gpxtpx:TrackPointExtension><gpxtpx:depth>0.00</gpxtpx:depth></gpxtpx:TrackPointExtension></extensions></trkpt><trkpt lat="54.9181875028" lon="58.0630369205"><ele>390.31</ele><time>2018-08-23T13:37:09Z</time><extensions><gpxtpx:TrackPointExtension><gpxtpx:depth>0.00</gpxtpx:depth></gpxtpx:TrackPointExtension></extensions></trkpt><trkpt lat="54.9176939763" lon="58.0643804558"><ele>386.97</ele><time>2018-08-23T13:37:33Z</time><extensions><gpxtpx:TrackPointExtension><gpxtpx:depth>0.00</gpxtpx:depth></gpxtpx:TrackPointExtension></extensions></trkpt><trkpt lat="54.9172231648" lon="58.0657147709"><ele>383.15</ele><time>2018-08-23T13:37:56Z</time><extensions><gpxtpx:TrackPointExtension><gpxtpx:depth>0.00</gpxtpx:depth></gpxtpx:TrackPointExtension></extensions></trkpt><trkpt lat="54.9167340808" lon="58.0670746509"><ele>380.37</ele><time>2018-08-23T13:38:10Z</time><extensions><gpxtpx:TrackPointExtension><gpxtpx:depth>0.00</gpxtpx:depth></gpxtpx:TrackPointExtension></extensions></trkpt><trkpt lat="54.9162032548" lon="58.0685445014"><ele>375.89</ele><time>2018-08-23T13:38:21Z</time><extensions><gpxtpx:TrackPointExtension><gpxtpx:depth>0.00</gpxtpx:depth></gpxtpx:TrackPointExtension></extensions></trkpt><trkpt lat="54.9156924617" lon="58.0699401721"><ele>371.58</ele><time>2018-08-23T13:38:30Z</time><extensions><gpxtpx:TrackPointExtension><gpxtpx:depth>0.00</gpxtpx:depth></gpxtpx:TrackPointExtension></extensions></trkpt><trkpt lat="54.9151530024" lon="58.0714129563"><ele>366.03</ele><time>2018-08-23T13:38:39Z</time><extensions><gpxtpx:TrackPointExtension><gpxtpx:depth>0.00</gpxtpx:depth></gpxtpx:TrackPointExtension></extensions></trkpt><trkpt lat="54.9146730546" lon="58.0727837328"><ele>360.68</ele><time>2018-08-23T13:38:48Z</time><extensions><gpxtpx:TrackPointExtension><gpxtpx:depth>0.00</gpxtpx:depth></gpxtpx:TrackPointExtension></extensions></trkpt><trkpt lat="54.9142798595" lon="58.0741595384"><ele>359.31</ele><time>2018-08-23T13:39:02Z</time><extensions><gpxtpx:TrackPointExtension><gpxtpx:depth>0.00</gpxtpx:depth></gpxtpx:TrackPointExtension></extensions></trkpt><trkpt lat="54.9140160810" lon="58.0755663570"><ele>364.61</ele><time>2018-08-23T13:42:25Z</time><extensions><gpxtpx:TrackPointExtension><gpxtpx:depth>0.00</gpxtpx:depth></gpxtpx:TrackPointExtension></extensions></trkpt><trkpt lat="54.9138863292" lon="58.0771089625"><ele>369.62</ele><time>2018-08-23T13:43:18Z</time><extensions><gpxtpx:TrackPointExtension><gpxtpx:depth>0.00</gpxtpx:depth></gpxtpx:TrackPointExtension></extensions></trkpt><trkpt lat="54.9139131512" lon="58.0787137616"><ele>375.42</ele><time>2018-08-23T13:44:19Z</time><extensions><gpxtpx:TrackPointExtension><gpxtpx:depth>0.00</gpxtpx:depth></gpxtpx:TrackPointExtension></extensions></trkpt><trkpt lat="54.9139898457" lon="58.0802888889"><ele>381.97</ele><time>2018-08-23T13:45:20Z</time><extensions><gpxtpx:TrackPointExtension><gpxtpx:depth>0.00</gpxtpx:depth></gpxtpx:TrackPointExtension></extensions></trkpt><trkpt lat="54.9140444119" lon="58.0818477552"><ele>388.36</ele><time>2018-08-23T13:46:22Z</time><extensions><gpxtpx:TrackPointExtension><gpxtpx:depth>0.00</gpxtpx:depth></gpxtpx:TrackPointExtension></extensions></trkpt><trkpt lat="54.9139856547" lon="58.0834410712"><ele>392.63</ele><time>2018-08-23T13:47:19Z</time><extensions><gpxtpx:TrackPointExtension><gpxtpx:depth>0.00</gpxtpx:depth></gpxtpx:TrackPointExtension></extensions></trkpt><trkpt lat="54.9137966428" lon="58.0850168690"><ele>396.60</ele><time>2018-08-23T13:48:08Z</time><extensions><gpxtpx:TrackPointExtension><gpxtpx:depth>0.00</gpxtpx:depth></gpxtpx:TrackPointExtension></extensions></trkpt><trkpt lat="54.9134021904" lon="58.0864743982"><ele>398.36</ele><time>2018-08-23T13:48:54Z</time><extensions><gpxtpx:TrackPointExtension><gpxtpx:depth>0.00</gpxtpx:depth></gpxtpx:TrackPointExtension></extensions></trkpt><trkpt lat="54.9129706901" lon="58.0878660455"><ele>398.36</ele><time>2018-08-23T13:49:32Z</time><extensions><gpxtpx:TrackPointExtension><gpxtpx:depth>0.00</gpxtpx:depth></gpxtpx:TrackPointExtension></extensions></trkpt><trkpt lat="54.9125212524" lon="58.0892869458"><ele>396.49</ele><time>2018-08-23T13:50:01Z</time><extensions><gpxtpx:TrackPointExtension><gpxtpx:depth>0.00</gpxtpx:depth></gpxtpx:TrackPointExtension></extensions></trkpt><trkpt lat="54.9120879080" lon="58.0906794313"><ele>393.41</ele><time>2018-08-23T13:50:19Z</time><extensions><gpxtpx:TrackPointExtension><gpxtpx:depth>0.00</gpxtpx:depth></gpxtpx:TrackPointExtension></extensions></trkpt><trkpt lat="54.9116372131" lon="58.0921331886"><ele>387.97</ele><time>2018-08-23T13:50:35Z</time><extensions><gpxtpx:TrackPointExtension><gpxtpx:depth>0.00</gpxtpx:depth></gpxtpx:TrackPointExtension></extensions></trkpt><trkpt lat="54.9111935589" lon="58.0935685895"><ele>382.56</ele><time>2018-08-23T13:50:48Z</time><extensions><gpxtpx:TrackPointExtension><gpxtpx:depth>0.00</gpxtpx:depth></gpxtpx:TrackPointExtension></extensions></trkpt><trkpt lat="54.9107565265" lon="58.0949648470"><ele>375.70</ele><time>2018-08-23T13:51:02Z</time><extensions><gpxtpx:TrackPointExtension><gpxtpx:depth>0.00</gpxtpx:depth></gpxtpx:TrackPointExtension></extensions></trkpt><trkpt lat="54.9103179853" lon="58.0963726714"><ele>367.79</ele><time>2018-08-23T13:51:22Z</time><extensions><gpxtpx:TrackPointExtension><gpxtpx:depth>0.00</gpxtpx:depth></gpxtpx:TrackPointExtension></extensions></trkpt><trkpt lat="54.9098648597" lon="58.0977142788"><ele>362.46</ele><time>2018-08-23T13:52:10Z</time><extensions><gpxtpx:TrackPointExtension><gpxtpx:depth>0.00</gpxtpx:depth></gpxtpx:TrackPointExtension></extensions></trkpt><trkpt lat="54.9094223790" lon="58.0990868155"><ele>358.49</ele><time>2018-08-23T13:53:21Z</time><extensions><gpxtpx:TrackPointExtension><gpxtpx:depth>0.00</gpxtpx:depth></gpxtpx:TrackPointExtension></extensions></trkpt><trkpt lat="54.9089886993" lon="58.1005364656"><ele>357.12</ele><time>2018-08-23T13:53:43Z</time><extensions><gpxtpx:TrackPointExtension><gpxtpx:depth>0.00</gpxtpx:depth></gpxtpx:TrackPointExtension></extensions></trkpt><trkpt lat="54.9085595459" lon="58.1019219942"><ele>353.15</ele><time>2018-08-23T13:54:02Z</time><extensions><gpxtpx:TrackPointExtension><gpxtpx:depth>0.00</gpxtpx:depth></gpxtpx:TrackPointExtension></extensions></trkpt><trkpt lat="54.9081206694" lon="58.1033132225"><ele>350.76</ele><time>2018-08-23T13:54:18Z</time><extensions><gpxtpx:TrackPointExtension><gpxtpx:depth>0.00</gpxtpx:depth></gpxtpx:TrackPointExtension></extensions></trkpt><trkpt lat="54.9077114649" lon="58.1047073007"><ele>347.94</ele><time>2018-08-23T13:54:33Z</time><extensions><gpxtpx:TrackPointExtension><gpxtpx:depth>0.00</gpxtpx:depth></gpxtpx:TrackPointExtension></extensions></trkpt><trkpt lat="54.9072602671" lon="58.1061259378"><ele>344.94</ele><time>2018-08-23T13:54:48Z</time><extensions><gpxtpx:TrackPointExtension><gpxtpx:depth>0.00</gpxtpx:depth></gpxtpx:TrackPointExtension></extensions></trkpt><trkpt lat="54.9068238214" lon="58.1075453293"><ele>340.77</ele><time>2018-08-23T13:55:10Z</time><extensions><gpxtpx:TrackPointExtension><gpxtpx:depth>0.00</gpxtpx:depth></gpxtpx:TrackPointExtension></extensions></trkpt><trkpt lat="54.9063967634" lon="58.1089394912"><ele>338.00</ele><time>2018-08-23T13:56:26Z</time><extensions><gpxtpx:TrackPointExtension><gpxtpx:depth>0.00</gpxtpx:depth></gpxtpx:TrackPointExtension></extensions></trkpt><trkpt lat="54.9057416338" lon="58.1083569489"><ele>335.27</ele><time>2018-08-23T13:57:28Z</time><extensions><gpxtpx:TrackPointExtension><gpxtpx:depth>0.00</gpxtpx:depth></gpxtpx:TrackPointExtension></extensions></trkpt><trkpt lat="54.9060697015" lon="58.1071419083"><ele>338.31</ele><time>2018-08-23T14:17:05Z</time><extensions><gpxtpx:TrackPointExtension><gpxtpx:depth>0.00</gpxtpx:depth></gpxtpx:TrackPointExtension></extensions></trkpt><trkpt lat="54.9060174823" lon="58.1070145033"><ele>337.22</ele><time>2018-08-23T14:28:23Z</time><extensions><gpxtpx:TrackPointExtension><gpxtpx:depth>0.00</gpxtpx:depth></gpxtpx:TrackPointExtension></extensions></trkpt><trkpt lat="54.9060399458" lon="58.1071118172"><ele>336.94</ele><time>2018-08-23T14:34:58Z</time><extensions><gpxtpx:TrackPointExtension><gpxtpx:depth>0.00</gpxtpx:depth></gpxtpx:TrackPointExtension></extensions></trkpt></trkseg></trk></gpx>